{"type": "Feature","bbox": [18.6749,47.4735,19.0298,47.7051],"geometry": {"type": "MultiPolygon","coordinates": [[[[19.0298,47.6183,146.5929],[19.0024,47.6288,182.6152],[18.9859,47.6391,250.5247],[18.9769,47.6367,330.7617],[18.9652,47.6295,288.9124],[18.9559,47.6264,196.2693],[18.9431,47.6299,184.5209],[18.9341,47.6417,267.8061],[18.9214,47.6494,196.5707],[18.9161,47.6575,271.3876],[18.9197,47.6737,388.0708],[18.9231,47.681399999999996,254.4794],[18.9234,47.6946,437.6251],[18.9218,47.6985,547.9792],[18.9006,47.7032,468.6168],[18.8821,47.7025,416.1465],[18.8549,47.7051,675.5789],[18.8531,47.7033,687.7135],[18.8537,47.7005,703.5399],[18.8676,47.6835,524.2142],[18.8686,47.6761,334.1783],[18.8668,47.6728,295.054],[18.8605,47.6708,302.6846],[18.8368,47.6683,314.164],[18.8155,47.6719,196.1892],[18.7916,47.6788,204.0814],[18.7753,47.677,188.4684],[18.7733,47.674,191.5249],[18.7768,47.6692,185.4914],[18.7762,47.6669,216.134],[18.7616,47.664,219.4646],[18.7592,47.6621,238.0762],[18.7729,47.6516,235.81],[18.774,47.6491,210.635],[18.7728,47.6459,231.2994],[18.7475,47.634,233.7863],[18.739,47.6242,232.5291],[18.7357,47.615,265.3385],[18.7176,47.6079,248.1724],[18.7193,47.5968,283.5788],[18.7174,47.592,273.4962],[18.6909,47.5844,214.9928],[18.6749,47.5735,223.3444],[18.6788,47.5663,227.1186],[18.6862,47.5591,204.9316],[18.6821,47.5482,220.5632],[18.6828,47.5323,167.9401],[18.7094,47.498,159.9079],[18.7156,47.493899999999996,148.3063],[18.7223,47.4914,168.304],[18.7264,47.4985,154.9206],[18.7361,47.5087,161.2345],[18.7423,47.5128,171.1659],[18.7463,47.5133,165.5466],[18.7635,47.5113,139.0042],[18.7679,47.5093,153.9209],[18.7677,47.5063,145.7208],[18.7618,47.5029,139.9267],[18.7576,47.4977,148.2809],[18.7572,47.4932,136.7214],[18.7651,47.4849,131.1386],[18.7823,47.4774,128.5],[18.7894,47.4773,128.8368],[18.8032,47.4809,143.8522],[18.8139,47.4892,174.4694],[18.8474,47.4914,306.6841],[18.8539,47.4899,314.3339],[18.8587,47.4841,253.0631],[18.8641,47.4808,231.0968],[18.8863,47.4806,233.7369],[18.9071,47.4735,180.1855],[18.9239,47.4786,180.8423],[18.9361,47.4873,287.6784],[18.9418,47.4935,295.7017],[18.9296,47.4957,257.4835],[18.9275,47.4976,262.3092],[18.9351,47.5098,272.9268],[18.9286,47.5177,258.7146],[18.9277,47.5219,279.9931],[18.9294,47.5744,318.3756],[18.9311,47.5803,309.5889],[18.9398,47.5857,202.811],[18.9716,47.586,152.7359],[18.9827,47.5913,126.3267],[19.0087,47.5917,157.1929],[19.0206,47.5951,190.1841],[19.028,47.5993,210.8153],[19.0298,47.6183,146.5929]]]]}
,"properties": {"GID_2": "HUN.14.10_1","GID_0": "HUN","country": "Hungary","GID_1": "HUN.14_1","province": "Pest","NL_NAME_1": "NA","county": "Pilisvörösvár","VARNAME_2": "Pilisvörösvári","NL_NAME_2": "NA","TYPE_2": "Kistérség","ENGTYPE_2": "Subregion","CC_2": "NA","HASC_2": "NA","name": "Pilisvörösvár.county","area_km2": 377.6436,"hist_schema_id": "Elevation0-9000","hist_area_km2": {"125": 2.0471,"150": 31.4745,"175": 53.8899,"200": 53.704,"225": 49.9404,"250": 38.4811,"275": 29.9028,"300": 23.7956,"325": 18.6901,"350": 16.1274,"375": 13.3812,"400": 12.625,"425": 9.9377,"450": 8.1662,"475": 5.2621,"500": 3.2607,"525": 2.3597,"550": 1.3443,"575": 0.257,"600": 0.2283,"625": 0.2141,"650": 0.4852,"675": 0.4852,"700": 0.5137,"725": 0.7135,"750": 0.3568}}}