{"type":"Feature","properties":{"GID_2":"HUN.15.7_1","GID_0":"HUN","country":"Hungary","GID_1":"HUN.15_1","province":"Somogy","NL_NAME_1":"NA","county":"Marcali","VARNAME_2":"NA","NL_NAME_2":"NA","TYPE_2":"Kistérség","ENGTYPE_2":"Subregion","CC_2":"NA","HASC_2":"NA","name":"Marcali.county"},
"geometry":{"type": "MultiPolygon","coordinates": [[[[17.248,46.36,156.6077],[17.2573,46.3577,167.4705],[17.2662,46.3612,163.2886],[17.2779,46.3554,162.7322],[17.2871,46.3567,160.9821],[17.2931,46.3651,170.7039],[17.2936,46.3761,159.9266],[17.2949,46.3788,163.228],[17.31,46.3808,162.6115],[17.3137,46.383,147.9946],[17.3135,46.3959,157.0283],[17.3069,46.399,165.4076],[17.3057,46.4016,165.714],[17.3073,46.4038,172.1644],[17.3187,46.4074,146.8972],[17.3248,46.407,148.0783],[17.3325,46.3999,167.8945],[17.3365,46.4004,155.6434],[17.3395,46.4046,147.8452],[17.3443,46.4057,154.3578],[17.3573,46.4037,154.8372],[17.3664,46.3993,165.8954],[17.3715,46.3985,181.5686],[17.4007,46.3998,149.122],[17.413,46.4046,145.3829],[17.4182,46.4014,144.9685],[17.4163,46.3942,145.9663],[17.4199,46.3921,145.5081],[17.4319,46.3992,147.7814],[17.4337,46.4115,158.9657],[17.4405,46.4128,156.1419],[17.445,46.4111,163.3625],[17.453,46.3998,152.32],[17.4652,46.4184,151.9517],[17.4647,46.4239,156.8837],[17.4589,46.4327,156.7791],[17.464,46.4394,157.2492],[17.4652,46.4446,147.6086],[17.4648,46.4561,145.9666],[17.4612,46.4629,148.0339],[17.4615,46.4675,150.8092],[17.4815,46.4792,159.413],[17.5122,46.4894,153.165],[17.5156,46.4949,147.8683],[17.5216,46.4996,142.6237],[17.5221,46.5087,137.1059],[17.5248,46.5119,136.4591],[17.5342,46.5145,132.2012],[17.5383,46.5138,133.6458],[17.5423,46.5086,137.0421],[17.5432,46.4997,139.3892],[17.547,46.492,149.0549],[17.5527,46.4895,133.3594],[17.5657,46.4905,146.3209],[17.5715,46.4946,141.974],[17.5804,46.4969,146.2711],[17.5945,46.5044,151.8234],[17.6186,46.5018,159.7952],[17.6257,46.5022,159.9134],[17.6292,46.5041,160.9848],[17.6334,46.5131,157.2848],[17.6329,46.5212,149.3737],[17.6271,46.5304,156.3679],[17.6135,46.5348,163.8722],[17.611,46.5422,171.354],[17.6008,46.5562,177.4075],[17.5994,46.5734,158.8675],[17.5956,46.5819,151.5421],[17.595,46.5961,153.6115],[17.5876,46.6052,151.4239],[17.5863,46.6146,147.5476],[17.58,46.6183,156.0885],[17.5586,46.618,137.6129],[17.5539,46.6202,131.9941],[17.5525,46.6513,115.6173],[17.5378,46.6631,114.0838],[17.5324,46.6765,108.1956],[17.5315,46.6972,103.3052],[17.5274,46.7072,102.6557],[17.5269,46.7256,110.4013],[17.5126,46.7253,107.7384],[17.5071,46.7163,103.388],[17.5072,46.6969,104.0109],[17.5154,46.6755,102.0148],[17.5143,46.6726,102.7528],[17.5108,46.6715,103.0734],[17.4903,46.6742,104.1742],[17.455,46.6748,102.7318],[17.4534,46.678,104.2248],[17.4537,46.6856,103.9083],[17.4608,46.7,103.5452],[17.4584,46.7024,104.9846],[17.4527,46.7026,105.9124],[17.41,46.6936,103.0497],[17.3929,46.6954,103.6888],[17.375,46.6877,122.3682],[17.3594,46.6862,144.3661],[17.3498,46.6763,177.6663],[17.339,46.6777,200.2133],[17.3351,46.6749,204.8226],[17.3284,46.6651,193.9805],[17.3225,46.6641,206.3496],[17.3136,46.6682,175.6982],[17.2983,46.6702,118.8484],[17.297,46.6871,110.0997],[17.2895,46.6982,106.1451],[17.2881,46.7134,103.5],[17.2826,46.7217,103.5],[17.275,46.7109,103.5],[17.2659,46.7014,107.0055],[17.232,46.6873,105.8869],[17.2284,46.6846,106.0555],[17.2281,46.6437,105.2123],[17.2204,46.6247,105.6179],[17.2213,46.5543,106.7698],[17.2223,46.5496,107.0751],[17.2374,46.5265,127.2432],[17.2383,46.5213,130.1154],[17.2358,46.5177,133.0839],[17.206,46.5065,119.9172],[17.1984,46.5003,125.1213],[17.1979,46.4868,126.0885],[17.2017,46.4783,123.7599],[17.2019,46.4736,125.1921],[17.1985,46.4654,122.572],[17.1979,46.4482,131.1189],[17.1899,46.4371,123.504],[17.1995,46.4238,134.4308],[17.2026,46.4217,156.5853],[17.2231,46.4214,167.4267],[17.2513,46.4138,171.937],[17.2525,46.3861,173.6434],[17.2455,46.3776,178.6139],[17.2486,46.3701,170.1866],[17.248,46.36,156.6077]]]]}}