{"type": "Feature","bbox": [18.926,47.6915,20.0897,48.2527],"geometry": {"type": "MultiPolygon","coordinates": [[[[19.8191,47.9121,502.7809],[19.819,47.9239,617.5278],[19.8277,47.9282,695.3965],[19.8456,47.9323,558.9872],[19.8928,47.9357,533.7659],[19.922,47.9272,653.3324],[19.9424,47.9356,528.7956],[19.948,47.9541,371.0526],[19.9717,47.964,348.5644],[19.9735,47.9817,284.0693],[19.9941,47.9901,326.4427],[19.9946,47.9995,235.6111],[19.9902,48.0084,266.8604],[19.9952,48.0169,288.5061],[20.0023,48.0203,264.7314],[20.029,48.0242,229.7958],[20.0343,48.0284,230.6059],[20.0195,48.0414,304.0822],[20.0158,48.0589,340.4781],[20.0095,48.065,315.7097],[19.9843,48.077,442.3408],[19.9717,48.0788,425.4315],[19.9698,48.0896,369.8768],[19.9707,48.0942,319.075],[19.9788,48.0968,334.5963],[20.0114,48.0999,267.6178],[20.04,48.0998,213.5792],[20.0412,48.1071,229.8752],[20.0456,48.1135,214.5211],[20.0697,48.1151,323.8468],[20.0764,48.1182,340.1044],[20.0825,48.1267,342.7104],[20.0897,48.1411,363.0755],[20.0895,48.1463,352.3723],[20.0855,48.1499,319.9017],[20.0784,48.1516,295.7422],[20.0611,48.1501,266.597],[20.0549,48.1589,289.0294],[20.0507,48.1696,343.3066],[20.0487,48.1679,348.7362],[20.0425,48.1691,341.9594],[20.0406,48.1748,327.3569],[20.0324,48.1764,328.4508],[20.021,48.176,279.2964],[20.0107,48.1712,264.3708],[19.9979,48.1724,270.1545],[19.9871,48.1681,285.5776],[19.9826,48.1643,282.5919],[19.9735,48.1665,294.2081],[19.9676,48.1648,276.4631],[19.9609,48.1539,274.4399],[19.9517,48.1522,285.4647],[19.934,48.1339,413.3967],[19.9269,48.1296,468.3339],[19.9108,48.1307,477.7352],[19.9054,48.1273,461.3495],[19.8984,48.1293,436.8959],[19.8977,48.1336,440.3384],[19.9091,48.1429,341.8249],[19.9106,48.1488,378.2708],[19.9027,48.1529,509.7494],[19.8948,48.1654,516.807],[19.8813,48.1659,663.7245],[19.8756,48.171,545.6254],[19.8686,48.1718,520.9131],[19.8613,48.17,454.4899],[19.8537,48.1776,387.6827],[19.849,48.1761,558.3145],[19.8393,48.1645,392.6498],[19.831,48.165,363.7823],[19.8258,48.1694,375.1058],[19.8166,48.1706,314.5309],[19.8099,48.1653,332.7506],[19.8053,48.1573,407.6449],[19.7989,48.1558,524.8993],[19.7892,48.158,712.7883],[19.7836,48.1627,610.6602],[19.7847,48.1685,554.8801],[19.7881,48.1734,591.9582],[19.8015,48.1842,394.8177],[19.8034,48.1883,446.3041],[19.8008,48.1942,454.2696],[19.7877,48.1955,374.5355],[19.7796,48.2034,308.5375],[19.7706,48.207,309.8897],[19.7543,48.2171,315.5202],[19.7426,48.2184,300.2761],[19.7337,48.2166,345.2324],[19.7259,48.2092,284.8465],[19.7179,48.2043,306.3804],[19.7071,48.2034,324.7233],[19.6957,48.2058,314.2208],[19.6795,48.2159,316.5462],[19.6747,48.2223,306.1182],[19.6729,48.2382,330.0179],[19.665,48.243,307.2259],[19.6565,48.2406,286.1085],[19.6479,48.2408,221.2758],[19.6371,48.2527,167.2522],[19.6286,48.2514,164.9653],[19.6135,48.2427,164.3571],[19.5954,48.2305,162.8009],[19.579,48.2169,162.0399],[19.5488,48.211,212.0656],[19.5378,48.2108,159.9251],[19.5278,48.2064,159.2779],[19.5247,48.2,172.3756],[19.528,48.1944,160.8683],[19.5245,48.1881,159.5226],[19.5176,48.1848,158.1974],[19.5085,48.1747,157.6062],[19.5125,48.161,157.508],[19.5118,48.1533,155.3637],[19.4962,48.1407,154.3055],[19.4967,48.1339,152.38],[19.4931,48.1133,150.0741],[19.4852,48.1054,150.1929],[19.4724,48.1001,155.732],[19.4686,48.0879,148.0007],[19.4613,48.0887,149.3327],[19.4567,48.0912,149.7035],[19.454,48.0948,148.662],[19.4557,48.0999,147.8123],[19.4623,48.1024,155.8229],[19.4611,48.105,169.4303],[19.4548,48.105,248.5793],[19.438,48.1025,146.6296],[19.4285,48.0933,145.9881],[19.4207,48.0906,146.5734],[19.4094,48.0905,151.2485],[19.4034,48.0866,147.6641],[19.3935,48.0882,145.0777],[19.3874,48.0929,158.1187],[19.3754,48.0925,160.8976],[19.372,48.0891,145.1157],[19.3577,48.093,141.8551],[19.3442,48.0934,147.0343],[19.3208,48.0883,140.928],[19.3096,48.0898,141.3133],[19.2984,48.0893,141.144],[19.2934,48.0842,141.2274],[19.2828,48.0809,140.7036],[19.2775,48.0747,139.4897],[19.27,48.0752,140.0736],[19.2663,48.0787,138.8595],[19.2618,48.0788,140.741],[19.2613,48.0735,140.0968],[19.2494,48.0694,139.06],[19.2484,48.0644,138.5449],[19.2444,48.0578,137.84],[19.2354,48.0571,136.7249],[19.2268,48.0593,137.0997],[19.2253,48.0634,136.1912],[19.2165,48.0651,135.7347],[19.2058,48.0658,135.1514],[19.1985,48.0633,135.8133],[19.1872,48.0625,134.4662],[19.1536,48.0698,133.2426],[19.1343,48.0763,139.6152],[19.1248,48.0735,132.5546],[19.1198,48.0689,131.8047],[19.1131,48.0685,131.1294],[19.0992,48.0701,130.2583],[19.089,48.0744,129.9398],[19.0818,48.0727,135.9072],[19.0764,48.0667,129.9615],[19.0651,48.0647,133.7078],[19.0579,48.0608,133.8078],[19.0469,48.0672,128.4019],[19.0359,48.0682,128.2584],[19.0208,48.0773,126.6861],[19.0125,48.0779,157.3174],[19.0107,48.074,128.5513],[19.0055,48.0709,126.2511],[18.9948,48.0699,129.549],[18.9876,48.0584,128.407],[18.9677,48.057,137.4696],[18.9395,48.06,147.9234],[18.9291,48.0588,146.9431],[18.926,48.0569,148.5828],[18.9272,48.0471,182.5457],[18.9348,48.0357,296.2214],[18.9571,48.0285,313.1021],[18.974,48.0271,376.786],[18.9836,48.0244,374.183],[18.988,48.022,495.4795],[18.9898,48.0178,496.1638],[18.9895,48.0016,408.7765],[18.9801,47.987,502.7209],[18.9759,47.9847,424.3181],[18.9514,47.9784,533.2913],[18.9413,47.9727,595.2912],[18.9309,47.9629,813.9067],[18.9304,47.9546,702.917],[18.9319,47.9501,659.6608],[18.9452,47.9336,760.246],[18.955,47.9282,617.7761],[18.9721,47.9225,440.7505],[18.9821,47.9118,322.5181],[18.9968,47.9028,299.6838],[19.0253,47.8929,269.8663],[19.0358,47.8833,232.4475],[19.0373,47.8717,330.912],[19.04,47.8681,319.9514],[19.0515,47.8641,312.7189],[19.0677,47.8621,192.3077],[19.0695,47.859,220.91309999999999],[19.0693,47.8509,296.0282],[19.071,47.847,278.9194],[19.0828,47.8463,279.2758],[19.0958,47.853,251.7023],[19.1056,47.8558,223.7401],[19.1272,47.8558,313.0897],[19.1585,47.8497,265.2625],[19.199,47.8482,300.4327],[19.2123,47.8406,258.7502],[19.2219,47.8305,303.0519],[19.2261,47.8288,311.8011],[19.2882,47.8283,300.6158],[19.3123,47.8334,261.3345],[19.3226,47.8338,277.419],[19.3416,47.8303,236.2371],[19.3668,47.8227,179.9079],[19.396,47.8224,170.5297],[19.4125,47.8171,254.4489],[19.4357,47.8178,226.054],[19.4424,47.808,211.1376],[19.4232,47.7855,212.4316],[19.4223,47.78,222.2185],[19.4235,47.7735,246.0959],[19.4409,47.7737,190.3122],[19.4497,47.771,163.2682],[19.453,47.7673,201.7111],[19.4479,47.7581,212.2403],[19.4341,47.7528,315.3278],[19.4324,47.7486,306.8929],[19.4419,47.7368,284.3571],[19.4602,47.719,279.3152],[19.4757,47.7106,236.8481],[19.4802,47.7035,245.304],[19.479,47.6927,236.7462],[19.482,47.6917,227.0953],[19.4954,47.6915,198.0449],[19.5094,47.6964,221.3881],[19.511,47.7016,203.9331],[19.5031,47.7154,213.8996],[19.5034,47.7202,165.7431],[19.511,47.7254,160.5928],[19.5289,47.7277,175.9575],[19.544,47.7459,173.3886],[19.5623,47.7471,161.201],[19.5775,47.7448,153.6957],[19.5955,47.7479,130.8064],[19.6047,47.7524,155.7206],[19.6101,47.7625,157.3634],[19.6148,47.7668,160.0864],[19.649,47.7681,139.8036],[19.6497,47.7703,139.3535],[19.647,47.7783,140.565],[19.6508,47.7859,142.7087],[19.6513,47.7911,144.4615],[19.6469,47.804,149.8659],[19.6481,47.8075,148.792],[19.6525,47.811,133.2189],[19.6588,47.8124,136.6261],[19.6786,47.8076,133.7564],[19.6878,47.8177,135.6522],[19.7079,47.8182,234.4009],[19.7284,47.8211,322.5641],[19.73,47.8375,233.7918],[19.7488,47.8585,368.8491],[19.7672,47.8713,435.9867],[19.7687,47.8755,443.0658],[19.7693,47.8938,744.1643],[19.7793,47.9016,667.3528],[19.7863,47.9037,631.2468],[19.7982,47.9036,532.3663],[19.828,47.886,607.3697],[19.8396,47.8833,643.7175],[19.8481,47.8837,656.2657],[19.8522,47.8855,606.8434],[19.8571,47.8948,753.1667],[19.8576,47.9001,761.7698],[19.856,47.9038,799.2798],[19.8222,47.9085,589.1593],[19.8191,47.9121,502.7809]]]]}
,"properties": {"GID_1": "HUN.13_1","GID_0": "HUN","country": "Hungary","province": "Nógrád","VARNAME_1": "NA","NL_NAME_1": "NA","TYPE_1": "Megye","ENGTYPE_1": "County","CC_1": "NA","HASC_1": "HU.NO","ISO_1": "NA","name": "Nógrád.province","area_km2": 2554.455,"hist_schema_id": "Elevation0-9000","hist_area_km2": {"125": 34.973,"150": 227.621,"175": 284.328,"200": 327.615,"225": 354.706,"250": 325.674,"275": 269.936,"300": 193.09,"325": 140.404,"350": 97.088,"375": 67.609,"400": 49.682,"425": 38.165,"450": 28.019,"475": 20.211,"500": 17.859,"525": 16.582,"550": 15.2,"575": 9.806,"600": 7.809,"625": 5.837,"650": 4.729,"675": 3.963,"700": 3.296,"725": 2.87,"750": 2.202,"775": 1.321,"800": 1.179,"825": 0.88,"850": 0.696,"875": 0.483,"900": 0.398,"925": 0.185,"950": 0.043}}}