{"type":"Feature","properties":{"ISO3166-1-Alpha-3":"HUN","country":"Hungary","fill":"#F0F","id":"3163","name":"Komárom-Esztergom"},
"geometry":{"type": "Polygon","coordinates": [[[18.9165,47.72169,490.8269],[18.93469,47.73241,467.4081],[18.92146,47.74132,566.0556],[18.91567,47.77122,103.6466],[18.90575,47.78825,101.0],[18.88332,47.81217,110.1028],[18.84818,47.81706,102.0],[18.81728,47.83186,171.7487],[18.81492,47.83219,181.5736],[18.7903,47.82633,157.1888],[18.76767,47.8223,142.1214],[18.75031,47.81362,112.7079],[18.71723,47.78812,112.3456],[18.69284,47.77796,120.1365],[18.6637,47.7759,111.0069],[18.63383,47.77982,116.2413],[18.59745,47.79065,114.1183],[18.55259,47.79285,109.7533],[18.34785,47.77677,115.677],[18.27302,47.75626,108.2676],[18.23592,47.75388,109.1524],[18.11262,47.76249,116.1575],[17.88353,47.75252,109.6091],[17.88617,47.73921,103.5],[17.89486,47.71799,120.5067],[17.89599,47.69613,116.8417],[17.89176,47.67843,127.2867],[17.8994,47.66076,137.2097],[17.89765,47.63032,126.5717],[17.9271,47.6128,129.4605],[17.9055,47.57255,137.6406],[17.92907,47.54997,149.1741],[17.9178,47.53255,157.3743],[17.89558,47.53793,154.2651],[17.88669,47.53188,152.0651],[17.89785,47.50382,159.2505],[17.88245,47.47504,199.1034],[17.88245,47.45478,214.8683],[17.88545,47.42646,215.2824],[17.87904,47.39881,193.3539],[17.91708,47.38848,252.4957],[17.94932,47.38501,269.2538],[17.95511,47.36388,230.7656],[17.96638,47.34569,278.1006],[17.98922,47.34243,256.2017],[18.10322,47.35918,199.4435],[18.10973,47.3754,221.6235],[18.12068,47.38713,203.5763],[18.11841,47.41669,206.026],[18.12823,47.44021,232.9149],[18.15179,47.44095,281.0718],[18.17577,47.44548,263.1743],[18.19251,47.46392,265.2403],[18.21349,47.46346,244.5391],[18.27178,47.42925,232.1041],[18.28543,47.41442,283.866],[18.30279,47.40672,390.7809],[18.35602,47.41612,347.9133],[18.34641,47.42847,389.173],[18.33359,47.43752,271.8993],[18.34827,47.45209,256.3186],[18.3987,47.46925,331.6155],[18.42723,47.48899,427.126],[18.44655,47.49413,481.4557],[18.46195,47.50537,470.8373],[18.41017,47.52652,230.3639],[18.37483,47.55597,168.5344],[18.38465,47.57561,154.1122],[18.37287,47.60113,150.646],[18.40036,47.62076,268.7253],[18.43962,47.61683,286.8007],[18.49067,47.60898,239.3418],[18.52405,47.57561,346.0196],[18.51601,47.55529,275.6942],[18.68499,47.56185,206.2325],[18.71041,47.5787,228.0464],[18.72592,47.605,282.1032],[18.74762,47.6243,269.9834],[18.77501,47.63807,232.0225],[18.76891,47.65249,193.8865],[18.75909,47.66484,236.3349],[18.81129,47.67022,214.2959],[18.86369,47.66608,285.2152],[18.85304,47.71709,638.9618],[18.89376,47.72678,531.1435],[18.9165,47.72169,490.8269]]]}}