{"type":"Feature","properties":{"GID_1":"HUN.12_1","GID_0":"HUN","country":"Hungary","province":"Komárom-Esztergom","VARNAME_1":"Komarom","NL_NAME_1":"NA","TYPE_1":"Megye","ENGTYPE_1":"County","CC_1":"NA","HASC_1":"HU.KE","ISO_1":"NA","name":"Komárom-Esztergom.province"},
"geometry":{"type": "MultiPolygon","coordinates": [[[[18.1823,47.4643,292.9154],[18.1831,47.4764,233.206],[18.2068,47.4764,257.1965],[18.228,47.4681,224.6061],[18.2314,47.4644,213.6404],[18.2321,47.456,213.4341],[18.238,47.4416,188.093],[18.2577,47.433,241.7923],[18.2653,47.423,255.4241],[18.2822,47.4082,292.5982],[18.2984,47.4067,317.185],[18.3055,47.4083,375.1636],[18.3119,47.4157,327.3556],[18.3165,47.4183,314.702],[18.3321,47.4165,371.9037],[18.3469,47.4205,398.5642],[18.3478,47.4254,388.9095],[18.3377,47.4402,275.4241],[18.3387,47.4464,261.3287],[18.3588,47.4612,255.7127],[18.3783,47.461,330.0269],[18.3959,47.4651,359.6396],[18.4017,47.4693,335.3484],[18.4171,47.4894,397.8474],[18.4213,47.492,387.3384],[18.4303,47.4923,400.8442],[18.444,47.4885,387.4661],[18.4503,47.4785,412.9457],[18.4554,47.477,364.7227],[18.4624,47.4783,364.823],[18.4774,47.4947,396.2386],[18.483,47.4971,342.8689],[18.4964,47.4967,232.9383],[18.515,47.4856,186.3232],[18.5256,47.4854,198.4986],[18.5277,47.4881,239.6186],[18.5265,47.4913,237.5081],[18.5154,47.5023,291.8945],[18.4967,47.5129,237.0191],[18.4912,47.5208,232.2996],[18.4908,47.5337,212.3606],[18.488,47.5411,220.3011],[18.4885,47.5524,224.259],[18.4902,47.5558,209.9037],[18.5001,47.5591,283.7526],[18.5182,47.5594,249.1767],[18.551,47.5695,242.2255],[18.6395,47.5671,293.944],[18.6749,47.5735,223.3444],[18.6909,47.5844,214.9928],[18.7174,47.592,273.4962],[18.7193,47.5968,283.5788],[18.7176,47.6079,248.1724],[18.7357,47.615,265.3385],[18.739,47.6242,232.5291],[18.7475,47.634,233.7863],[18.7728,47.6459,231.2994],[18.774,47.6491,210.635],[18.7729,47.6516,235.81],[18.7592,47.6621,238.0762],[18.7616,47.664,219.4646],[18.7762,47.6669,216.134],[18.7768,47.6692,185.4914],[18.7733,47.674,191.5249],[18.7753,47.677,188.4684],[18.7916,47.6788,204.0814],[18.8155,47.6719,196.1892],[18.8368,47.6683,314.164],[18.8659,47.6723,296.2682],[18.8686,47.6761,334.1783],[18.8676,47.6835,524.2142],[18.8532,47.7016,703.5399],[18.861,47.7157,625.7844],[18.8611,47.7246,481.3925],[18.886,47.7286,621.1016],[18.9013,47.7337,438.6324],[18.9039,47.7328,356.9047],[18.9125,47.7231,494.1425],[18.9281,47.7233,472.9714],[18.9339,47.729,579.58],[18.9372,47.7418,409.2798],[18.9221,47.7534,322.1044],[18.9196,47.7815,261.4428],[18.9129,47.7818,120.5215],[18.9095,47.7838,101.0],[18.9072,47.8003,101.5],[18.8987,47.8122,127.956],[18.8949,47.8135,127.8596],[18.8784,47.8114,101.5],[18.8703,47.8131,102.0],[18.8627,47.8171,112.7668],[18.8488,47.8195,105.2531],[18.8482,47.8171,102.0],[18.7658,47.8188,102.0],[18.7544,47.8183,102.0],[18.7423,47.8155,103.8252],[18.7344,47.8105,102.0],[18.7257,47.7914,103.3398],[18.6976,47.7761,102.0],[18.663,47.7613,102.5],[18.6171,47.7592,105.7644],[18.5524,47.7689,102.5],[18.5385,47.7668,102.5],[18.5194,47.7584,102.5],[18.5054,47.7547,102.5],[18.4938,47.754,102.5],[18.4826,47.7563,103.0],[18.4606,47.7643,103.0],[18.4483,47.7658,103.0],[18.4381,47.7631,103.0],[18.416,47.754,103.0],[18.3879,47.7509,103.0],[18.3463,47.7408,103.0],[18.2951,47.7327,103.0],[18.2787,47.7334,103.5],[18.2492,47.7402,103.5],[18.2196,47.7427,103.5],[18.1858,47.7394,103.5],[18.1418,47.7506,111.0436],[18.083,47.7569,103.5],[18.0411,47.7571,104.9221],[18.0296,47.7557,103.5],[18.0033,47.747,103.5],[17.9688,47.7577,103.5],[17.9626,47.7574,107.931],[17.9443,47.7445,103.5],[17.9248,47.7441,103.5],[17.9053,47.7407,103.5],[17.9068,47.7406,103.5],[17.9002,47.7336,119.0214],[17.8956,47.7248,118.3802],[17.896,47.7084,118.8438],[17.8928,47.6986,116.6642],[17.8949,47.661,135.7942],[17.888,47.6484,123.3647],[17.8879,47.6387,124.6663],[17.8912,47.6328,125.942],[17.9059,47.6232,127.252],[17.9261,47.6164,128.5677],[17.928,47.6034,130.7269],[17.9262,47.5991,130.9755],[17.917,47.5907,132.9177],[17.9159,47.5801,135.514],[17.9093,47.5608,141.4488],[17.9102,47.5532,141.7326],[17.92,47.5475,148.158],[17.9201,47.5442,150.5383],[17.9175,47.5413,151.8708],[17.9138,47.5403,149.7164],[17.8824,47.5398,148.607],[17.8833,47.5308,150.7048],[17.9028,47.5077,157.8086],[17.9043,47.5021,159.5941],[17.9023,47.4967,159.8451],[17.8859,47.4831,193.0853],[17.8843,47.4717,196.476],[17.8814,47.4659,204.5232],[17.882,47.4567,215.054],[17.8945,47.437,238.9086],[17.8957,47.4281,208.5504],[17.8944,47.4232,214.5612],[17.8799,47.4079,192.8254],[17.8806,47.379,229.9378],[17.8994,47.3789,284.1528],[17.9184,47.3847,213.1907],[17.9352,47.3843,265.4217],[17.946,47.3774,246.7221],[17.9478,47.368899999999996,224.3741],[17.9457,47.3661,263.0639],[17.9303,47.3615,335.584],[17.9285,47.3578,310.4949],[17.9543,47.3501,264.8052],[17.9566,47.3473,275.4622],[17.9573,47.3381,291.4716],[17.9588,47.3358,286.7617],[17.9818,47.3327,270.1396],[18.0049,47.3391,258.6295],[18.0241,47.3359,247.2303],[18.0341,47.3451,243.4154],[18.051,47.3517,253.3563],[18.0689,47.3564,253.0701],[18.0727,47.3603,236.2554],[18.0743,47.3649,262.0811],[18.0739,47.3839,221.093],[18.077,47.3871,245.8241],[18.0915,47.3927,228.1254],[18.097,47.3964,225.0559],[18.0971,47.4131,228.8734],[18.108,47.4277,234.7166],[18.1081,47.4432,231.3984],[18.1097,47.447,236.8255],[18.114,47.4499,243.8288],[18.1245,47.4529,253.4334],[18.1415,47.446,259.6433],[18.1534,47.4437,265.2767],[18.1809,47.4507,236.6702],[18.1825,47.454,268.5948],[18.1823,47.4643,292.9154]]]]}}