{"type": "Feature","bbox": [18.7533,47.8026,18.9898,48.0579],"geometry": {"type": "MultiPolygon","coordinates": [[[[18.9063,47.8026,112.6863],[18.9239,47.8059,170.8636],[18.9341,47.8091,283.6379],[18.9359,47.8114,284.3652],[18.9275,47.8278,176.054],[18.9291,47.8381,224.1274],[18.9057,47.8395,247.5656],[18.9039,47.8445,218.7197],[18.9039,47.8584,236.378],[18.9092,47.8646,300.5403],[18.936,47.8652,281.1032],[18.9385,47.8662,292.1062],[18.9395,47.8685,294.2342],[18.9302,47.8858,317.9389],[18.9274,47.8974,409.4858],[18.9105,47.9005,483.0746],[18.9124,47.9148,657.2155],[18.903199999999998,47.938,651.4025],[18.9053,47.9401,601.4542],[18.9106,47.9412,654.1404],[18.9383,47.942,868.5192],[18.9309,47.9519,684.8968],[18.9313,47.9636,813.9067],[18.9413,47.9727,595.2912],[18.9495,47.9776,497.8142],[18.9801,47.987,502.7209],[18.9895,48.0016,408.7765],[18.9898,48.0178,496.1638],[18.988,48.022,495.4795],[18.9836,48.0244,374.183],[18.974,48.0271,376.786],[18.9571,48.0285,313.1021],[18.9348,48.0357,296.2214],[18.9272,48.0471,182.5457],[18.926,48.0569,148.5828],[18.9224,48.0545,149.9941],[18.913,48.0533,156.7301],[18.9025,48.0544,152.8281],[18.8935,48.0579,148.3398],[18.8861,48.0562,143.0874],[18.8755,48.0472,174.7707],[18.8676,48.0476,164.5053],[18.8481,48.0525,132.1461],[18.8388,48.049,131.3012],[18.8362,48.0438,134.6794],[18.8273,48.0423,126.7441],[18.8282,48.0303,128.1011],[18.8191,48.0236,121.0065],[18.8172,48.0156,117.8907],[18.8208,48.0073,119.7499],[18.8192,47.9998,145.9514],[18.8174,47.9968,139.2024],[18.8142,47.9985,116.8461],[18.8086,47.9956,115.1062],[18.8128,47.9925,116.0269],[18.7981,47.9883,114.9177],[18.7879,47.9893,114.5653],[18.7762,47.9864,115.2958],[18.7721,47.989,113.6631],[18.766,47.9866,114.8132],[18.7664,47.9832,115.9532],[18.7624,47.9833,113.7243],[18.7533,47.9757,120.5681],[18.7567,47.971,113.5506],[18.7716,47.966,118.5969],[18.7776,47.958,116.0019],[18.7755,47.9546,119.22],[18.7704,47.9549,112.4592],[18.7734,47.9484,113.895],[18.774,47.9407,119.9721],[18.7723,47.9362,110.9296],[18.7686,47.9305,110.7914],[18.7579,47.922,109.4299],[18.7586,47.9171,109.7713],[18.7626,47.912,112.298],[18.7593,47.9076,119.359],[18.7621,47.904,108.9837],[18.759,47.8987,108.4073],[18.7683,47.8839,108.6017],[18.7634,47.8828,108.5604],[18.7633,47.8733,107.5379],[18.7686,47.8719,106.7972],[18.7706,47.8696,106.7339],[18.7792,47.8699,106.5563],[18.7832,47.8673,105.9746],[18.7923,47.8668,109.5713],[18.797,47.8599,106.1052],[18.8154,47.8546,107.7059],[18.8222,47.8492,107.0598],[18.8307,47.8331,106.0869],[18.836,47.8303,105.7341],[18.8506,47.8307,104.3297],[18.8557,47.8281,107.2725],[18.8494,47.8221,108.6442],[18.8488,47.8195,105.2531],[18.8627,47.8171,112.7668],[18.8703,47.8131,102.0],[18.8784,47.8114,101.5],[18.8966,47.8132,130.1036],[18.9063,47.8026,112.6863]]]]}
,"properties": {"GID_2": "HUN.14.13_1","GID_0": "HUN","country": "Hungary","GID_1": "HUN.14_1","province": "Pest","NL_NAME_1": "NA","county": "Szob","VARNAME_2": "Szobi","NL_NAME_2": "NA","TYPE_2": "Kistérség","ENGTYPE_2": "Subregion","CC_2": "NA","HASC_2": "NA","name": "Szob.county","area_km2": 281.9559,"hist_schema_id": "Elevation0-9000","hist_area_km2": {"100": 10.4931,"125": 25.3257,"150": 18.2221,"175": 23.7802,"200": 25.5488,"225": 23.6661,"250": 16.183,"275": 13.7812,"300": 13.8209,"325": 13.5215,"350": 12.3142,"375": 12.3987,"400": 11.8173,"425": 10.7667,"450": 10.0705,"475": 7.9386,"500": 6.8598,"525": 5.5244,"550": 4.6579,"575": 3.6354,"600": 2.9395,"625": 2.6837,"650": 2.3715,"675": 1.7182,"700": 0.8378,"725": 0.5112,"750": 0.2272,"775": 0.1562,"800": 0.0852,"825": 0.0568,"850": 0.0426}}}