{"type":"Feature","properties":{"GID_1":"HUN.5_1","GID_0":"HUN","country":"Hungary","province":"Budapest","VARNAME_1":"Budapeste","NL_NAME_1":"NA","TYPE_1":"Fovaros","ENGTYPE_1":"CapitalCity","CC_1":"NA","HASC_1":"HU.BU","ISO_1":"HU-BU","name":"Budapest.province"},
"geometry":{"type": "MultiPolygon","coordinates": [[[[19.1093,47.619,102.0354],[19.0942,47.618899999999996,109.3855],[19.0871,47.6047,98.0],[19.0784,47.5954,98.0],[19.0744,47.5938,108.923],[19.0689,47.5946,104.9898],[19.0638,47.5978,109.9669],[19.0669,47.6089,102.1425],[19.0614,47.6195,102.7708],[19.0395,47.6207,120.3386],[19.0298,47.6183,146.5929],[19.028,47.5993,210.8153],[19.0206,47.5951,190.1841],[19.0087,47.5917,157.1929],[18.9827,47.5913,126.3267],[18.9716,47.586,152.7359],[18.9398,47.5857,202.811],[18.9311,47.5803,309.5889],[18.9294,47.5744,318.3756],[18.9277,47.5219,279.9931],[18.9286,47.5177,258.7146],[18.9351,47.5098,272.9268],[18.928,47.4994,266.8845],[18.9277,47.497,251.2916],[18.9478,47.4924,347.7111],[18.9606,47.4873,448.1262],[18.9645,47.4838,385.506],[18.9757,47.4657,172.6093],[18.9644,47.4544,126.2074],[18.9623,47.4315,212.6085],[18.9583,47.4285,218.1177],[18.9449,47.4237,216.234],[18.9409,47.4196,207.5348],[18.9406,47.4074,135.6709],[18.9466,47.3967,107.6946],[18.9332,47.3827,104.1039],[18.9334,47.3793,103.3106],[18.942,47.3752,100.1691],[18.9467,47.3708,97.9316],[18.9745,47.381,97.0],[18.9944,47.3849,104.0774],[19.0146,47.3858,107.3407],[19.0346,47.3895,102.7278],[19.0705,47.4015,101.4919],[19.0761,47.3991,101.1149],[19.0838,47.3928,97.9147],[19.0882,47.386,101.2429],[19.0896,47.3781,100.6159],[19.0943,47.3716,101.2597],[19.1071,47.3655,108.3307],[19.1338,47.3478,105.8003],[19.1442,47.3514,108.216],[19.1736,47.3519,108.4458],[19.1765,47.3545,109.321],[19.1768,47.374,109.1205],[19.1817,47.3816,113.8009],[19.1882,47.3894,120.7108],[19.193,47.3925,116.7876],[19.215699999999998,47.4006,122.8937],[19.2175,47.413,126.7402],[19.222,47.4181,128.9335],[19.2489,47.4277,130.717],[19.258,47.4351,142.5076],[19.2781,47.4361,138.4406],[19.2833,47.442,141.4904],[19.2888,47.4519,136.7209],[19.297,47.456,157.4588],[19.3202,47.462,224.1531],[19.3332,47.4627,225.0473],[19.3339,47.4677,225.2685],[19.3399,47.4753,186.8254],[19.3217,47.4927,150.3522],[19.3285,47.5039,198.1585],[19.3289,47.5127,230.426],[19.3272,47.5157,242.9638],[19.3125,47.5163,222.3783],[19.2929,47.5083,173.4474],[19.2727,47.508,166.997],[19.267,47.5116,159.6032],[19.2575,47.5315,188.5155],[19.2509,47.5394,216.4677],[19.2308,47.5412,220.2634],[19.2123,47.5466,167.8631],[19.1901,47.547,153.9652],[19.1817,47.5489,141.8074],[19.1719,47.556399999999996,128.8968],[19.1674,47.5631,126.4097],[19.1647,47.5724,127.257],[19.15,47.5814,118.8549],[19.149,47.5995,119.8954],[19.1442,47.6087,119.0373],[19.1387,47.6104,118.0273],[19.1133,47.6109,105.8982],[19.1105,47.6129,107.9004],[19.1093,47.619,102.0354]]]]}}