{"type": "Feature","id": "3160","bbox": [18.92963,47.36016,19.32671,47.60681],"geometry": {"type": "Polygon","coordinates": [[[19.19524,47.53942,153.3208],[19.19193,47.55149,147.3051],[19.15462,47.5688,120.8396],[19.1323,47.58828,112.7836],[19.08858,47.60681,102.7959],[19.04094,47.60464,142.7494],[19.01768,47.58878,189.9046],[18.99029,47.57994,186.2571],[18.92963,47.57374,326.7103],[18.93862,47.51503,272.3923],[18.97386,47.44687,124.0673],[18.97469,47.43416,165.3756],[18.95546,47.4045,138.0025],[18.94895,47.36925,100.838],[19.06274,47.38377,102.2148],[19.11308,47.36269,114.4607],[19.14264,47.36016,115.4281],[19.23772,47.4062,122.1992],[19.25694,47.42284,137.3514],[19.30418,47.4476,147.9076],[19.32671,47.48609,194.5421],[19.31286,47.49702,151.5272],[19.29332,47.50227,161.7867],[19.21736,47.54206,173.8974],[19.19524,47.53942,153.3208]]]}
,"properties": {"ISO3166-1-Alpha-3": "HUN","country": "Hungary","fill": "#F0F","name": "Budapest","area_km2": 536.9089,"hist_schema_id": "Elevation0-9000","hist_area_km2": {"100": 152.3737,"125": 191.0078,"150": 88.2532,"175": 29.3546,"200": 16.7936,"225": 9.5505,"250": 8.5597,"275": 8.5159,"300": 6.7419,"325": 5.6686,"350": 4.8102,"375": 4.0804,"400": 2.8495,"425": 3.1791,"450": 2.8788,"475": 1.9621,"500": 0.2864,"525": 0.043}}}