{"type": "Feature","bbox": [20.0968,47.5272,20.7693,47.9095],"geometry": {"type": "MultiPolygon","coordinates": [[[[20.7212,47.7004,90.8416],[20.6744,47.6971,89.6791],[20.6617,47.6934,92.6844],[20.6318,47.6906,92.7505],[20.619,47.6934,93.7775],[20.6014,47.7034,93.4991],[20.590699999999998,47.7068,95.6484],[20.5813,47.713,96.3448],[20.5769,47.7187,98.4244],[20.576,47.723,96.9687],[20.5781,47.7289,97.4087],[20.5905,47.7357,97.7425],[20.5918,47.739,97.8823],[20.576,47.7487,101.338],[20.5686,47.7554,102.0774],[20.5448,47.7619,105.9073],[20.5303,47.7704,111.7018],[20.5111,47.7911,119.4854],[20.4997,47.8082,124.013],[20.4907,47.8069,132.3061],[20.4575,47.794,131.3763],[20.4508,47.7862,120.0711],[20.446,47.7772,115.975],[20.4452,47.7645,114.3091],[20.4422,47.7616,113.9546],[20.4272,47.759,113.1927],[20.3951,47.7603,116.6331],[20.3662,47.7743,119.7244],[20.363,47.7727,119.5898],[20.3368,47.7472,123.1118],[20.3291,47.7463,123.3812],[20.3055,47.7484,122.0571],[20.2894,47.7629,125.5116],[20.2859,47.7694,129.8495],[20.2947,47.7806,145.9859],[20.3039,47.7865,154.0859],[20.3048,47.7888,156.4189],[20.2916,47.7998,141.2154],[20.2829,47.8125,160.3303],[20.2814,47.8272,152.415],[20.2554,47.864,213.2558],[20.2499,47.882,246.0288],[20.2381,47.9027,243.6726],[20.2286,47.907,187.5178],[20.2176,47.9002,193.9828],[20.2017,47.9004,259.0923],[20.176,47.8928,220.7791],[20.1524,47.9074,318.5518],[20.1386,47.9095,280.2598],[20.1249,47.9061,328.9359],[20.1101,47.8972,436.6989],[20.1313,47.8883,441.5149],[20.139,47.8767,328.7332],[20.1456,47.8706,296.9617],[20.1531,47.8651,213.8504],[20.168,47.8579,169.1263],[20.1731,47.8449,170.5438],[20.1723,47.84,151.3978],[20.1684,47.8341,160.4255],[20.1684,47.8295,170.3642],[20.1876,47.8217,171.3255],[20.1916,47.8095,218.1724],[20.1917,47.8045,221.0233],[20.1871,47.7943,184.2876],[20.1854,47.7831,163.3984],[20.1804,47.774,159.2928],[20.1698,47.7695,145.9317],[20.1642,47.7695,154.4359],[20.148,47.7762,139.4534],[20.1298,47.79,156.7004],[20.124,47.7887,168.9622],[20.1146,47.7754,149.6505],[20.1151,47.7712,141.1564],[20.1212,47.7626,151.5663],[20.1268,47.7595,137.0133],[20.1338,47.7588,126.343],[20.1668,47.7628,135.6681],[20.1734,47.7622,135.9866],[20.1762,47.7589,132.9007],[20.1746,47.7457,123.3122],[20.1686,47.7384,120.9933],[20.1579,47.7348,112.8719],[20.1302,47.7351,117.043],[20.1051,47.7295,109.7507],[20.0983,47.7241,116.4496],[20.0968,47.7145,113.1922],[20.0981,47.7113,110.9488],[20.116,47.7087,104.2111],[20.1211,47.6961,106.686],[20.1382,47.7021,106.379],[20.1734,47.7067,106.9498],[20.1791,47.7048,107.214],[20.1989,47.6913,107.8059],[20.2198,47.6896,108.3473],[20.2326,47.6862,109.2244],[20.258,47.6845,109.008],[20.2628,47.6864,109.5271],[20.2644,47.6926,114.0702],[20.2704,47.7006,113.3402],[20.302,47.7026,111.7986],[20.3501,47.7105,109.0272],[20.3554,47.701,106.8962],[20.3491,47.6908,105.767],[20.3626,47.6804,101.7361],[20.3705,47.6698,100.6378],[20.3776,47.6676,100.8373],[20.3899,47.6699,100.3565],[20.4002,47.6689,100.6233],[20.4117,47.6565,97.2993],[20.4275,47.6509,96.5134],[20.4422,47.6417,95.1955],[20.4629,47.6327,94.7225],[20.4704,47.6213,93.0352],[20.4817,47.6163,92.3112],[20.4903,47.6068,91.3934],[20.4949,47.606,91.8142],[20.5057,47.608,91.8893],[20.5133,47.6056,91.2186],[20.5166,47.6028,91.2795],[20.5171,47.6002,89.6639],[20.5099,47.5955,90.8284],[20.5089,47.5911,90.7561],[20.5159,47.5781,90.2939],[20.5301,47.5691,88.115],[20.5519,47.5646,86.8471],[20.5641,47.5601,87.2456],[20.5762,47.5469,87.2899],[20.5941,47.5399,87.5793],[20.5988,47.5337,86.962],[20.601,47.5272,88.2855],[20.6336,47.5385,88.1461],[20.6576,47.5437,86.1202],[20.6625,47.5505,89.0432],[20.6565,47.5587,87.0],[20.6579,47.5614,88.6862],[20.692,47.5617,85.3071],[20.6976,47.5635,86.5882],[20.7061,47.5695,85.9022],[20.7109,47.5803,92.0272],[20.6978,47.5902,93.1539],[20.6963,47.593,91.3677],[20.701,47.6005,97.3327],[20.7184,47.6197,100.9724],[20.7189,47.6232,87.5],[20.7167,47.6311,96.3332],[20.7182,47.6382,98.7583],[20.7252,47.6446,89.8042],[20.7365,47.6495,88.4627],[20.7614,47.6517,107.2393],[20.7671,47.6587,93.0058],[20.7693,47.67,90.483],[20.768,47.6752,103.004],[20.7606,47.6758,88.6633],[20.7442,47.6811,90.5229],[20.7315,47.6877,90.3822],[20.7244,47.6948,90.1023],[20.7212,47.7004,90.8416]]]]}
,"properties": {"GID_2": "HUN.10.6_1","GID_0": "HUN","country": "Hungary","GID_1": "HUN.10_1","province": "Heves","NL_NAME_1": "NA","county": "Heves","VARNAME_2": "Hevesi","NL_NAME_2": "NA","TYPE_2": "Kistérség","ENGTYPE_2": "Subregion","CC_2": "NA","HASC_2": "NA","name": "Heves.county","area_km2": 712.2503,"hist_schema_id": "Elevation0-9000","hist_area_km2": {"75": 51.3695,"100": 419.8358,"125": 144.9185,"150": 35.8516,"175": 19.8964,"200": 15.8641,"225": 7.8228,"250": 2.4883,"275": 1.2798,"300": 1.3793,"325": 1.4218,"350": 1.7773,"375": 1.8768,"400": 1.5923,"425": 1.2937,"450": 1.0946,"475": 0.7534,"500": 0.725,"525": 0.4975,"550": 0.2843,"575": 0.1137,"600": 0.1137}}}