{"type": "Feature","bbox": [20.0507,48.0846,20.5142,48.3856],"geometry": {"type": "MultiPolygon","coordinates": [[[[20.408,48.3856,360.0571],[20.4028,48.3827,387.3879],[20.4108,48.3712,292.0115],[20.4073,48.3638,272.5023],[20.3991,48.3568,296.5981],[20.3873,48.3532,279.4109],[20.3856,48.3461,285.8483],[20.3728,48.3374,236.8654],[20.3715,48.3313,210.3665],[20.3754,48.3265,202.4995],[20.3589,48.3114,178.6486],[20.3488,48.3066,163.5399],[20.3418,48.3077,154.8232],[20.3346,48.2942,152.4827],[20.3284,48.2906,152.3362],[20.3265,48.2783,193.8103],[20.3203,48.2743,231.7481],[20.3086,48.2726,258.5361],[20.3095,48.267,294.7898],[20.2871,48.2637,266.2753],[20.2594,48.2754,252.7454],[20.2507,48.2809,243.6432],[20.24,48.2836,196.0231],[20.2332,48.2807,224.3171],[20.2359,48.2731,281.6536],[20.2321,48.2681,245.4075],[20.2245,48.2645,229.3252],[20.217,48.2636,225.4384],[20.2084,48.2659,200.1951],[20.2082,48.2571,252.3527],[20.1991,48.2535,239.4724],[20.16,48.2553,252.1487],[20.1393,48.2596,267.3994],[20.1366,48.2572,339.1999],[20.1346,48.2505,323.363],[20.1353,48.2428,301.1044],[20.1307,48.2232,338.2478],[20.0991,48.2063,317.7401],[20.0869,48.1958,317.8643],[20.0699,48.1942,287.4102],[20.0678,48.1858,264.2874],[20.0771,48.1843,337.3695],[20.0782,48.1818,299.5831],[20.0585,48.1759,322.7059],[20.0507,48.1696,343.3066],[20.0556,48.1577,265.6829],[20.0627,48.1494,277.9615],[20.0827,48.1509,328.8779],[20.0869,48.149,338.2822],[20.0906,48.1437,398.3449],[20.1055,48.1393,436.3995],[20.1413,48.1348,397.0432],[20.1654,48.12,394.5352],[20.1745,48.1076,501.8154],[20.1942,48.0992,298.5267],[20.1971,48.0961,379.7069],[20.1996,48.089,379.643],[20.2217,48.0846,278.9624],[20.2606,48.0847,408.0271],[20.2742,48.0884,369.4812],[20.2771,48.0902,365.1561],[20.278,48.0932,390.6881],[20.2772,48.1071,414.6748],[20.2788,48.1119,403.5891],[20.3083,48.1155,377.8477],[20.3156,48.1143,349.9593],[20.3257,48.1026,365.6241],[20.3326,48.0983,355.3427],[20.3388,48.0966,360.2184],[20.3573,48.0959,394.3908],[20.3593,48.1033,360.8434],[20.3657,48.1105,345.4227],[20.3666,48.1203,384.0602],[20.3694,48.1217,354.9426],[20.383,48.1223,317.7262],[20.3868,48.1267,348.5528],[20.3872,48.1363,329.6242],[20.3887,48.1387,314.5143],[20.3948,48.1395,362.9196],[20.4327,48.137,324.5333],[20.4429,48.155,322.5902],[20.444,48.1601,354.8962],[20.4432,48.1683,294.1382],[20.4353,48.1768,352.0884],[20.4354,48.1831,242.121],[20.4398,48.187,363.3082],[20.4549,48.1942,385.9797],[20.4604,48.2075,208.3218],[20.4592,48.2107,202.5067],[20.4448,48.2236,249.543],[20.444,48.228,287.3472],[20.4477,48.2299,338.0745],[20.4617,48.2307,441.4474],[20.4767,48.236,321.7421],[20.4836,48.2406,242.5059],[20.5057,48.2448,212.2915],[20.5131,48.2484,232.2969],[20.5142,48.254,309.631],[20.5124,48.2579,374.9002],[20.5026,48.2618,270.3561],[20.5008,48.2645,201.6107],[20.509,48.2845,156.6822],[20.5007,48.2975,296.6619],[20.501,48.3009,337.8242],[20.5042,48.3061,293.1192],[20.5039,48.3095,321.9843],[20.4966,48.3168,263.9392],[20.4978,48.3197,251.2094],[20.504,48.3236,336.8736],[20.5038,48.3292,332.2226],[20.4962,48.3325,241.0281],[20.4901,48.333,276.8802],[20.459,48.3245,397.132],[20.4501,48.3253,410.2589],[20.4467,48.3294,281.1596],[20.4472,48.3365,413.0722],[20.4626,48.3434,395.4069],[20.4667,48.3488,320.7109],[20.4664,48.3511,296.3421],[20.4584,48.3574,322.8174],[20.4473,48.3596,244.067],[20.4398,48.3719,281.519],[20.4123,48.3795,309.0251],[20.4081,48.3817,300.3601],[20.408,48.3856,360.0571]]]]}
,"properties": {"GID_2": "HUN.4.9_1","GID_0": "HUN","country": "Hungary","GID_1": "HUN.4_1","province": "Borsod-Abaúj-Zemplén","NL_NAME_1": "NA","county": "Ózdi","VARNAME_2": "NA","NL_NAME_2": "NA","TYPE_2": "Kistérség","ENGTYPE_2": "Subregion","CC_2": "NA","HASC_2": "NA","name": "Ózdi.county","area_km2": 557.4414,"hist_schema_id": "Elevation0-9000","hist_area_km2": {"150": 42.0043,"175": 34.063,"200": 45.733,"225": 57.3685,"250": 64.1153,"275": 70.3661,"300": 65.268,"325": 56.1499,"350": 47.8468,"375": 36.1146,"400": 23.5614,"425": 10.409,"450": 3.2527,"475": 0.835,"500": 0.2548,"525": 0.0991}}}