{"type":"Feature","properties":{"ISO3166-1-Alpha-3":"HUN","country":"Hungary","fill":"#00F","id":"3157","name":"Somogy"},
"geometry":{"type": "Polygon","coordinates": [[[18.17711,46.9531,162.827],[18.12678,46.96881,103.5],[18.07262,46.97197,103.5],[17.9763,46.93496,103.5],[17.94984,46.93031,103.5],[17.92628,46.9199,103.5],[17.8869,46.89122,143.6243],[17.84204,46.88251,103.5],[17.6619,46.80882,103.5],[17.45829,46.74958,103.5],[17.40662,46.74498,103.5],[17.366,46.73046,103.5],[17.29923,46.73338,103.5],[17.25862,46.71015,104.4317],[17.22038,46.66459,106.0404],[17.22658,46.5329,108.0451],[17.21076,46.49706,117.2297],[17.19371,46.47486,121.5545],[17.18131,46.44223,142.1118],[17.06856,46.42321,173.9174],[17.04499,46.41923,205.8978],[17.05387,46.38962,179.2867],[17.07103,46.3636,195.4614],[17.06576,46.34118,178.1841],[17.04726,46.32498,218.4305],[17.02959,46.321,212.0701],[17.01264,46.32004,217.5173],[16.94256,46.30177,208.231],[16.91755,46.32219,206.1546],[16.87931,46.31206,140.9989],[16.88923,46.29216,136.5905],[16.89605,46.28627,139.8054],[16.90329,46.28193,171.6792],[16.9407,46.25149,126.3912],[16.9653,46.21945,125.8201],[16.97481,46.21057,129.2453],[17.02804,46.18049,120.4587],[17.0363,46.173,120.8687],[17.04126,46.1622,121.6001],[17.05294,46.15346,120.6416],[17.10121,46.12819,134.1037],[17.1162,46.12313,113.9618],[17.19733,46.12117,120.5024],[17.20859,46.11657,122.8008],[17.24859,46.08024,123.6275],[17.25407,46.07083,129.0655],[17.26657,46.03879,109.3554],[17.26895,46.02872,115.0369],[17.27588,46.01202,125.9405],[17.29148,46.00794,121.4023],[17.30781,46.00639,119.0139],[17.3168,45.99766,110.2929],[17.30936,45.99663,115.6895],[17.29696,45.99265,101.125],[17.29014,45.991459999999996,108.82],[17.29014,45.98464,100.0],[17.30481,45.98102,108.5314],[17.30661,45.97991,108.8695],[17.3166,45.97378,110.3532],[17.32714,45.97203,108.861],[17.33789,45.98464,107.6305],[17.34367,45.967529999999996,104.627],[17.34212,45.95864,112.2678],[17.34533,45.9557,101.4589],[17.36528,45.95673,106.0355],[17.38915,45.96309,106.1117],[17.39969,45.95993,105.9156],[17.4062,45.94366,105.7974],[17.41158,45.9466,107.8375],[17.4154,45.9497,106.0577],[17.41819,45.95301,107.4997],[17.42667,45.95673,105.9426],[17.51193,45.95394,126.3639],[17.55431,45.94779,122.9053],[17.5911,45.93622,107.5826],[17.63844,45.90133,102.1326],[17.64578,45.89183,100.5236],[17.64691,45.88371,101.2181],[17.65208,45.86883,101.0011],[17.65322,45.85736,113.152],[17.65467,45.85211,111.3945],[17.68185,45.85059,99.5911],[17.7051,45.85916,99.9073],[17.70841,45.88826,100.7234],[17.69208,45.90872,102.5678],[17.66345,45.92673,103.5198],[17.64226,45.95063,120.8488],[17.63048,45.98099,116.7377],[17.64598,46.00102,122.5369],[17.61704,46.06225,138.911],[17.67637,46.08349,145.3719],[17.69353,46.11486,135.922],[17.69094,46.17633,185.0292],[17.71988,46.19953,223.8384],[17.76629,46.21113,177.0561],[17.81507,46.21219,232.0119],[17.84597,46.22886,161.3065],[17.93816,46.31288,246.0383],[18.05237,46.32265,149.928],[18.0718,46.3379,137.2372],[18.07872,46.35965,117.0551],[18.09763,46.37118,114.2124],[18.06901,46.46616,138.2463],[18.04741,46.47463,138.9436],[18.0379,46.51566,151.1735],[18.05702,46.56212,272.6509],[18.08689,46.60207,138.8993],[18.08937,46.64108,177.3121],[18.09763,46.67844,181.6378],[18.11727,46.70873,176.9968],[18.11944,46.72568,247.5975],[18.12616,46.73958,237.5728],[18.14022,46.75343,191.0438],[18.15148,46.76996,133.9618],[18.16047,46.77554,215.9359],[18.17205,46.77689,214.7638],[18.21804,46.79068,154.6223],[18.21132,46.81874,147.2099],[18.21215,46.8758,127.9824],[18.2167,46.88194,145.4336],[18.21918,46.88864,149.126],[18.19902,46.91424,162.0903],[18.17711,46.9531,162.827]],
[[17.74287,46.24757,192.4431],[17.7339,46.30742,154.1551],[17.70696,46.36129,146.7934],[17.7309,46.38223,152.4788],[17.73689,46.40917,154.3579],[17.7375,46.4361,169.6841],[17.74947,46.45406,177.2384],[17.77641,46.4391,164.0544],[17.84163,46.44508,141.7922],[17.84163,46.43909,142.5726],[17.87156,46.38223,123.9261],[17.88053,46.32837,187.9528],[17.84761,46.31041,229.4694],[17.82667,46.27749,180.1588],[17.8147,46.25355,232.0405],[17.78178,46.26851,206.961],[17.74287,46.24757,192.4431]]]}}