{"type": "Feature","bbox": [17.247828494966257,46.71393456910522,18.169482577015515,47.060401146739196],"geometry": {"type": "Polygon","coordinates": [[[17.869819895595469,46.863765909815214,103.5],[17.899550672435794,46.875540474900504,103.5],[17.91426887879237,46.891141773638481,103.5],[17.919567433080744,46.895557235545454,103.5],[17.932225090547405,46.893496686655538,103.5],[17.938995465471436,46.894085414909796,103.5],[18.078229697604712,46.927348561275664,103.5],[18.118851947148869,46.943832952395042,103.5],[18.135925066522503,46.955901881607446,103.5],[18.155058734786081,46.9853382943206,103.5],[18.169482577015515,47.002117049567119,152.2451],[18.168599484634115,47.013597250525237,159.5482],[18.152115093514766,47.027432364500442,189.0581],[18.130037783979873,47.039501293712846,127.4928],[18.112081572224838,47.046860396891134,165.9599],[18.068221317282223,47.057751869594995,160.6142],[18.046732736001616,47.060401146739196,121.704],[18.037313083933412,47.056868777213595,103.5],[18.033486350280697,47.04067875022136,103.5],[18.02288924170395,47.024488723229126,103.5],[18.009054127728774,47.010064880999664,103.5],[17.995513377880712,46.9991734082958,117.1787],[17.964310780404759,46.982394653049283,119.127],[17.865110069561382,46.943832952395042,112.4407],[17.865110069561382,46.937062577471011,103.9697],[17.880711368299359,46.931469659055523,103.5],[17.895429574655935,46.920283822224519,103.5],[17.901905585452823,46.907037436503572,103.5],[17.892780297511763,46.895557235545454,107.5807],[17.878062091155158,46.897029056181111,169.9442],[17.844210216535032,46.917340180953204,108.1714],[17.837734205738116,46.919989458097376,107.3355],[17.821249814618767,46.9061543441222,103.5],[17.695556332333524,46.871419377120645,103.5],[17.682604310739748,46.869947556484988,111.0233],[17.671712838035859,46.865532094578015,130.9301],[17.659055180569197,46.854346257747011,159.5003],[17.639627148178505,46.833152040593546,124.8203],[17.627852583093244,46.828442214559431,111.8722],[17.575455768463826,46.823143660271057,118.2344],[17.546902448132045,46.812840915821454,234.1619],[17.495683090011141,46.786348144379588,111.1497],[17.478904334764621,46.794295975812162,148.4028],[17.460653758882472,46.798417073591992,105.2164],[17.422975150609602,46.800477622481907,104.2645],[17.405018938854568,46.796945252956334,107.7492],[17.386179634718161,46.787525600888131,110.6364],[17.3708727001073,46.775456671675727,109.5685],[17.364691053437525,46.762210285954808,103.5],[17.345263021046833,46.758089188174949,116.278],[17.303168950867018,46.768391932624553,152.2624],[17.262841065449976,46.767803204370296,108.2352],[17.247828494966257,46.731596416733112,103.5],[17.258425603543003,46.71805566688505,103.5],[17.275204358789523,46.716583846249392,103.5],[17.309939325791049,46.724826041809081,103.5],[17.353210852479407,46.724237313554823,103.5],[17.431217346169291,46.71393456910522,103.5],[17.474488872857648,46.71717257450365,103.5],[17.490384535722768,46.722471128792023,103.5],[17.531595513521182,46.743370981818373,103.5],[17.5466080840049,46.755439911030777,103.5],[17.563092475124279,46.764565198971866,103.5],[17.84568203717069,46.848164611077237,103.5],[17.869819895595469,46.863765909815214,103.5]]]}
,"properties": {"featurecla": "Lake","scalerank": 5,"name": "Lake Balaton","name_abb": "L. Balaton","name_alt": null,"note": null,"delta": null,"dam_name": null,"year": -99,"admin": null,"min_zoom": 4.7,"min_label": 6.0,"area_km2": 543.8175,"hist_schema_id": "Elevation0-9000","hist_area_km2": {"100": 514.7561,"125": 15.5932,"150": 6.5404,"175": 5.8845,"200": 0.7821,"225": 0.2177,"250": 0.0435}}}