{"type": "Feature","bbox": [16.8781,45.8561,18.2048,46.9719],"geometry": {"type": "MultiPolygon","coordinates": [[[[17.2807,46.0223,109.3782],[17.2741,46.0228,112.0394],[17.2711,46.0185,114.9798],[17.2595,46.0153,110.0128],[17.2614,46.0117,108.467],[17.271,46.0051,109.5274],[17.278,46.003,110.7705],[17.2903,46.0017,114.0145],[17.3007,46.0057,108.2799],[17.3107,46.0028,109.985],[17.2871,45.9925,108.4789],[17.2936,45.9817,109.5409],[17.3167,45.9867,107.5072],[17.3294,45.9918,107.8349],[17.3444,45.9852,107.8005],[17.3465,45.9745,109.5406],[17.3367,45.9623,108.6352],[17.3344,45.9498,107.4743],[17.3499,45.9458,105.7392],[17.3635,45.9505,105.8448],[17.3763,45.9517,106.7975],[17.3995,45.9361,115.1315],[17.4177,45.9374,107.9191],[17.4291,45.9471,100.9037],[17.4482,45.9504,102.2277],[17.5602,45.9381,100.6713],[17.5795,45.9276,124.732],[17.6131,45.9031,101.5951],[17.6228,45.8917,100.8852],[17.6471,45.8561,99.1074],[17.6644,45.8602,101.5028],[17.688,45.8707,100.1809],[17.6981,45.8713,120.2405],[17.7123,45.8698,107.7878],[17.7203,45.8736,115.5319],[17.7333,45.8827,101.1339],[17.7344,45.8884,107.3956],[17.7297,45.9163,116.844],[17.7104,45.9395,117.8983],[17.7051,45.9425,102.4465],[17.6875,45.9424,106.4565],[17.678,45.9452,102.7428],[17.6741,45.9483,102.8299],[17.6713,45.9601,112.2178],[17.6691,45.9627,125.6082],[17.6584,45.9666,111.2684],[17.6466,45.9671,110.3321],[17.6347,45.9698,112.0581],[17.6251,45.9818,114.3541],[17.6146,46.0019,127.8548],[17.6141,46.0075,129.7906],[17.6185,46.0145,129.0793],[17.6314,46.0173,125.4464],[17.6383,46.0312,123.2077],[17.6333,46.0398,132.2775],[17.6163,46.0572,143.8155],[17.6149,46.08,146.6222],[17.6176,46.0824,153.8818],[17.6382,46.0868,151.8779],[17.6564,46.0994,147.1905],[17.661,46.1107,155.1585],[17.6569,46.1206,162.9344],[17.657,46.125,160.6449],[17.665,46.1381,130.8081],[17.6649,46.1705,161.3203],[17.6613,46.182,174.0318],[17.6612,46.1872,174.8645],[17.6644,46.19,186.8062],[17.6724,46.1923,185.4885],[17.6914,46.2171,201.4386],[17.7139,46.2259,255.8057],[17.7141,46.2351,266.1378],[17.7062,46.246,193.2484],[17.7063,46.2494,205.9087],[17.7089,46.252,222.1476],[17.7164,46.2533,197.9433],[17.7232,46.2522,218.9187],[17.7358,46.2385,215.8456],[17.7526,46.2304,234.8061],[17.7607,46.2282,239.6215],[17.7696,46.2306,259.0185],[17.7811,46.2372,219.6758],[17.7962,46.2407,271.2471],[17.8019,46.2393,236.2948],[17.8042,46.2341,203.0545],[17.8088,46.2297,196.881],[17.8283,46.2288,218.6593],[17.8485,46.232,178.4328],[17.8837,46.2419,147.3948],[17.9159,46.2418,177.0538],[17.9239,46.2565,267.0011],[17.9234,46.3033,264.7203],[17.9283,46.3113,217.6866],[17.9338,46.3151,243.0947],[17.9592,46.3165,191.1426],[17.9734,46.3211,211.9897],[17.9799,46.3216,231.5618],[18.002,46.3177,182.1841],[18.0097,46.3112,212.8489],[18.0147,46.3097,270.4456],[18.0327,46.3095,238.0818],[18.0453,46.3119,172.0682],[18.0615,46.3116,157.3256],[18.0616,46.3282,140.0522],[18.0732,46.3429,147.8277],[18.0729,46.3675,114.672],[18.0716,46.372,128.0667],[18.0609,46.3786,127.3487],[18.0549,46.3937,129.8682],[18.0528,46.3957,128.351],[18.0434,46.3986,131.1735],[18.0086,46.3998,135.0299],[18.0012,46.4032,125.1195],[17.993,46.4141,123.0],[17.9976,46.4177,139.197],[18.0102,46.4206,144.4216],[18.0257,46.43,126.721],[18.0497,46.4303,139.7507],[18.0538,46.4318,141.2687],[18.0537,46.4517,139.2904],[18.0373,46.492,153.1038],[18.0359,46.5009,145.5686],[18.0321,46.5095,158.198],[18.0316,46.5261,169.8268],[18.0241,46.5374,197.7489],[18.0236,46.5449,216.9764],[18.028,46.5542,227.5007],[18.0372,46.5657,273.4873],[18.0572,46.5661,262.1898],[18.0631,46.5711,266.7163],[18.0648,46.5903,229.361],[18.0705,46.5958,158.8505],[18.0781,46.5991,122.3213],[18.0803,46.6026,140.1713],[18.0752,46.6146,145.7251],[18.0684,46.6237,132.3141],[18.0684,46.6291,148.9389],[18.0816,46.6475,197.3305],[18.0991,46.6606,204.5935],[18.1015,46.6728,170.0696],[18.1226,46.6828,164.8298],[18.1319,46.6952,183.1003],[18.1362,46.707,167.576],[18.1213,46.7241,242.1151],[18.1214,46.7279,233.4915],[18.1384,46.7405,241.5245],[18.148,46.7507,214.9993],[18.1807,46.7514,205.0286],[18.1813,46.7537,185.8801],[18.1747,46.7668,219.7001],[18.1938,46.7751,221.4462],[18.1997,46.7858,209.2261],[18.2048,46.7914,178.8008],[18.199,46.8003,167.7706],[18.1979,46.8056,158.8418],[18.1982,46.8151,151.3589],[18.202,46.8259,148.3475],[18.2012,46.8311,148.0601],[18.1978,46.8375,145.8186],[18.1974,46.8447,135.3832],[18.2011,46.8542,108.5851],[18.2013,46.8588,106.4394],[18.1937,46.8702,100.6952],[18.1925,46.8763,100.7561],[18.1931,46.8865,110.6593],[18.2005,46.8987,135.7462],[18.2004,46.9163,160.8467],[18.1927,46.9286,161.9383],[18.1806,46.9559,161.6617],[18.177,46.9591,161.2172],[18.1645,46.9623,147.3087],[18.1472,46.9626,103.5],[18.069,46.9719,103.5],[18.061,46.9712,103.5],[18.0274,46.9517,103.5],[17.9576,46.9379,103.5],[17.9445,46.9333,103.5],[17.9203,46.9289,103.5],[17.9135,46.9262,103.5],[17.9117,46.9226,103.5],[17.9116,46.901,103.5],[17.9072,46.893,103.5],[17.9008,46.8899,103.5],[17.8835,46.884,103.5],[17.8467,46.8823,103.5],[17.818,46.8692,103.5],[17.7602,46.8585,103.5],[17.715,46.841,103.5],[17.6809,46.8245,103.5],[17.6443,46.8173,103.5],[17.6361,46.8143,103.5],[17.6241,46.8071,103.5],[17.5543,46.7837,103.5],[17.5296,46.7791,103.5],[17.4929,46.766,103.5],[17.4412,46.7648,103.5],[17.4195,46.7611,103.5],[17.4025,46.755,103.5],[17.3938,46.744,103.5],[17.3884,46.7415,103.5],[17.3614,46.7412,103.5],[17.3337,46.746,103.5],[17.3051,46.7403,103.5],[17.286,46.7422,103.5],[17.2839,46.7399,103.5],[17.2836,46.7236,103.5],[17.2676,46.7029,104.8071],[17.2293,46.6857,105.6341],[17.2275,46.6819,106.3327],[17.2281,46.6437,105.2123],[17.2204,46.6247,105.6179],[17.2213,46.5543,106.7698],[17.2223,46.5496,107.0751],[17.2374,46.5265,127.2432],[17.2383,46.5213,130.1154],[17.2358,46.5177,133.0839],[17.206,46.5065,119.9172],[17.1984,46.5003,125.1213],[17.1979,46.4868,126.0885],[17.2017,46.4783,123.7599],[17.2019,46.4736,125.1921],[17.1985,46.4654,122.572],[17.1979,46.4482,131.1189],[17.1924,46.4395,123.0],[17.1899,46.4371,123.504],[17.158,46.4354,154.3275],[17.1459,46.4268,148.476],[17.1392,46.419,150.5684],[17.1329,46.4169,157.6422],[17.1223,46.4169,171.8955],[17.0949,46.4242,221.5883],[17.0905,46.4233,200.0472],[17.0834,46.4152,235.3008],[17.0764,46.4123,203.299],[17.0706,46.4129,179.0425],[17.0517,46.4204,182.1305],[17.0408,46.4204,205.2773],[17.0355,46.4185,206.6602],[17.0332,46.4139,214.3764],[17.0345,46.4002,172.1424],[17.0501,46.379,187.6507],[17.06,46.3602,188.1601],[17.0596,46.3559,202.5881],[17.0551,46.3462,175.4482],[17.0486,46.3387,209.7621],[17.0478,46.3227,234.1279],[17.0431,46.3187,184.4527],[17.0337,46.3156,204.8056],[17.0209,46.315,199.2156],[17.0046,46.3204,187.3638],[16.9886,46.32,214.5666],[16.9767,46.3156,215.2985],[16.9683,46.3069,197.7245],[16.9636,46.305,215.417],[16.9543,46.3081,214.4058],[16.9483,46.3176,191.811],[16.9442,46.319,188.183],[16.9061,46.3178,187.8548],[16.8781,46.3083,137.0428],[16.8864,46.2962,132.1772],[16.8878,46.2824,130.8591],[16.8915,46.2793,134.662],[16.9039,46.2748,129.1788],[16.9107,46.2655,131.8357],[16.9164,46.2622,125.5313],[16.9356,46.2552,136.3444],[16.9487,46.2433,126.0792],[16.9629,46.2404,126.0585],[16.9719,46.242,125.1888],[16.9705,46.2327,124.8955],[16.9726,46.2245,124.1337],[16.9923,46.2247,122.81],[16.9944,46.2231,122.1926],[17.0024,46.2236,122.7509],[17.0126,46.2205,122.1968],[17.0553,46.2011,119.7826],[17.0638,46.2001,121.0248],[17.0684,46.1949,119.3655],[17.0778,46.1926,118.4388],[17.0831,46.189,118.5387],[17.1004,46.1875,117.7165],[17.1043,46.183,117.8962],[17.1094,46.1803,117.5505],[17.1225,46.1805,116.4596],[17.1278,46.1739,116.8242],[17.1332,46.1727,115.6081],[17.1434,46.1748,142.9467],[17.1565,46.1735,139.9936],[17.1596,46.1712,133.5774],[17.1581,46.1663,115.2309],[17.1589,46.1619,114.031],[17.1638,46.1596,113.8669],[17.1697,46.1596,114.5349],[17.1796,46.1535,120.6887],[17.1759,46.1495,114.8556],[17.1801,46.1407,113.5277],[17.1839,46.1384,134.9983],[17.1843,46.1352,114.4583],[17.1753,46.1306,129.9903],[17.18,46.125,127.1385],[17.1797,46.1212,124.0893],[17.1748,46.114,117.5868],[17.1843,46.109,117.7355],[17.1999,46.114,111.5374],[17.2065,46.1125,110.0],[17.2138,46.1148,117.1768],[17.2146,46.1106,116.0449],[17.2109,46.1024,119.7361],[17.2286,46.1004,112.5179],[17.2286,46.0975,123.9859],[17.2224,46.0959,113.22],[17.2171,46.0891,113.0096],[17.2012,46.0844,114.4593],[17.199,46.082,114.4783],[17.2025,46.0796,121.5718],[17.2196,46.0833,117.1837],[17.2317,46.0809,107.1329],[17.2363,46.0783,107.4019],[17.2382,46.0687,112.8254],[17.2454,46.0644,117.6114],[17.2405,46.0636,109.1248],[17.2321,46.0675,110.5876],[17.2266,46.0679,110.5427],[17.2264,46.0642,110.6021],[17.2543,46.0586,112.3261],[17.266,46.0587,114.4424],[17.2679,46.056399999999996,113.3639],[17.2559,46.0478,104.5635],[17.2578,46.0394,112.7557],[17.2545,46.0325,111.1388],[17.2693,46.0344,109.7072],[17.2764,46.0332,110.1245],[17.2904,46.0345,109.6919],[17.2938,46.0323,110.9886],[17.2918,46.0268,116.5025],[17.2872,46.0234,118.7651],[17.2807,46.0223,109.3782]]]]}
,"properties": {"GID_1": "HUN.15_1","GID_0": "HUN","country": "Hungary","province": "Somogy","VARNAME_1": "NA","NL_NAME_1": "NA","TYPE_1": "Megye","ENGTYPE_1": "County","CC_1": "NA","HASC_1": "HU.SO","ISO_1": "HU-SO","name": "Somogy.province","area_km2": 5940.474,"hist_schema_id": "Elevation0-9000","hist_area_km2": {"100": 787.607,"125": 1130.728,"150": 1779.498,"175": 1222.984,"200": 515.987,"225": 283.647,"250": 149.501,"275": 60.254,"300": 10.181,"325": 0.087}}}