{"type":"Feature","properties":{"GID_2":"HUN.20.2_1","GID_0":"HUN","country":"Hungary","GID_1":"HUN.20_1","province":"Zala","NL_NAME_1":"NA","county":"Lenti","VARNAME_2":"NA","NL_NAME_2":"NA","TYPE_2":"Kistérség","ENGTYPE_2":"Subregion","CC_2":"NA","HASC_2":"NA","name":"Lenti.county"},
"geometry":{"type": "MultiPolygon","coordinates": [[[[16.3761,46.7127,232.4974],[16.3684,46.7045,202.7092],[16.3718,46.7006,199.4935],[16.378,46.6973,195.0459],[16.4018,46.6964,227.86],[16.4233,46.6934,209.4886],[16.4186,46.6823,181.4785],[16.4179,46.6782,178.4461],[16.4208,46.6716,184.5648],[16.4168,46.6639,205.7424],[16.4166,46.6604,192.4866],[16.4132,46.6583,171.2261],[16.401,46.6596,184.1255],[16.3941,46.6643,208.0587],[16.3886,46.6623,211.1149],[16.3857,46.6588,182.4252],[16.3898,46.6577,171.3459],[16.3905,46.6551,181.2111],[16.3853,46.6527,178.0438],[16.3828,46.6485,175.6249],[16.3837,46.6447,183.2696],[16.3876,46.6415,172.0893],[16.3894,46.6351,166.9242],[16.4117,46.6267,162.2259],[16.4255,46.6139,165.1341],[16.4319,46.614,161.3471],[16.4442,46.6103,161.5687],[16.4519,46.6012,161.7564],[16.4596,46.5961,185.051],[16.4663,46.5877,193.0027],[16.4777,46.5821,248.75],[16.4807,46.579,266.6153],[16.4844,46.5654,283.5319],[16.49,46.5628,258.7397],[16.4984,46.5621,261.0716],[16.5055,46.5643,287.5032],[16.5126,46.563,268.266],[16.5204,46.5527,272.4399],[16.5163,46.5393,266.9876],[16.5172,46.5365,248.7099],[16.5262,46.5353,236.0071],[16.5304,46.5329,225.7553],[16.5304,46.5277,214.6051],[16.5264,46.521,155.0506],[16.527,46.5169,152.0],[16.5321,46.5153,162.491],[16.5321,46.5116,169.7296],[16.5252,46.5052,166.3205],[16.5287,46.503,163.8474],[16.5485,46.5136,153.0929],[16.5783,46.5144,153.8712],[16.5889,46.5165,156.2649],[16.6015,46.5155,192.1804],[16.6048,46.5178,223.1309],[16.6066,46.5258,236.8718],[16.6108,46.5317,218.3306],[16.6227,46.539,224.8006],[16.6334,46.5514,227.1073],[16.6502,46.5536,248.9983],[16.6533,46.556,305.3857],[16.6555,46.5616,263.2046],[16.66,46.5642,276.5519],[16.6661,46.5643,280.8208],[16.6766,46.5597,232.8971],[16.6847,46.5594,241.6287],[16.6944,46.5646,171.1228],[16.7046,46.5664,172.9788],[16.709,46.5709,217.3285],[16.7264,46.5735,215.0286],[16.7318,46.5759,205.3085],[16.7389,46.5824,222.7097],[16.7447,46.592,243.4177],[16.7618,46.5999,243.8821],[16.7747,46.6127,204.5355],[16.7807,46.6142,239.7272],[16.8045,46.6153,307.3414],[16.8098,46.6198,253.7351],[16.8099,46.6223,267.2943],[16.8044,46.6299,211.174],[16.7932,46.6368,212.7102],[16.7928,46.6476,183.6439],[16.8002,46.6596,217.5608],[16.7982,46.6623,230.6171],[16.7889,46.6668,185.72],[16.7864,46.6741,196.3384],[16.7775,46.6737,198.9847],[16.7722,46.6713,192.2856],[16.7663,46.6656,198.7692],[16.7654,46.6607,197.4551],[16.7614,46.6595,187.2999],[16.7585,46.6609,183.4006],[16.762,46.6654,199.9603],[16.7502,46.6749,200.9913],[16.7527,46.6809,198.4623],[16.7521,46.6838,201.4255],[16.7402,46.6865,203.292],[16.7366,46.6906,206.9144],[16.7345,46.6986,226.3265],[16.7281,46.7046,249.4202],[16.7279,46.7072,243.9508],[16.7345,46.7164,254.3122],[16.7354,46.7212,250.0523],[16.7343,46.7245,234.2871],[16.7282,46.7284,211.7906],[16.7248,46.7337,182.2406],[16.718,46.7351,190.7472],[16.7056,46.7315,239.9665],[16.7001,46.7273,221.7874],[16.6967,46.7269,216.669],[16.6933,46.7286,208.087],[16.6849,46.7387,241.3277],[16.6744,46.738,210.2964],[16.6672,46.7405,217.6142],[16.6662,46.7461,234.1969],[16.6677,46.7512,248.0132],[16.6816,46.7592,247.6589],[16.687,46.7661,244.8891],[16.6874,46.7701,223.6057],[16.6852,46.7729,205.0271],[16.6741,46.7742,256.4911],[16.6555,46.7708,230.4855],[16.6533,46.7735,221.4125],[16.6531,46.7858,220.7162],[16.6502,46.7895,251.0451],[16.6433,46.7924,241.3468],[16.6299,46.7928,248.0159],[16.6205,46.7974,249.1658],[16.6128,46.795,248.2675],[16.6068,46.7833,239.9846],[16.6026,46.7799,240.4836],[16.5911,46.7761,229.3011],[16.5757,46.7758,233.092],[16.5735,46.7785,237.4088],[16.5738,46.7872,229.1115],[16.5817,46.7958,255.6391],[16.5773,46.8055,233.7622],[16.5697,46.806,243.1378],[16.558,46.798,242.2847],[16.5347,46.808,267.1164],[16.5328,46.8109,266.3396],[16.532,46.8272,252.0233],[16.5196,46.836,207.4202],[16.5171,46.8299,248.5394],[16.5169,46.8087,249.9406],[16.5147,46.8042,248.5026],[16.4963,46.7989,237.7662],[16.4815,46.7886,222.4791],[16.4672,46.7842,215.8863],[16.4474,46.7828,207.5424],[16.4437,46.7838,208.0311],[16.44,46.7873,209.98],[16.4297,46.7876,210.3],[16.4228,46.7863,206.938],[16.4102,46.7796,224.4396],[16.4084,46.7753,272.6381],[16.4164,46.7682,241.1152],[16.4175,46.7626,238.3651],[16.4151,46.7522,222.0811],[16.4072,46.7389,195.5267],[16.403199999999998,46.7261,207.7763],[16.394,46.7195,207.01],[16.3761,46.7127,232.4974]]]]}}