{"type":"Feature","properties":{"GID_2":"HUN.9.2_1","GID_0":"HUN","country":"Hungary","GID_1":"HUN.9_1","province":"Hajdú-Bihar","NL_NAME_1":"NA","county":"Berettyóújfalu","VARNAME_2":"NA","NL_NAME_2":"NA","TYPE_2":"Kistérség","ENGTYPE_2":"Subregion","CC_2":"NA","HASC_2":"NA","name":"Berettyóújfalu.county"},
"geometry":{"type": "MultiPolygon","coordinates": [[[[21.6514,47.0355,97.3257],[21.6508,47.041,95.6986],[21.6634,47.0417,96.5305],[21.6695,47.0445,96.3589],[21.6843,47.046,97.1697],[21.6851,47.0514,96.8216],[21.6912,47.0539,97.2059],[21.6902,47.0558,97.3889],[21.699,47.0583,98.1587],[21.6973,47.0608,97.6196],[21.7063,47.0637,97.986],[21.7028,47.0687,98.4008],[21.7077,47.0703,99.6191],[21.7068,47.0719,100.9339],[21.7177,47.0753,98.1845],[21.7142,47.0832,99.5092],[21.7253,47.0943,99.4181],[21.7277,47.0989,99.8028],[21.7532,47.1059,100.3608],[21.7726,47.1092,100.6972],[21.7941,47.1067,102.8112],[21.793,47.1097,102.6038],[21.7945,47.1117,102.9615],[21.7909,47.1134,99.8695],[21.7938,47.116,105.0853],[21.7909,47.117,106.7403],[21.7937,47.1201,101.1255],[21.7933,47.1245,104.5285],[21.7974,47.128,103.2776],[21.8003,47.1282,104.4342],[21.8021,47.131,105.7159],[21.8046,47.1367,104.7229],[21.8022,47.1376,103.9061],[21.8098,47.1568,101.5694],[21.8137,47.166,101.9631],[21.8191,47.1731,101.9492],[21.8307,47.175,102.1036],[21.8325,47.1792,101.2645],[21.8404,47.1777,101.3975],[21.8488,47.1848,101.4138],[21.8594,47.1875,102.9358],[21.8612,47.2043,103.4914],[21.8599,47.2205,104.1474],[21.8501,47.2223,104.0782],[21.8485,47.2242,104.1252],[21.8502,47.2303,103.9576],[21.8534,47.2395,100.7649],[21.8598,47.2448,100.9777],[21.8597,47.2469,100.6932],[21.8651,47.2523,100.9418],[21.8679,47.2587,100.525],[21.8735,47.2636,101.0671],[21.8815,47.2652,101.0025],[21.8885,47.2711,102.5199],[21.8894,47.2724,101.9821],[21.8879,47.2755,102.5061],[21.8898,47.2781,100.7114],[21.8815,47.283,103.0056],[21.8798,47.2858,102.1483],[21.8803,47.2877,100.5854],[21.8861,47.2896,99.7162],[21.885,47.3029,129.6063],[21.8806,47.2961,101.9486],[21.8661,47.326,119.9937],[21.8494,47.3451,112.3071],[21.8441,47.3457,112.3306],[21.8326,47.3432,108.9918],[21.8128,47.3485,106.4508],[21.7768,47.3473,100.388],[21.7703,47.3442,99.8947],[21.7595,47.3314,101.9884],[21.7287,47.3195,96.447],[21.7199,47.3063,97.8022],[21.7178,47.2942,97.7488],[21.6849,47.2928,96.3215],[21.6761,47.2871,95.1917],[21.6695,47.2881,95.9325],[21.6674,47.2972,93.7956],[21.6622,47.299,96.1066],[21.656,47.2972,96.4564],[21.6552,47.2898,96.186],[21.6533,47.2875,96.204],[21.6405,47.2874,95.6521],[21.6388,47.289,95.0285],[21.6373,47.2971,95.1773],[21.6241,47.3089,95.541],[21.6137,47.3113,94.6982],[21.6111,47.3188,94.8543],[21.6007,47.3293,93.3297],[21.5876,47.3377,93.4622],[21.5764,47.3412,94.7615],[21.5698,47.3395,94.7874],[21.5604,47.3276,93.6767],[21.5455,47.3206,93.7862],[21.544,47.3104,92.789],[21.541,47.3048,93.7373],[21.54,47.2941,94.233],[21.5331,47.2906,93.5916],[21.5259,47.2781,93.9808],[21.513,47.278,94.8434],[21.507,47.2852,92.8177],[21.4864,47.2926,91.858],[21.4662,47.2881,90.4272],[21.4629,47.281,89.6813],[21.4552,47.2799,89.5846],[21.4518,47.2812,95.1066],[21.4449,47.2909,94.886],[21.4315,47.2919,89.774],[21.4183,47.2958,89.5293],[21.4152,47.2952,89.3677],[21.3978,47.2719,91.986],[21.3962,47.2679,91.1614],[21.3964,47.2619,90.9874],[21.4013,47.249,91.1084],[21.4124,47.2419,91.5788],[21.4177,47.2305,90.8644],[21.4173,47.2115,89.9751],[21.4107,47.2044,88.9142],[21.4085,47.1977,89.7257],[21.4,47.1949,89.2398],[21.3971,47.1917,89.2057],[21.3977,47.1877,88.9716],[21.4051,47.1801,89.0838],[21.4059,47.1734,89.1565],[21.4047,47.1687,89.204],[21.3848,47.1631,88.6635],[21.3667,47.1477,86.9787],[21.3513,47.1444,87.1086],[21.3416,47.1444,86.5283],[21.3076,47.1492,87.4381],[21.2862,47.1499,84.7533],[21.2752,47.1523,92.704],[21.2739,47.1468,85.6406],[21.2779,47.1389,86.1706],[21.2798,47.1002,108.3896],[21.2698,47.0869,87.2565],[21.2267,47.0678,85.8944],[21.2203,47.0618,86.1092],[21.2237,47.0529,86.0003],[21.2243,47.0447,87.2534],[21.2237,47.0387,87.9996],[21.2203,47.0326,87.3879],[21.2198,47.0258,85.4111],[21.2211,47.0223,86.4375],[21.2244,47.02,86.3009],[21.2948,46.9952,84.1951],[21.3226,46.9879,85.9685],[21.3358,46.9799,88.0009],[21.3451,46.9765,86.4427],[21.367,46.9753,85.4641],[21.3795,46.9724,86.044],[21.4098,46.9713,88.0674],[21.4144,46.967,89.4835],[21.4142,46.9538,88.0525],[21.4423,46.9531,88.2507],[21.4708,46.945,88.661],[21.4887,46.9512,87.9093],[21.5056,46.952,89.631],[21.5179,46.9566,89.5282],[21.5492,46.9562,91.2767],[21.5516,46.9626,90.2374],[21.5489,46.9725,90.3382],[21.5497,46.9785,89.8671],[21.5636,46.9946,91.2624],[21.5752,47.0006,91.7174],[21.5916,46.9946,92.1971],[21.6087,46.9989,92.4579],[21.6232,47.009,93.7554],[21.6277,47.0209,94.2875],[21.6363,47.0349,96.0836],[21.6475,47.0335,95.6544],[21.6514,47.0355,97.3257]]]]}}