{"type": "Feature","bbox": [18.8549,47.5937,19.1343,47.8286],"geometry": {"type": "MultiPolygon","coordinates": [[[[19.1093,47.619,102.0354],[19.1108,47.6275,105.8505],[19.1138,47.6333,107.9082],[19.115,47.6422,98.5],[19.1182,47.6488,98.5],[19.1184,47.6702,98.5],[19.1219,47.6774,98.5],[19.1229,47.6892,101.2498],[19.126,47.6949,99.0],[19.1265,47.711,99.0],[19.13,47.7181,108.6426],[19.1313,47.7265,99.7244],[19.1304,47.7343,99.0],[19.1343,47.7425,102.343],[19.1335,47.775,115.1706],[19.1279,47.7829,117.4195],[19.1167,47.7934,115.6872],[19.0828,47.8156,134.8361],[19.0683,47.8222,216.0271],[19.0425,47.8273,132.027],[19.0024,47.8286,127.5282],[18.9946,47.8279,140.6175],[18.9738,47.8198,144.545],[18.971,47.8175,221.7197],[18.9677,47.8097,122.0023],[18.9665,47.7983,104.1599],[18.9608,47.7881,105.858],[18.9374,47.7788,376.666],[18.9196,47.7815,261.4428],[18.9221,47.7534,322.1044],[18.9372,47.7418,409.2798],[18.9339,47.729,579.58],[18.9303,47.7243,504.94],[18.9132,47.7228,494.1425],[18.9039,47.7328,356.9047],[18.9013,47.7337,438.6324],[18.886,47.7286,621.1016],[18.8611,47.7246,481.3925],[18.861,47.7157,625.7844],[18.8549,47.7051,675.5789],[18.8821,47.7025,416.1465],[18.9006,47.7032,468.6168],[18.9224,47.6979,548.9532],[18.9231,47.681399999999996,254.4794],[18.9197,47.6737,388.0708],[18.9161,47.6575,271.3876],[18.9214,47.6494,196.5707],[18.9329,47.6428,291.7249],[18.9401,47.6325,202.4575],[18.9447,47.6291,188.2163],[18.9559,47.6264,196.2693],[18.9652,47.6295,288.9124],[18.9769,47.6367,330.7617],[18.9859,47.6391,250.5247],[19.0024,47.6288,182.6152],[19.0298,47.6183,146.5929],[19.0418,47.6209,120.0094],[19.0597,47.6202,104.9805],[19.0624,47.6185,99.5],[19.0669,47.6089,102.1425],[19.0638,47.5978,109.9669],[19.0734,47.5937,105.3041],[19.0784,47.5954,98.0],[19.0871,47.6047,98.0],[19.0942,47.618899999999996,109.3855],[19.1093,47.619,102.0354]]]]}
,"properties": {"GID_2": "HUN.14.12_1","GID_0": "HUN","country": "Hungary","GID_1": "HUN.14_1","province": "Pest","NL_NAME_1": "NA","county": "Szentendre","VARNAME_2": "Szentendrei","NL_NAME_2": "NA","TYPE_2": "Kistérség","ENGTYPE_2": "Subregion","CC_2": "NA","HASC_2": "NA","name": "Szentendre.county","area_km2": 327.7641,"hist_schema_id": "Elevation0-9000","hist_area_km2": {"100": 108.7322,"125": 28.3551,"150": 14.3831,"175": 15.1264,"200": 15.1694,"225": 13.1402,"250": 12.483,"275": 10.9851,"300": 10.5989,"325": 10.0563,"350": 10.3695,"375": 10.1987,"400": 10.4125,"425": 9.7703,"450": 9.3428,"475": 8.0304,"500": 7.8021,"525": 7.1458,"550": 5.463,"575": 3.024,"600": 1.9971,"625": 1.5692,"650": 1.7118,"675": 1.2838,"700": 0.6134}}}