{"type": "Feature","bbox": [16.9884,46.7891,17.2556,47.0535],"geometry": {"type": "MultiPolygon","coordinates": [[[[17.0454,47.0521,173.2169],[17.0356,47.0509,176.1502],[17.0279,47.0464,162.1117],[17.0292,47.0209,163.6322],[17.0337,47.01,150.541],[17.0308,47.0061,148.2271],[17.0137,46.9929,165.6454],[17.0127,46.9745,130.0104],[17.0084,46.9727,131.8279],[16.994,46.9723,147.5472],[16.9884,46.9611,148.9322],[16.9929,46.955,136.6505],[17.0036,46.9454,141.7377],[17.0081,46.9441,144.1952],[17.0269,46.9443,267.2194],[17.0352,46.9392,185.8099],[17.0358,46.9295,163.0002],[17.0278,46.9137,236.8565],[17.0274,46.9088,233.6855],[17.0291,46.9055,262.1898],[17.0464,46.9069,253.6667],[17.0535,46.9143,243.5877],[17.0591,46.917,190.3408],[17.0703,46.9138,162.5429],[17.0703,46.9104,184.4876],[17.0626,46.9009,204.9458],[17.0657,46.889,170.2556],[17.0566,46.884,152.9914],[17.0548,46.8811,166.3548],[17.0567,46.8783,162.4656],[17.0669,46.8736,152.3785],[17.0712,46.8679,138.3096],[17.0717,46.8606,170.1752],[17.0704,46.858,214.5096],[17.0602,46.852,253.9706],[17.0553,46.847,207.5445],[17.0552,46.8436,244.041],[17.0582,46.8379,228.7321],[17.0554,46.8318,231.9421],[17.0551,46.8221,215.9745],[17.0566,46.8186,189.9325],[17.0672,46.8105,176.2282],[17.0693,46.8007,183.3449],[17.0802,46.7958,265.7399],[17.08,46.7934,248.5527],[17.0757,46.7891,229.8225],[17.0947,46.7891,189.9989],[17.1055,46.7977,117.4106],[17.1215,46.7991,115.3802],[17.1397,46.8038,186.1775],[17.1333,46.824,212.4442],[17.1478,46.8295,260.4344],[17.1568,46.8421,239.3156],[17.1533,46.8513,222.9735],[17.1563,46.8583,195.5495],[17.15,46.8628,186.5653],[17.1495,46.8651,187.8703],[17.1636,46.8731,131.8921],[17.1653,46.8828,131.2507],[17.1685,46.886,132.232],[17.1775,46.8892,159.5727],[17.1923,46.8909,165.7237],[17.1948,46.9018,267.813],[17.2074,46.9091,310.9782],[17.2063,46.9125,319.6133],[17.1956,46.9194,304.8749],[17.1952,46.9224,244.6432],[17.2106,46.9273,256.8461],[17.2184,46.9325,214.9109],[17.2478,46.9332,176.2101],[17.2419,46.939,155.2363],[17.2412,46.943,153.5107],[17.2556,46.9654,145.7552],[17.2552,46.9835,142.793],[17.2538,46.9875,148.7132],[17.2358,47.0094,138.3917],[17.2258,47.0125,142.0814],[17.1673,47.0133,143.4232],[17.1566,47.0177,147.0479],[17.141,47.0312,144.3511],[17.1286,47.0371,144.9975],[17.1031,47.0535,169.5925],[17.1026,47.0493,168.1809],[17.0982,47.0413,169.3354],[17.0861,47.0395,164.825],[17.0661,47.0422,165.2766],[17.0639,47.0444,165.6405],[17.0626,47.0507,171.1461],[17.0606,47.0522,161.565],[17.0454,47.0521,173.2169]]]]}
,"properties": {"GID_2": "HUN.20.6_1","GID_0": "HUN","country": "Hungary","GID_1": "HUN.20_1","province": "Zala","NL_NAME_1": "NA","county": "Zalaszentgrót","VARNAME_2": "Zalaszentgróti","NL_NAME_2": "NA","TYPE_2": "Kistérség","ENGTYPE_2": "Subregion","CC_2": "NA","HASC_2": "NA","name": "Zalaszentgrót.county","area_km2": 316.2905,"hist_schema_id": "Elevation0-9000","hist_area_km2": {"100": 1.9586,"125": 75.8919,"150": 132.3701,"175": 47.7793,"200": 25.367,"225": 15.49,"250": 9.335,"275": 3.4927,"300": 1.4484,"325": 1.5353,"350": 1.4774,"375": 0.1448}}}