{"type":"Feature","properties":{"GID_2":"HUN.8.2_1","GID_0":"HUN","country":"Hungary","GID_1":"HUN.8_1","province":"Gyor-Moson-Sopron","NL_NAME_1":"NA","county":"Győr","VARNAME_2":"NA","NL_NAME_2":"NA","TYPE_2":"Kistérség","ENGTYPE_2":"Subregion","CC_2":"NA","HASC_2":"NA","name":"Győr.county"},
"geometry":{"type": "MultiPolygon","coordinates": [[[[17.4149,47.6229,112.1069],[17.4292,47.6179,112.7563],[17.4352,47.6173,113.5486],[17.4448,47.6207,114.5375],[17.4491,47.626,115.8457],[17.4581,47.6255,112.7539],[17.4617,47.6114,113.21],[17.4722,47.6079,116.1295],[17.4847,47.5985,111.3812],[17.4849,47.596,112.1606],[17.4798,47.5906,116.4902],[17.4803,47.5868,112.1957],[17.4919,47.5782,117.3886],[17.5057,47.5743,113.7818],[17.5436,47.5714,133.3897],[17.5674,47.5778,120.3895],[17.5697,47.5795,125.1421],[17.5729,47.5872,124.3069],[17.5693,47.5937,122.7489],[17.5695,47.5978,119.7206],[17.5739,47.6011,120.3943],[17.5837,47.6033,122.4137],[17.6013,47.5888,124.3749],[17.6098,47.5848,129.5307],[17.6166,47.5789,142.3738],[17.6214,47.5787,145.7106],[17.6287,47.5828,193.6256],[17.6329,47.5828,236.7606],[17.6418,47.5677,242.3064],[17.6486,47.5641,276.769],[17.6605,47.5622,305.277],[17.6751,47.546,296.1082],[17.6932,47.5567,216.76],[17.6984,47.5629,193.5742],[17.7081,47.5701,129.9899],[17.7231,47.5765,139.261],[17.7238,47.5824,128.9333],[17.719,47.5912,122.5559],[17.7225,47.5957,122.8485],[17.744,47.5989,123.4131],[17.757,47.5918,131.2905],[17.7685,47.5887,151.297],[17.7785,47.5909,143.5043],[17.802,47.5919,142.6833],[17.8044,47.5938,141.4738],[17.8059,47.5994,138.4069],[17.8139,47.6,138.2005],[17.8255,47.5964,134.8649],[17.8273,47.5841,132.9942],[17.8259,47.5798,137.4051],[17.8166,47.5747,146.5554],[17.8118,47.5683,149.5722],[17.8115,47.5587,152.6801],[17.8186,47.5533,149.4495],[17.8227,47.5466,151.2279],[17.8328,47.5429,149.9487],[17.8351,47.5331,151.8768],[17.8391,47.5309,148.1969],[17.8548,47.5339,148.3678],[17.861,47.5422,147.5763],[17.8655,47.5445,146.9271],[17.8824,47.5398,148.607],[17.9175,47.5413,151.8708],[17.9207,47.5464,148.8701],[17.9102,47.5532,141.7326],[17.9095,47.5623,142.5011],[17.9159,47.5801,135.514],[17.9167,47.5899,133.371],[17.9262,47.5991,130.9755],[17.9281,47.605,130.3364],[17.9261,47.6164,128.5677],[17.9059,47.6232,127.252],[17.8912,47.6328,125.942],[17.8879,47.6387,124.6663],[17.888,47.6484,123.3647],[17.8949,47.661,135.7942],[17.8928,47.6986,116.6642],[17.896,47.7084,118.8438],[17.8956,47.7248,118.3802],[17.9002,47.7336,119.0214],[17.9068,47.7406,103.5],[17.8989,47.7382,103.5],[17.8862,47.7393,103.5],[17.8695,47.7448,103.5],[17.8619,47.745,103.5],[17.848,47.7424,103.5],[17.8045,47.7444,103.5],[17.7807,47.7417,103.5],[17.7705,47.7446,103.5],[17.7635,47.7494,105.0107],[17.725,47.7543,104.0],[17.7093,47.7604,104.0],[17.6829,47.7789,105.6745],[17.649,47.7958,109.4969],[17.626,47.811,112.3029],[17.6138,47.8015,112.227],[17.6072,47.7986,114.0466],[17.5903,47.8011,116.3835],[17.5679,47.8011,115.0312],[17.5447,47.7925,113.5796],[17.5312,47.7922,113.2255],[17.5187,47.7939,113.7712],[17.5139,47.7868,111.4956],[17.5073,47.7832,110.6056],[17.467,47.782,116.6825],[17.4632,47.78,114.7748],[17.4585,47.7718,114.2711],[17.4447,47.7684,114.4279],[17.4417,47.7622,113.5126],[17.4468,47.7529,122.7645],[17.4564,47.7394,114.5727],[17.4717,47.7327,115.0114],[17.4726,47.7301,114.365],[17.4699,47.7247,112.7383],[17.4703,47.7196,112.508],[17.4863,47.7122,111.5171],[17.4885,47.7026,111.6983],[17.4873,47.6998,111.3826],[17.4828,47.6974,114.3179],[17.4642,47.6964,117.1145],[17.4417,47.6909,115.5302],[17.4371,47.6925,115.5291],[17.4309,47.7012,112.998],[17.4238,47.701,116.2568],[17.4256,47.6782,111.1705],[17.4323,47.67,112.9531],[17.4283,47.6648,113.3126],[17.4287,47.6629,113.7452],[17.4356,47.6588,114.3083],[17.4504,47.6581,112.2234],[17.4521,47.6553,112.8357],[17.4486,47.6508,112.4307],[17.4454,47.6496,112.4155],[17.4373,47.6498,111.1419],[17.4266,47.6546,112.4769],[17.4205,47.6553,112.0859],[17.4134,47.6543,117.9712],[17.4055,47.6492,113.6354],[17.4039,47.645,113.6387],[17.4156,47.6301,113.6846],[17.4149,47.6229,112.1069]]]]}}