{"type": "Feature","bbox": [18.0658,46.4103,18.6178,46.8208],"geometry": {"type": "MultiPolygon","coordinates": [[[[18.3283,46.4122,225.4522],[18.3516,46.4116,207.0659],[18.3653,46.4144,172.6247],[18.38,46.4147,159.0678],[18.3876,46.414,170.3392],[18.3993,46.4103,159.0391],[18.4035,46.4108,145.1227],[18.4175,46.4175,141.5004],[18.4284,46.4261,200.8472],[18.4171,46.4442,219.3409],[18.4216,46.4529,232.7812],[18.4282,46.4606,156.0101],[18.4543,46.4657,194.1021],[18.4708,46.4761,218.8621],[18.4802,46.4793,206.1972],[18.493,46.481,183.6691],[18.5093,46.4913,147.8853],[18.5141,46.4912,170.2414],[18.5422,46.4818,112.8594],[18.5538,46.4856,111.9914],[18.5547,46.4894,132.2318],[18.5474,46.502,137.3201],[18.5466,46.5077,158.067],[18.5472,46.512,160.4792],[18.554,46.5254,128.403],[18.5505,46.5355,170.0014],[18.5544,46.5452,165.4875],[18.5544,46.5632,137.7101],[18.5596,46.5719,115.8534],[18.5686,46.5784,157.3941],[18.5637,46.5828,114.4432],[18.5633,46.586,118.0172],[18.5735,46.5975,101.1196],[18.5749,46.6016,100.5],[18.574,46.6065,115.5065],[18.5665,46.6171,121.6559],[18.5664,46.6284,155.9741],[18.5694,46.6339,148.7908],[18.5713,46.645,142.0016],[18.5848,46.6509,117.7985],[18.586,46.6531,126.359],[18.5745,46.6807,167.2378],[18.5728,46.6883,158.9284],[18.5642,46.6999,193.0811],[18.5505,46.7128,216.3712],[18.5498,46.7151,223.2486],[18.5525,46.7173,159.7744],[18.5743,46.7248,119.6363],[18.5827,46.7358,100.7466],[18.5885,46.74,103.7079],[18.6178,46.7517,95.7982],[18.5985,46.7536,95.777],[18.5796,46.76,95.8707],[18.5689,46.7675,118.0914],[18.559,46.7835,130.1658],[18.5492,46.785,142.3085],[18.5405,46.7829,148.7134],[18.5279,46.7705,131.4312],[18.5093,46.7683,130.4066],[18.5048,46.7582,105.1636],[18.5061,46.756,102.4707],[18.5127,46.7535,97.4662],[18.5129,46.7512,97.2412],[18.5112,46.7497,97.7232],[18.4679,46.749,99.7368],[18.4546,46.7461,97.7924],[18.4454,46.7464,96.9728],[18.4341,46.7505,99.4714],[18.4217,46.7591,103.8488],[18.4214,46.7616,128.0684],[18.4255,46.7697,125.7441],[18.4152,46.7816,149.998],[18.4182,46.7938,153.1861],[18.4099,46.807,161.8517],[18.4004,46.8033,155.4619],[18.3892,46.7932,155.4897],[18.3585,46.7845,145.733],[18.334,46.7924,114.9639],[18.3191,46.7992,124.2342],[18.3166,46.8028,128.8068],[18.3156,46.8168,128.559],[18.3084,46.8203,117.3125],[18.3025,46.8208,114.7996],[18.2794,46.8127,141.4567],[18.2484,46.7891,156.512],[18.2236,46.7855,159.6088],[18.2048,46.7914,178.8008],[18.1997,46.7858,209.2261],[18.1938,46.7751,221.4462],[18.1747,46.7668,219.7001],[18.1813,46.7537,185.8801],[18.1807,46.7514,205.0286],[18.148,46.7507,214.9993],[18.1384,46.7405,241.5245],[18.1219,46.7285,234.5225],[18.1213,46.7241,242.1151],[18.1325,46.7123,179.0742],[18.1362,46.707,167.576],[18.1362,46.7044,172.0062],[18.1319,46.6952,183.1003],[18.1238,46.6837,164.1998],[18.1015,46.6728,170.0696],[18.0991,46.6606,204.5935],[18.0816,46.6475,197.3305],[18.0684,46.6291,148.9389],[18.0684,46.6237,132.3141],[18.0752,46.6146,145.7251],[18.0803,46.6026,140.1713],[18.0781,46.5991,122.3213],[18.0705,46.5958,158.8505],[18.0658,46.5916,227.1439],[18.0919,46.5857,192.2987],[18.0996,46.5789,227.5259],[18.1037,46.5776,206.6303],[18.1177,46.5806,153.5906],[18.1267,46.5852,119.8328],[18.1353,46.5872,148.308],[18.1384,46.5852,145.2611],[18.1442,46.5765,116.7559],[18.1477,46.5744,118.1924],[18.1535,46.574,132.1353],[18.1652,46.5766,174.7063],[18.1834,46.5761,193.0468],[18.19,46.5726,161.9663],[18.1955,46.5664,178.6371],[18.1996,46.5651,143.7511],[18.218,46.5678,165.1627],[18.2254,46.5709,141.5661],[18.2262,46.5745,157.4081],[18.2226,46.5805,121.5232],[18.2224,46.5858,114.08],[18.2253,46.5881,114.7737],[18.2321,46.59,111.8615],[18.2354,46.5882,113.9597],[18.2485,46.571,149.6234],[18.2518,46.5706,179.1616],[18.2685,46.575,214.3484],[18.2732,46.5746,245.7016],[18.2952,46.5514,200.6736],[18.3063,46.5471,151.5858],[18.319,46.5449,129.333],[18.3273,46.5343,141.2011],[18.3326,46.5193,143.9109],[18.3302,46.5153,147.9244],[18.317,46.5057,156.8399],[18.312,46.4985,149.6865],[18.3117,46.4902,148.235],[18.3164,46.478,112.7078],[18.321,46.476,107.3477],[18.3543,46.4752,105.2778],[18.3681,46.4583,229.6636],[18.3695,46.4509,204.6357],[18.3682,46.4405,264.6252],[18.3583,46.4334,270.5121],[18.3496,46.432,272.2682],[18.3237,46.4323,125.5325],[18.3172,46.4307,111.8528],[18.3123,46.4192,266.8301],[18.3283,46.4122,225.4522]]]]}
,"properties": {"GID_2": "HUN.17.5_1","GID_0": "HUN","country": "Hungary","GID_1": "HUN.17_1","province": "Tolna","NL_NAME_1": "NA","county": "Tamás","VARNAME_2": "NA","NL_NAME_2": "NA","TYPE_2": "Kistérség","ENGTYPE_2": "Subregion","CC_2": "NA","HASC_2": "NA","name": "Tamás.county","area_km2": 1045.3238,"hist_schema_id": "Elevation0-9000","hist_area_km2": {"100": 114.0971,"125": 198.2015,"150": 312.3878,"175": 219.3077,"200": 115.1087,"225": 59.9126,"250": 22.6133,"275": 3.4614,"300": 0.2338}}}