{"type": "Feature","bbox": [19.2062,46.9997,19.6143,47.2811],"geometry": {"type": "MultiPolygon","coordinates": [[[[19.5995,47.1125,141.638],[19.6143,47.1367,145.5082],[19.6093,47.1435,149.4513],[19.5867,47.1593,148.3547],[19.5858,47.165,147.8507],[19.5892,47.1719,148.4358],[19.5889,47.1758,140.0475],[19.5266,47.1971,136.5873],[19.5241,47.2132,139.2782],[19.5112,47.2318,139.3577],[19.4899,47.2259,135.8955],[19.4851,47.226,144.5468],[19.4574,47.2383,128.4158],[19.4432,47.2471,123.6532],[19.4321,47.2507,127.766],[19.4265,47.2494,136.4515],[19.4144,47.2405,127.6171],[19.4102,47.2402,122.0985],[19.3909,47.2522,122.765],[19.3643,47.2611,123.4646],[19.3466,47.2753,122.0404],[19.33,47.2811,123.4846],[19.2934,47.2683,121.8973],[19.288,47.2598,106.0042],[19.2881,47.2436,105.7084],[19.2704,47.2303,99.6181],[19.265,47.2304,101.3742],[19.2552,47.2362,99.3017],[19.2399,47.2425,110.5218],[19.2198,47.2329,97.0569],[19.2111,47.2262,96.385],[19.2113,47.2234,96.099],[19.2239,47.2086,96.2522],[19.2253,47.2045,96.1044],[19.2169,47.1908,96.0001],[19.2108,47.1852,95.8033],[19.2062,47.1782,97.152],[19.2079,47.1534,94.8547],[19.2095,47.1492,94.7383],[19.2245,47.1308,95.1858],[19.2415,47.1187,96.9333],[19.2907,47.117,110.206],[19.3093,47.1128,97.4512],[19.3331,47.0979,98.6451],[19.3451,47.0927,100.8982],[19.3568,47.0794,101.5932],[19.3568,47.076,101.6369],[19.3498,47.0675,100.0517],[19.3288,47.0504,100.0944],[19.3209,47.0378,97.8807],[19.3168,47.0276,96.2863],[19.3171,47.0181,96.8338],[19.319,47.0139,97.596],[19.3392,46.9997,118.167],[19.3497,47.0024,111.921],[19.3603,47.0101,102.4137],[19.3691,47.0137,102.1191],[19.4057,47.0198,118.1201],[19.4192,47.0271,126.1745],[19.4317,47.0363,124.1828],[19.4463,47.0438,131.1102],[19.4653,47.0448,134.3004],[19.4803,47.0424,128.61],[19.4974,47.0439,135.9092],[19.506,47.0568,132.9462],[19.5021,47.0663,132.2591],[19.5021,47.072,136.3085],[19.5125,47.0885,135.6428],[19.5138,47.097,136.1758],[19.5189,47.1028,145.0112],[19.5427,47.1039,146.3116],[19.5612,47.0989,153.1353],[19.5804,47.0993,136.6901],[19.5877,47.1022,138.3469],[19.5995,47.1125,141.638]]]]}
,"properties": {"GID_2": "HUN.14.3_1","GID_0": "HUN","country": "Hungary","GID_1": "HUN.14_1","province": "Pest","NL_NAME_1": "NA","county": "Dabasi","VARNAME_2": "NA","NL_NAME_2": "NA","TYPE_2": "Kistérség","ENGTYPE_2": "Subregion","CC_2": "NA","HASC_2": "NA","name": "Dabasi.county","area_km2": 525.7041,"hist_schema_id": "Elevation0-9000","hist_area_km2": {"100": 174.95,"125": 265.5325,"150": 85.1639,"175": 0.0577}}}