{"type": "Feature","bbox": [19.4227,47.6915,19.8571,47.996],"geometry": {"type": "MultiPolygon","coordinates": [[[[19.819,47.9239,617.5278],[19.8172,47.9425,359.5522],[19.7968,47.961,280.4549],[19.759,47.9622,173.1859],[19.7449,47.9707,240.5757],[19.7293,47.9692,176.5198],[19.7118,47.9793,238.0059],[19.6832,47.9856,442.8335],[19.6763,47.9931,478.4371],[19.657,47.996,454.464],[19.6426,47.9953,399.9253],[19.6294,47.9852,375.4849],[19.6173,47.9865,290.9379],[19.5996,47.9855,395.4809],[19.5961,47.9833,335.0948],[19.5882,47.9727,371.285],[19.5795,47.9669,300.2643],[19.554,47.9647,430.001],[19.5295,47.9554,391.055],[19.5222,47.9474,392.8096],[19.52,47.9416,377.3228],[19.5051,47.9217,387.0816],[19.4987,47.9088,435.0442],[19.4674,47.9077,314.3449],[19.4629,47.9062,375.9869],[19.4612,47.904,331.8785],[19.4619,47.9014,313.0152],[19.473,47.8906,295.7969],[19.4779,47.8816,376.7648],[19.4779,47.8776,309.9411],[19.4751,47.873,219.4226],[19.4737,47.8636,386.4827],[19.4687,47.8523,304.9518],[19.4485,47.8506,290.1373],[19.4396,47.8479,231.587],[19.4354,47.8445,241.0074],[19.4357,47.8178,226.054],[19.4424,47.808,211.1376],[19.4232,47.7855,212.4316],[19.4227,47.7765,234.6654],[19.4235,47.7735,246.0959],[19.4389,47.7741,205.7245],[19.4488,47.7713,163.2682],[19.453,47.7673,201.7111],[19.4479,47.7581,212.2403],[19.4341,47.7528,315.3278],[19.4324,47.7486,306.8929],[19.4419,47.7368,284.3571],[19.4602,47.719,279.3152],[19.4757,47.7106,236.8481],[19.4802,47.7035,245.304],[19.479,47.6927,236.7462],[19.4954,47.6915,198.0449],[19.5073,47.695,226.9818],[19.5104,47.6975,212.7248],[19.511,47.7016,203.9331],[19.5031,47.7154,213.8996],[19.5034,47.7202,165.7431],[19.511,47.7254,160.5928],[19.5289,47.7277,175.9575],[19.544,47.7459,173.3886],[19.5623,47.7471,161.201],[19.5775,47.7448,153.6957],[19.5955,47.7479,130.8064],[19.6047,47.7524,155.7206],[19.6101,47.7625,157.3634],[19.6148,47.7668,160.0864],[19.649,47.7681,139.8036],[19.6497,47.7703,139.3535],[19.647,47.7783,140.565],[19.6508,47.7859,142.7087],[19.6513,47.7911,144.4615],[19.6469,47.804,149.8659],[19.6481,47.8075,148.792],[19.6525,47.811,133.2189],[19.6588,47.8124,136.6261],[19.6786,47.8076,133.7564],[19.6878,47.8177,135.6522],[19.7079,47.8182,234.4009],[19.7284,47.8211,322.5641],[19.73,47.8375,233.7918],[19.7488,47.8585,368.8491],[19.7672,47.8713,435.9867],[19.7687,47.8755,443.0658],[19.7693,47.8938,744.1643],[19.7793,47.9016,667.3528],[19.7863,47.9037,631.2468],[19.7982,47.9036,532.3663],[19.828,47.886,607.3697],[19.8396,47.8833,643.7175],[19.8517,47.8849,629.236],[19.8571,47.8948,753.1667],[19.8565,47.9033,809.5778],[19.8207,47.9091,566.3545],[19.8191,47.9121,502.7809],[19.819,47.9239,617.5278]]]]}
,"properties": {"GID_2": "HUN.13.3_1","GID_0": "HUN","country": "Hungary","GID_1": "HUN.13_1","province": "Nógrád","NL_NAME_1": "NA","county": "Pásztó","VARNAME_2": "Pásztói","NL_NAME_2": "NA","TYPE_2": "Kistérség","ENGTYPE_2": "Subregion","CC_2": "NA","HASC_2": "NA","name": "Pásztó.county","area_km2": 539.6478,"hist_schema_id": "Elevation0-9000","hist_area_km2": {"125": 5.6117,"150": 83.0956,"175": 96.3765,"200": 82.8897,"225": 59.6184,"250": 40.2193,"275": 36.5348,"300": 25.4253,"325": 20.8876,"350": 18.6831,"375": 13.9087,"400": 10.8116,"425": 8.582,"450": 6.8194,"475": 4.6888,"500": 4.646,"525": 3.9353,"550": 3.1401,"575": 2.5582,"600": 2.1465,"625": 2.2318,"650": 1.7911,"675": 1.5352,"700": 1.3504,"725": 1.1514,"750": 0.597,"775": 0.2701,"800": 0.1422}}}