{"type":"Feature","properties":{"GID_2":"HUN.19.5_1","GID_0":"HUN","country":"Hungary","GID_1":"HUN.19_1","province":"Veszprém","NL_NAME_1":"NA","county":"Sümeg","VARNAME_2":"Sümegi","NL_NAME_2":"NA","TYPE_2":"Kistérség","ENGTYPE_2":"Subregion","CC_2":"NA","HASC_2":"NA","name":"Sümeg.county"},
"geometry":{"type": "MultiPolygon","coordinates": [[[[17.0992,47.0749,157.535],[17.1031,47.0535,169.5925],[17.1286,47.0371,144.9975],[17.141,47.0312,144.3511],[17.159,47.0163,146.1394],[17.1709,47.0125,136.8103],[17.2258,47.0125,142.0814],[17.237,47.0086,138.5712],[17.2538,46.9875,148.7132],[17.2552,46.9835,142.793],[17.2556,46.9654,145.7552],[17.2412,46.943,153.5107],[17.2419,46.939,155.2363],[17.2478,46.9332,176.2101],[17.2623,46.9305,191.3574],[17.3015,46.9304,208.7135],[17.3196,46.9195,191.7275],[17.3425,46.9328,197.7197],[17.347,46.934,222.1352],[17.3591,46.9339,215.2874],[17.3802,46.9271,219.4516],[17.3848,46.9291,219.2268],[17.3998,46.9532,213.5551],[17.3774,46.9619,212.7113],[17.3773,46.9639,214.9763],[17.3826,46.9687,218.002],[17.3857,46.9742,231.689],[17.3821,46.9797,206.538],[17.375,46.9855,208.9607],[17.3748,46.9881,200.4836],[17.3785,46.9908,193.5795],[17.3933,46.9917,198.4855],[17.4015,46.995,195.0459],[17.4025,47.0103,204.965],[17.4136,47.0179,207.8171],[17.4249,47.043,175.7013],[17.4238,47.0581,190.8128],[17.412,47.0684,197.1622],[17.4071,47.0775,182.2583],[17.4055,47.0859,183.0974],[17.4037,47.0874,181.585],[17.3854,47.0876,187.3517],[17.3523,47.0823,164.9721],[17.3431,47.0852,157.5482],[17.3304,47.0922,162.7467],[17.3127,47.0939,165.1826],[17.289,47.1057,140.6641],[17.2744,47.1106,137.3774],[17.2565,47.1218,135.6057],[17.2509,47.1233,135.0329],[17.2342,47.122,134.3115],[17.2266,47.1096,131.9884],[17.231,47.0957,135.6448],[17.2212,47.0893,133.3338],[17.2149,47.0757,136.428],[17.2007,47.0782,133.7598],[17.1782,47.0857,147.287],[17.1559,47.0861,149.4408],[17.1477,47.0853,151.9285],[17.1365,47.0784,165.0787],[17.1232,47.075,154.7565],[17.0992,47.0749,157.535]]]]}}