{"type":"Feature","properties":{"GID_2":"HUN.13.6_1","GID_0":"HUN","country":"Hungary","GID_1":"HUN.13_1","province":"Nógrád","NL_NAME_1":"NA","county":"Szécsény","VARNAME_2":"Szécsényi","NL_NAME_2":"NA","TYPE_2":"Kistérség","ENGTYPE_2":"Subregion","CC_2":"NA","HASC_2":"NA","name":"Szécsény.county"},
"geometry":{"type": "MultiPolygon","coordinates": [[[[19.554,47.9647,430.001],[19.5795,47.9669,300.2643],[19.5882,47.9727,371.285],[19.5961,47.9833,335.0948],[19.6006,47.9857,395.4809],[19.6302,47.9854,358.2819],[19.6391,47.9935,431.2582],[19.6469,47.996,403.826],[19.6763,47.9931,478.4371],[19.6753,48.008,319.5836],[19.6552,48.0247,325.0274],[19.6513,48.0308,351.4717],[19.6669,48.0511,294.4142],[19.666,48.0588,279.6907],[19.6704,48.0689,249.53],[19.6844,48.0812,221.4513],[19.6766,48.0924,221.0354],[19.6734,48.0943,202.7819],[19.6528,48.0866,224.2582],[19.6391,48.0891,235.7162],[19.619,48.0956,315.5532],[19.6167,48.1016,241.3672],[19.617,48.1129,218.9878],[19.6317,48.1353,254.7394],[19.6324,48.1436,275.2938],[19.6315,48.1488,295.5231],[19.626,48.1586,273.6827],[19.6119,48.1656,293.4757],[19.6068,48.1715,280.5824],[19.6065,48.1747,256.2925],[19.6117,48.1827,259.4281],[19.6114,48.1849,239.7327],[19.605,48.1861,202.3039],[19.5867,48.1781,309.2226],[19.5828,48.1779,361.0615],[19.5639,48.1999,317.1323],[19.5434,48.2109,162.6986],[19.5378,48.2108,159.9251],[19.5278,48.2064,159.2779],[19.5247,48.2,172.3756],[19.528,48.1944,160.8683],[19.5245,48.1881,159.5226],[19.5176,48.1848,158.1974],[19.5085,48.1747,157.6062],[19.5125,48.161,157.508],[19.5118,48.1533,155.3637],[19.4962,48.1407,154.3055],[19.4967,48.1339,152.38],[19.4931,48.1133,150.0741],[19.4852,48.1054,150.1929],[19.4724,48.1001,155.732],[19.4694,48.0934,149.0525],[19.4689,48.0902,147.7342],[19.4857,48.09,147.5661],[19.4745,48.0682,174.8537],[19.4639,48.0617,210.904],[19.4668,48.0541,229.9379],[19.4668,48.0496,244.158],[19.4592,48.0384,259.5328],[19.458,48.0263,213.9288],[19.451,48.0165,256.1345],[19.4459,48.0055,286.9445],[19.4474,48.0015,310.0333],[19.4541,47.9954,269.9051],[19.4751,47.9943,338.2827],[19.4983,47.9891,412.0782],[19.554,47.9647,430.001]]]]}}