{"type": "Feature","bbox": [18.6597,47.1661,18.905,47.3959],"geometry": {"type": "MultiPolygon","coordinates": [[[[18.8694,47.1661,101.9851],[18.8685,47.202,97.022],[18.894,47.2214,99.7045],[18.899,47.2286,100.3055],[18.9029,47.2421,101.6641],[18.9018,47.2618,135.5802],[18.905,47.2734,149.1385],[18.8931,47.2762,147.7797],[18.8679,47.2773,144.2518],[18.8663,47.2801,145.629],[18.865,47.2953,146.2558],[18.8614,47.2983,148.4169],[18.8488,47.3032,150.6101],[18.8466,47.3152,150.2065],[18.8367,47.3278,138.447],[18.825,47.3385,136.3505],[18.7943,47.3586,171.9655],[18.7854,47.367,173.0834],[18.7612,47.383,183.9776],[18.7512,47.3959,194.6649],[18.7199,47.3953,134.658],[18.6877,47.3826,178.243],[18.6871,47.3783,205.4029],[18.6987,47.3672,193.7318],[18.7121,47.3508,186.5946],[18.7126,47.3477,175.632],[18.7084,47.3426,141.2298],[18.6939,47.337,125.2385],[18.6597,47.3147,173.7634],[18.6692,47.3029,156.4991],[18.6836,47.2928,145.4053],[18.7162,47.2797,134.0481],[18.7199,47.2619,123.5253],[18.7292,47.2506,124.0189],[18.7454,47.2387,139.2834],[18.7465,47.224,134.9587],[18.7632,47.2288,140.2922],[18.7731,47.2365,149.1379],[18.7962,47.236,112.7612],[18.8054,47.2264,122.7601],[18.8313,47.2092,96.4588],[18.8222,47.1967,118.037],[18.8243,47.1942,116.4394],[18.8381,47.1898,96.8123],[18.832,47.1738,117.6699],[18.8327,47.1702,123.5154],[18.8559,47.1664,98.8783],[18.8694,47.1661,101.9851]]]]}
,"properties": {"GID_2": "HUN.7.6_1","GID_0": "HUN","country": "Hungary","GID_1": "HUN.7_1","province": "Fejér","NL_NAME_1": "NA","county": "Ercs","VARNAME_2": "NA","NL_NAME_2": "NA","TYPE_2": "Kistérség","ENGTYPE_2": "Subregion","CC_2": "NA","HASC_2": "NA","name": "Ercs.county","area_km2": 219.7771,"hist_schema_id": "Elevation0-9000","hist_area_km2": {"100": 61.4307,"125": 81.5963,"150": 58.3355,"175": 16.1164,"200": 2.2982}}}