{"type": "Feature","bbox": [17.9831,47.0732,18.2204,47.2807],"geometry": {"type": "MultiPolygon","coordinates": [[[[18.0501,47.2806,300.0929],[18.0393,47.2704,445.0038],[18.0233,47.2716,372.4495],[18.0126,47.2699,318.32],[17.9956,47.2607,368.14],[17.9831,47.2478,504.0983],[17.9841,47.244,506.7875],[17.9989,47.2332,475.8775],[18.0009,47.2055,282.9623],[18.0063,47.1977,250.9666],[18.0059,47.1905,247.0348],[18.0134,47.1804,233.9942],[18.0156,47.1708,216.2785],[18.032,47.1661,223.14],[18.0417,47.1605,199.0374],[18.0471,47.1562,176.587],[18.0493,47.1493,178.0],[18.0514,47.1475,179.7418],[18.0586,47.1452,184.8192],[18.0725,47.1442,185.1477],[18.0768,47.1381,200.2322],[18.0929,47.1273,147.3692],[18.0993,47.1201,154.5234],[18.1034,47.1139,153.4053],[18.1016,47.1063,157.3763],[18.1061,47.1001,143.9701],[18.113,47.096,139.8095],[18.1297,47.0915,138.3898],[18.1338,47.0869,160.3406],[18.1397,47.0743,185.3238],[18.1523,47.0732,182.1816],[18.1613,47.0749,174.4677],[18.1668,47.0799,171.8479],[18.1685,47.0884,174.6078],[18.1726,47.091,179.6298],[18.1831,47.0915,190.2189],[18.1942,47.0893,193.5665],[18.2036,47.0895,190.5394],[18.2191,47.0978,197.896],[18.2204,47.1023,196.5736],[18.2186,47.1262,139.8204],[18.2143,47.1349,119.6261],[18.2123,47.1604,104.9556],[18.2077,47.1714,109.4167],[18.2053,47.2243,316.9553],[18.1771,47.2332,226.5031],[18.1674,47.2435,265.1099],[18.1606,47.2565,295.5878],[18.153199999999998,47.2612,322.5198],[18.1428,47.2639,358.8169],[18.1291,47.2636,404.8965],[18.1155,47.2579,403.828],[18.0985,47.2541,428.14],[18.09,47.2539,423.5179],[18.085,47.2566,417.2506],[18.0765,47.2677,450.2979],[18.0736,47.2807,444.2376],[18.0501,47.2806,300.0929]]]]}
,"properties": {"GID_2": "HUN.19.7_1","GID_0": "HUN","country": "Hungary","GID_1": "HUN.19_1","province": "Veszprém","NL_NAME_1": "NA","county": "Várpalota","VARNAME_2": "NA","NL_NAME_2": "NA","TYPE_2": "Kistérség","ENGTYPE_2": "Subregion","CC_2": "NA","HASC_2": "NA","name": "Várpalota.county","area_km2": 249.2172,"hist_schema_id": "Elevation0-9000","hist_area_km2": {"100": 18.1623,"125": 39.3643,"150": 33.6818,"175": 38.6723,"200": 18.28,"225": 10.1138,"250": 11.768,"275": 8.6554,"300": 5.3133,"325": 5.0101,"350": 4.8372,"375": 4.9231,"400": 7.0533,"425": 10.7082,"450": 14.4495,"475": 8.6507,"500": 4.65,"525": 3.1675,"550": 1.5262,"575": 0.2304}}}