{"type": "Feature","bbox": [17.0378,46.6497,17.4331,46.9332],"geometry": {"type": "MultiPolygon","coordinates": [[[[17.4331,46.7637,103.5],[17.4296,46.7712,103.5],[17.417,46.7802,103.5],[17.411,46.7867,103.5],[17.3999,46.7939,103.6647],[17.3903,46.7978,110.5189],[17.3712,46.8106,171.8717],[17.369,46.8138,197.7715],[17.367,46.8266,163.4508],[17.3514,46.8348,207.0568],[17.3444,46.8428,220.3642],[17.3388,46.8547,239.2348],[17.3369,46.8982,145.9417],[17.3332,46.9024,175.2741],[17.3212,46.9085,180.2492],[17.3196,46.9195,191.7275],[17.3015,46.9304,208.7135],[17.2623,46.9305,191.3574],[17.2478,46.9332,176.2101],[17.2184,46.9325,214.9109],[17.2106,46.9273,256.8461],[17.1952,46.9224,244.6432],[17.1956,46.9194,304.8749],[17.2078,46.9102,310.9782],[17.1948,46.9018,267.813],[17.1929,46.8914,165.7237],[17.1775,46.8892,159.5727],[17.1685,46.886,132.232],[17.1653,46.8828,131.2507],[17.1636,46.8731,131.8921],[17.1495,46.8651,187.8703],[17.15,46.8628,186.5653],[17.1563,46.8583,195.5495],[17.1533,46.8513,222.9735],[17.1568,46.8421,239.3156],[17.1478,46.8295,260.4344],[17.1333,46.824,212.4442],[17.1372,46.8098,191.5083],[17.1399,46.8055,183.2171],[17.1392,46.8033,192.1451],[17.1215,46.7991,115.3802],[17.1055,46.7977,117.4106],[17.0947,46.7891,189.9989],[17.0757,46.7891,229.8225],[17.0774,46.7783,252.4985],[17.0735,46.7682,193.4749],[17.0738,46.7549,181.0754],[17.0776,46.7508,168.1677],[17.0895,46.7455,179.4788],[17.091,46.7421,183.4272],[17.0906,46.7375,140.1943],[17.085,46.728,171.6154],[17.0536,46.7155,175.386],[17.0524,46.7062,182.1879],[17.045,46.6969,216.9813],[17.0484,46.6911,206.4424],[17.0484,46.6885,172.3699],[17.039,46.6803,207.2439],[17.0378,46.6777,191.1609],[17.0412,46.6703,162.3842],[17.0416,46.6565,197.0568],[17.043,46.654,198.1932],[17.0464,46.6534,230.0078],[17.0494,46.6544,230.604],[17.0521,46.6588,176.1105],[17.0571,46.6591,181.2705],[17.0643,46.651,238.3469],[17.0695,46.6497,237.7873],[17.0754,46.653,186.3907],[17.0761,46.6616,190.9662],[17.0776,46.6642,137.2562],[17.090699999999998,46.6676,177.6992],[17.1046,46.6756,123.9651],[17.1119,46.676,115.1681],[17.1218,46.6692,113.534],[17.1304,46.6684,106.7414],[17.1383,46.67,105.04],[17.1437,46.6773,105.1474],[17.1467,46.6783,106.1349],[17.1508,46.6759,121.8928],[17.1531,46.6701,117.5197],[17.1568,46.6668,120.1495],[17.168,46.6623,118.5851],[17.184,46.6525,104.59],[17.191,46.651,105.8693],[17.2029,46.6521,104.5],[17.2115,46.6567,105.7328],[17.2146,46.6613,105.4585],[17.2166,46.6691,105.0473],[17.2282,46.6742,106.0598],[17.2275,46.6819,106.3327],[17.2293,46.6857,105.6341],[17.2638,46.7002,106.0543],[17.275,46.7109,103.5],[17.2836,46.7236,103.5],[17.2839,46.7399,103.5],[17.286,46.7422,103.5],[17.3051,46.7403,103.5],[17.3337,46.746,103.5],[17.3614,46.7412,103.5],[17.3884,46.7415,103.5],[17.3938,46.744,103.5],[17.4025,46.755,103.5],[17.4195,46.7611,103.5],[17.4331,46.7637,103.5]]]]}
,"properties": {"GID_2": "HUN.20.1_1","GID_0": "HUN","country": "Hungary","GID_1": "HUN.20_1","province": "Zala","NL_NAME_1": "NA","county": "Hévíz/Keszthely","VARNAME_2": "Hévízi","NL_NAME_2": "NA","TYPE_2": "Kistérség","ENGTYPE_2": "Subregion","CC_2": "NA","HASC_2": "NA","name": "Hévíz_Keszthely.county","area_km2": 491.099,"hist_schema_id": "Elevation0-9000","hist_area_km2": {"100": 130.4603,"125": 75.1412,"150": 47.3751,"175": 51.6135,"200": 45.622,"225": 31.299,"250": 28.4218,"275": 21.5924,"300": 18.1688,"325": 12.659,"350": 10.802,"375": 5.9322,"400": 4.7867,"425": 4.7586,"450": 2.4665}}}