{"type":"Feature","properties":{"GID_2":"HUN.13.1_1","GID_0":"HUN","country":"Hungary","GID_1":"HUN.13_1","province":"Nógrád","NL_NAME_1":"NA","county":"Balassagyarmat","VARNAME_2":"Balassagyarmati","NL_NAME_2":"NA","TYPE_2":"Kistérség","ENGTYPE_2":"Subregion","CC_2":"NA","HASC_2":"NA","name":"Balassagyarmat.county"},
"geometry":{"type": "MultiPolygon","coordinates": [[[[19.554,47.9647,430.001],[19.4983,47.9891,412.0782],[19.4751,47.9943,338.2827],[19.4541,47.9954,269.9051],[19.4465,48.0029,343.0573],[19.4465,48.0081,263.7881],[19.458,48.0263,213.9288],[19.4592,48.0384,259.5328],[19.4668,48.0496,244.158],[19.4668,48.0541,229.9379],[19.4639,48.0617,210.904],[19.4745,48.0682,174.8537],[19.4857,48.09,147.5661],[19.4689,48.0902,147.7342],[19.4686,48.0879,148.0007],[19.4613,48.0887,149.3327],[19.4567,48.0912,149.7035],[19.454,48.0948,148.662],[19.4557,48.0999,147.8123],[19.4623,48.1024,155.8229],[19.4611,48.105,169.4303],[19.438,48.1025,146.6296],[19.4285,48.0933,145.9881],[19.4207,48.0906,146.5734],[19.4094,48.0905,151.2485],[19.4034,48.0866,147.6641],[19.3935,48.0882,145.0777],[19.3874,48.0929,158.1187],[19.3754,48.0925,160.8976],[19.372,48.0891,145.1157],[19.3577,48.093,141.8551],[19.3442,48.0934,147.0343],[19.3208,48.0883,140.928],[19.3096,48.0898,141.3133],[19.2984,48.0893,141.144],[19.2934,48.0842,141.2274],[19.2828,48.0809,140.7036],[19.2775,48.0747,139.4897],[19.27,48.0752,140.0736],[19.2663,48.0787,138.8595],[19.2618,48.0788,140.741],[19.2613,48.0735,140.0968],[19.2494,48.0694,139.06],[19.2484,48.0644,138.5449],[19.2444,48.0578,137.84],[19.2354,48.0571,136.7249],[19.2268,48.0593,137.0997],[19.2253,48.0634,136.1912],[19.2165,48.0651,135.7347],[19.2058,48.0658,135.1514],[19.1985,48.0633,135.8133],[19.1872,48.0625,134.4662],[19.1536,48.0698,133.2426],[19.1343,48.0763,139.6152],[19.1248,48.0735,132.5546],[19.1198,48.0689,131.8047],[19.1131,48.0685,131.1294],[19.0992,48.0701,130.2583],[19.089,48.0744,129.9398],[19.0818,48.0727,135.9072],[19.0764,48.0667,129.9615],[19.0651,48.0647,133.7078],[19.0579,48.0608,133.8078],[19.0469,48.0672,128.4019],[19.0359,48.0682,128.2584],[19.0208,48.0773,126.6861],[19.0125,48.0779,157.3174],[19.0107,48.074,128.5513],[19.0055,48.0709,126.2511],[18.9948,48.0699,129.549],[18.9876,48.0584,128.407],[18.9677,48.057,137.4696],[18.9395,48.06,147.9234],[18.9291,48.0588,146.9431],[18.926,48.0569,148.5828],[18.9281,48.0451,201.0322],[18.9333,48.0369,283.6221],[18.9367,48.0347,299.8479],[18.9571,48.0285,313.1021],[18.9764,48.0266,418.1047],[18.9865,48.0231,466.1882],[18.9898,48.0178,496.1638],[18.9967,48.0148,392.691],[19.0181,48.0107,320.5284],[19.0252,48.0114,350.86],[19.0571,48.0241,201.8124],[19.0656,48.0333,207.3579],[19.0695,48.0351,180.0939],[19.0898,48.035,180.4278],[19.1012,48.0318,176.3256],[19.106,48.0278,172.99],[19.1065,48.0146,214.1308],[19.1111,48.01,192.534],[19.1205,48.0051,173.7297],[19.1601,47.993899999999996,185.0346],[19.1653,47.9896,180.2621],[19.1732,47.9725,202.6276],[19.1827,47.9668,199.6255],[19.2026,47.9605,188.203],[19.2144,47.9602,180.2545],[19.2327,47.9652,149.6703],[19.2634,47.9656,235.7411],[19.2784,47.9759,220.1032],[19.2881,47.9787,275.239],[19.2948,47.9772,252.2315],[19.3039,47.9706,261.9677],[19.3056,47.9634,263.2743],[19.3114,47.9535,269.6334],[19.3374,47.9448,275.4363],[19.3489,47.931399999999996,295.2568],[19.3442,47.9233,285.543],[19.339,47.9197,299.9183],[19.3332,47.9187,286.0891],[19.3234,47.9208,291.6488],[19.3185,47.9193,269.3753],[19.3144,47.9131,229.0149],[19.3157,47.8981,250.584],[19.323,47.8904,235.0414],[19.3439,47.8799,236.0182],[19.3474,47.8657,237.2483],[19.3643,47.864,238.9947],[19.3752,47.8575,216.6437],[19.3762,47.8544,201.9153],[19.374,47.8482,243.2307],[19.3859,47.838,215.0168],[19.3857,47.8347,213.2078],[19.3822,47.8288,205.22],[19.3821,47.8224,219.2006],[19.3982,47.8221,193.4221],[19.4102,47.8174,266.7751],[19.4357,47.8178,226.054],[19.4347,47.8408,240.2805],[19.4362,47.8457,242.4445],[19.4485,47.8506,290.1373],[19.467,47.8516,318.1389],[19.4701,47.854,304.202],[19.4782,47.8796,348.6238],[19.473,47.8906,295.7969],[19.4615,47.902,313.0152],[19.4618,47.9052,331.8785],[19.4674,47.9077,314.3449],[19.4987,47.9088,435.0442],[19.5051,47.9217,387.0816],[19.52,47.9416,377.3228],[19.5263,47.9531,406.6091],[19.5424,47.9612,369.8557],[19.554,47.9647,430.001]]]]}}