{"type": "Feature","id": "4923","bbox": [21.61986,47.8335,21.89809,48.03679],"geometry": {"type": "Polygon","coordinates": [[[21.85003,47.99032,108.8491],[21.79691,47.99285,104.6889],[21.79691,48.0232,107.2994],[21.76814,48.03679,100.1814],[21.7302,48.01909,104.1306],[21.7125,48.03174,98.5916],[21.66191,48.02921,103.6914],[21.6442,48.00644,105.6422],[21.63504,47.98526,105.2997],[21.62745,47.93467,133.0591],[21.61986,47.87397,117.3697],[21.68056,47.86132,118.9264],[21.74886,47.84868,127.6394],[21.78174,47.8335,127.2026],[21.83738,47.84109,127.584],[21.86015,47.87397,120.9417],[21.86268,47.90938,139.617],[21.89556,47.91444,131.0278],[21.89809,47.95238,117.5523],[21.89556,47.98779,107.6401],[21.87532,48.00297,106.0633],[21.85003,47.99032,108.8491]]]}
,"properties": {"ISO3166-1-Alpha-3": "HUN","country": "Hungary","fill": "#F0F","name": "Nyíregyháza","area_km2": 341.7407,"hist_schema_id": "Elevation0-9000","hist_area_km2": {"100": 141.7529,"125": 199.4619,"150": 0.5258}}}