{"type": "Feature","bbox": [21.5095,47.8338,21.9141,48.0862],"geometry": {"type": "MultiPolygon","coordinates": [[[[21.5523,47.8338,120.1025],[21.5658,47.8389,115.9426],[21.5771,47.8459,115.3777],[21.5951,47.8497,117.3261],[21.6094,47.8496,120.8725],[21.6158,47.8432,118.0182],[21.6195,47.842,120.6182],[21.6222,47.8433,120.9767],[21.6287,47.853,118.854],[21.6563,47.8539,114.0],[21.6577,47.8566,114.0],[21.6511,47.8692,120.288],[21.6528,47.8713,118.5699],[21.6595,47.8736,125.0554],[21.68,47.8671,119.7751],[21.6825,47.8643,117.011],[21.6838,47.8551,117.8081],[21.6947,47.8517,117.5715],[21.7106,47.8542,119.3803],[21.7256,47.8594,118.7612],[21.7408,47.8599,124.8573],[21.7569,47.8562,123.5457],[21.7672,47.8459,127.6767],[21.7826,47.8457,126.5112],[21.7877,47.8486,126.5626],[21.7955,47.8597,122.4529],[21.7968,47.8677,123.0505],[21.7945,47.8714,124.961],[21.7811,47.8764,123.2869],[21.7713,47.8837,124.3961],[21.7703,47.8935,123.2365],[21.7752,47.8988,118.8463],[21.7796,47.8996,120.6648],[21.7894,47.8958,120.9393],[21.8023,47.8979,123.0979],[21.8153,47.8958,117.4898],[21.8173,47.8976,116.1077],[21.8183,47.9034,114.2938],[21.8232,47.909,121.0858],[21.8225,47.9147,125.4116],[21.8294,47.9176,123.3321],[21.8329,47.9172,118.7232],[21.8497,47.9065,127.9817],[21.8659,47.9007,128.3025],[21.8893,47.9033,126.0837],[21.9021,47.9065,132.4077],[21.9054,47.9108,129.4201],[21.9141,47.9147,126.2765],[21.9006,47.9204,129.7054],[21.8987,47.9227,120.9225],[21.8959,47.9665,112.1904],[21.8763,47.9817,109.4526],[21.8945,47.996,106.2401],[21.8941,47.9993,105.5582],[21.8869,48.0086,104.665],[21.8847,48.0221,116.3548],[21.8764,48.0331,109.2578],[21.8639,48.0338,107.7806],[21.8571,48.0276,102.9856],[21.8519,48.0264,105.6928],[21.8425,48.0295,102.707],[21.8361,48.0369,102.773],[21.8308,48.038,100.4069],[21.8204,48.0366,108.5973],[21.8104,48.0381,102.047],[21.7809,48.0382,101.4865],[21.7784,48.0364,104.4418],[21.777,48.0293,105.8877],[21.7733,48.0259,105.2011],[21.7679,48.0239,104.3702],[21.7619,48.0243,101.8338],[21.7578,48.027,101.7031],[21.7533,48.0336,103.5829],[21.7522,48.0499,103.0011],[21.7507,48.0534,99.2424],[21.7219,48.0647,95.3165],[21.7185,48.0684,95.1943],[21.7161,48.0795,95.9501],[21.7058,48.0862,96.1894],[21.7021,48.0851,95.0968],[21.6971,48.0797,95.3482],[21.6843,48.076,96.5644],[21.6563,48.0742,97.3246],[21.643,48.0639,99.4871],[21.6396,48.0629,112.0283],[21.6115,48.0624,100.9676],[21.5946,48.0649,109.3039],[21.5901,48.0636,115.788],[21.5793,48.056399999999996,108.8333],[21.5717,48.0541,104.5276],[21.5672,48.056,105.5731],[21.5622,48.0622,105.9553],[21.5562,48.0657,107.5749],[21.551,48.0568,108.0519],[21.5443,48.0526,116.4274],[21.5435,48.0433,107.2067],[21.5401,48.0363,106.3464],[21.5391,48.0233,100.4008],[21.5186,48.0072,96.5607],[21.5095,47.9926,99.698],[21.5111,47.9897,99.3497],[21.5219,47.9857,103.2795],[21.5237,47.9825,103.4104],[21.5232,47.9782,105.076],[21.5166,47.9697,105.409],[21.5192,47.9443,106.143],[21.546,47.9402,110.4759],[21.5546,47.9371,115.531],[21.558,47.9333,112.3227],[21.5548,47.923,114.8801],[21.5544,47.9082,113.0594],[21.5511,47.8992,114.3077],[21.5526,47.8958,109.5409],[21.5616,47.8878,113.0847],[21.5626,47.8791,113.2309],[21.554,47.856,116.0463],[21.5523,47.8338,120.1025]]]]}
,"properties": {"GID_2": "HUN.16.9_1","GID_0": "HUN","country": "Hungary","GID_1": "HUN.16_1","province": "Szabolcs-Szatmár-Bereg","NL_NAME_1": "NA","county": "Nyíregyháza","VARNAME_2": "Nyíregyházai","NL_NAME_2": "NA","TYPE_2": "Kistérség","ENGTYPE_2": "Subregion","CC_2": "NA","HASC_2": "NA","name": "Nyíregyháza.county","area_km2": 539.7677,"hist_schema_id": "Elevation0-9000","hist_area_km2": {"100": 312.0964,"125": 227.1312,"150": 0.54}}}