{"type": "Feature","bbox": [20.2286,47.7463,20.5144,48.0424],"geometry": {"type": "MultiPolygon","coordinates": [[[[20.4876,48.0297,503.8048],[20.479,48.0361,487.567],[20.4752,48.0424,566.9156],[20.4521,48.0409,652.8354],[20.4186,48.0285,546.0997],[20.3827,48.0284,582.9222],[20.3795,48.0264,656.2313],[20.3717,48.0153,482.5538],[20.3795,47.9979,407.4014],[20.3793,47.9885,468.9247],[20.3753,47.9837,518.8769],[20.3713,47.9834,475.5758],[20.3533,47.9893,329.8385],[20.3331,47.9931,337.8066],[20.3238,47.988,403.5353],[20.318,47.9811,349.2477],[20.3133,47.9689,358.4179],[20.3128,47.9578,264.8913],[20.3112,47.9548,260.4011],[20.2963,47.9525,330.4116],[20.2561,47.956,266.5513],[20.2503,47.9504,258.0142],[20.2448,47.9383,308.7761],[20.2448,47.928,262.0719],[20.2481,47.9211,279.2593],[20.2478,47.9177,251.8317],[20.2443,47.9146,244.4086],[20.2336,47.9108,232.6261],[20.2286,47.907,187.5178],[20.2381,47.9027,243.6726],[20.242,47.8977,246.5513],[20.2536,47.8729,216.2533],[20.2554,47.864,213.2558],[20.2814,47.8272,152.415],[20.2829,47.8125,160.3303],[20.2916,47.7998,141.2154],[20.3048,47.7888,156.4189],[20.3039,47.7865,154.0859],[20.2947,47.7806,145.9859],[20.2859,47.7694,129.8495],[20.2894,47.7629,125.5116],[20.3039,47.7492,122.1155],[20.3291,47.7463,123.3812],[20.3368,47.7472,123.1118],[20.363,47.7727,119.5898],[20.3662,47.7743,119.7244],[20.3951,47.7603,116.6331],[20.4272,47.759,113.1927],[20.4422,47.7616,113.9546],[20.4452,47.7645,114.3091],[20.446,47.7772,115.975],[20.4508,47.7862,120.0711],[20.4575,47.794,131.3763],[20.4907,47.8069,132.3061],[20.4997,47.8082,124.013],[20.5016,47.8262,133.1525],[20.5054,47.8356,158.7738],[20.5005,47.8452,172.8119],[20.4919,47.8563,181.0303],[20.4788,47.8614,178.4824],[20.4491,47.8666,225.2447],[20.4428,47.8705,195.7632],[20.436,47.8785,230.0083],[20.4376,47.885,236.75],[20.4455,47.8898,203.8981],[20.4535,47.8973,236.9624],[20.49,47.8987,198.4947],[20.4927,47.9005,222.441],[20.4947,47.9087,245.7527],[20.5123,47.9129,253.3595],[20.5144,47.9147,238.53],[20.5117,47.92,194.2857],[20.5111,47.9293,229.7548],[20.5097,47.9316,225.3555],[20.485,47.9353,272.8293],[20.4664,47.9407,323.0504],[20.4561,47.9468,403.7391],[20.4479,47.9551,443.1906],[20.4543,47.9659,486.7254],[20.4559,47.981,381.0178],[20.4599,47.9838,387.577],[20.473,47.9884,439.6289],[20.4766,47.9915,378.1524],[20.4778,48.006,476.5349],[20.4856,48.0173,549.4559],[20.4876,48.0297,503.8048]]]]}
,"properties": {"GID_2": "HUN.10.2_1","GID_0": "HUN","country": "Hungary","GID_1": "HUN.10_1","province": "Heves","NL_NAME_1": "NA","county": "Eger","VARNAME_2": "Egri","NL_NAME_2": "NA","TYPE_2": "Kistérség","ENGTYPE_2": "Subregion","CC_2": "NA","HASC_2": "NA","name": "Eger.county","area_km2": 419.7716,"hist_schema_id": "Elevation0-9000","hist_area_km2": {"100": 0.0428,"125": 56.9972,"150": 57.3919,"175": 56.2702,"200": 57.4892,"225": 52.7352,"250": 40.0276,"275": 21.4454,"300": 13.4744,"325": 9.5826,"350": 6.7844,"375": 5.662,"400": 6.428,"425": 7.1223,"450": 6.2426,"475": 6.3277,"500": 6.058,"525": 3.9444,"550": 2.5682,"575": 1.4752,"600": 0.8653,"625": 0.61,"650": 0.2128,"675": 0.0142}}}