{"type":"Feature","properties":{"ISO3166-1-Alpha-3":"HUN","country":"Hungary","fill":"#FF0","id":"4920","name":"Eger"},
"geometry":{"type": "Polygon","coordinates": [[[20.42204,47.96911,262.14],[20.39468,47.99173,421.5265],[20.39468,48.0202,585.7169],[20.38519,48.03919,680.2069],[20.33773,48.04552,309.1305],[20.32191,48.01071,321.4215],[20.2966,48.00122,385.0734],[20.30293,47.96958,328.8801],[20.31558,47.93161,242.2656],[20.30293,47.89048,182.299],[20.30293,47.84935,221.0667],[20.32507,47.81139,161.5141],[20.36937,47.81139,149.0079],[20.39152,47.83037,155.8866],[20.39152,47.85884,156.8111],[20.41366,47.87466,226.1428],[20.4484,47.88064,187.1251],[20.45821,47.88997,227.0143],[20.46504,47.89925,221.0353],[20.4609,47.91883,272.0544],[20.44747,47.93434,324.8846],[20.42886,47.9486,385.5848],[20.42204,47.96911,262.14]]]}}