{"type":"Feature","properties":{"GID_2":"HUN.2.1_1","GID_0":"HUN","country":"Hungary","GID_1":"HUN.2_1","province":"Baranya","NL_NAME_1":"NA","county":"Komlói","VARNAME_2":"NA","NL_NAME_2":"NA","TYPE_2":"Kistérség","ENGTYPE_2":"Subregion","CC_2":"NA","HASC_2":"NA","name":"Komlói.county"},
"geometry":{"type": "MultiPolygon","coordinates": [[[[18.3511,46.1209,231.2433],[18.3624,46.1226,176.6278],[18.373,46.1301,209.6418],[18.3883,46.1333,235.4051],[18.3913,46.1358,234.1584],[18.3912,46.14,232.8314],[18.3876,46.1477,253.1386],[18.3874,46.165,340.6643],[18.3839,46.172,448.4463],[18.3836,46.1779,606.6038],[18.3877,46.1871,443.5344],[18.3888,46.2009,486.1788],[18.3958,46.2107,506.8103],[18.398,46.2173,381.4522],[18.388,46.2161,437.6246],[18.379,46.2171,543.187],[18.375,46.2192,488.6773],[18.3706,46.2256,445.212],[18.3763,46.233,456.946],[18.3949,46.2385,393.5344],[18.4049,46.2465,335.4745],[18.4078,46.2519,298.6309],[18.4074,46.2633,248.7637],[18.4163,46.2723,148.1378],[18.4179,46.2758,146.4375],[18.4172,46.2835,159.9129],[18.4133,46.2873,166.1366],[18.3846,46.2881,172.0598],[18.378,46.2917,174.4775],[18.3712,46.3002,153.359],[18.3703,46.3102,184.847],[18.3764,46.3211,204.4317],[18.3771,46.3317,217.1533],[18.3838,46.341,235.385],[18.3824,46.3496,197.928],[18.373,46.3554,203.2963],[18.3476,46.363,219.2824],[18.3403,46.3592,207.586],[18.3354,46.3591,231.851],[18.3228,46.366,233.9797],[18.3147,46.3685,226.3088],[18.3102,46.3732,235.6152],[18.3031,46.3723,217.4151],[18.2968,46.3628,208.4952],[18.2926,46.3528,184.773],[18.2933,46.3364,161.8401],[18.3004,46.3261,178.013],[18.3162,46.3176,172.1473],[18.3176,46.3116,213.9709],[18.3127,46.3092,208.0345],[18.3019,46.3118,180.3994],[18.291,46.3114,217.1209],[18.2833,46.3078,239.0502],[18.2667,46.3134,208.8914],[18.2607,46.3132,209.4655],[18.2573,46.3111,200.5786],[18.2561,46.3001,187.1886],[18.2491,46.2918,156.0792],[18.2488,46.2812,250.262],[18.2464,46.2749,198.6334],[18.2534,46.2715,252.057],[18.2603,46.2648,277.7566],[18.2668,46.2611,288.5303],[18.271,46.2549,241.7103],[18.2686,46.2527,283.8599],[18.2615,46.2511,283.7921],[18.258,46.2441,205.4058],[18.2405,46.2414,228.7875],[18.2274,46.2437,199.0326],[18.2201,46.2429,185.9186],[18.2103,46.2465,203.1998],[18.2061,46.2529,223.2174],[18.1977,46.2587,248.3229],[18.1744,46.2601,200.9799],[18.1696,46.2572,190.3936],[18.1641,46.2433,203.3068],[18.1583,46.2349,209.2015],[18.158,46.2324,205.0502],[18.1608,46.2272,174.0905],[18.1584,46.224,204.7703],[18.1233,46.2191,134.4557],[18.112,46.2236,130.6343],[18.1033,46.2238,134.7978],[18.0989,46.2215,147.2794],[18.0926,46.2137,195.4184],[18.0814,46.2153,179.5214],[18.0776,46.2128,151.7164],[18.0778,46.2101,178.3248],[18.0812,46.2071,165.316],[18.0877,46.2051,157.5634],[18.0962,46.1987,237.7403],[18.1237,46.1938,139.7074],[18.157,46.1786,235.1426],[18.1639,46.1737,241.4908],[18.1794,46.1723,317.2171],[18.1842,46.1704,342.0875],[18.1896,46.1648,317.9997],[18.1903,46.1442,366.7582],[18.1927,46.1406,398.7208],[18.1993,46.1405,345.5514],[18.2102,46.1449,313.9441],[18.228,46.1394,380.6216],[18.2462,46.1391,435.5673],[18.2797,46.144,396.5614],[18.2881,46.1511,371.4338],[18.2994,46.1566,344.0446],[18.3237,46.1592,333.4976],[18.3267,46.1579,322.0292],[18.3438,46.139,258.4804],[18.3483,46.1324,234.8693],[18.3511,46.1209,231.2433]]]]}}