{"type": "Feature","bbox": [20.9574,46.4035,21.4573,46.7143],"geometry": {"type": "MultiPolygon","coordinates": [[[[20.97,46.5599,93.296],[20.9719,46.5492,93.5957],[20.9773,46.5368,101.9812],[21.0019,46.535,95.4756],[21.0287,46.5285,94.1932],[21.0629,46.5271,94.8162],[21.066,46.5285,96.1328],[21.0674,46.5334,94.0483],[21.0698,46.5351,95.9063],[21.0855,46.5323,95.3611],[21.1019,46.5398,94.1155],[21.1244,46.5384,91.1354],[21.1331,46.5262,94.6335],[21.1342,46.5079,94.375],[21.1521,46.495,94.3582],[21.1546,46.4835,96.2309],[21.1593,46.4816,96.8233],[21.1764,46.481,96.684],[21.1808,46.4788,96.1236],[21.179,46.4694,97.6345],[21.1823,46.4611,98.2951],[21.1833,46.449,96.9622],[21.1982,46.4388,97.1942],[21.2052,46.4209,114.2084],[21.2156,46.4086,100.6899],[21.2195,46.4133,101.0055],[21.2208,46.4115,101.0276],[21.227,46.4139,98.4244],[21.2412,46.4107,100.1112],[21.277,46.407,101.0344],[21.2849,46.4035,101.0974],[21.2979,46.407,103.7235],[21.2911,46.4139,101.4919],[21.2914,46.4155,101.36],[21.2951,46.4178,100.6364],[21.2986,46.4246,101.2772],[21.3132,46.4404,100.1194],[21.3149,46.4498,99.5029],[21.3191,46.451,98.3834],[21.2979,46.4764,96.4639],[21.2759,46.4768,98.2044],[21.2744,46.4837,96.1099],[21.262,46.5023,95.335],[21.2777,46.5353,93.6888],[21.2758,46.5411,92.9309],[21.282,46.5453,92.4761],[21.2913,46.5446,91.8988],[21.2952,46.5526,90.9683],[21.2991,46.5537,91.6844],[21.3066,46.5609,90.6271],[21.3051,46.5646,90.4647],[21.3223,46.5831,89.6035],[21.3177,46.5859,89.8458],[21.3157,46.5844,89.4561],[21.31,46.5878,90.3598],[21.3086,46.5867,90.6718],[21.3028,46.5911,89.3639],[21.3085,46.5993,89.7434],[21.3085,46.6021,88.7463],[21.3157,46.6179,87.7546],[21.3315,46.6319,89.8476],[21.3364,46.6293,89.3879],[21.3494,46.6317,88.9927],[21.3547,46.6306,88.8179],[21.3672,46.6382,93.2697],[21.38,46.6335,88.1991],[21.3832,46.6286,89.119],[21.4116,46.6222,90.3624],[21.418,46.6428,89.4489],[21.4233,46.6468,88.9202],[21.4341,46.6484,88.3042],[21.4432,46.6518,87.9912],[21.4563,46.661,88.8263],[21.4573,46.6674,90.4333],[21.4445,46.6667,90.4609],[21.4397,46.6706,89.0376],[21.4318,46.6803,89.1146],[21.4333,46.6824,88.672],[21.4293,46.6894,89.6059],[21.4317,46.6942,90.2958],[21.4226,46.6915,103.5171],[21.4235,46.6893,98.1757],[21.4147,46.688,101.9419],[21.4104,46.6941,89.4534],[21.4027,46.6997,105.3043],[21.3823,46.7106,93.6081],[21.3711,46.7143,88.6628],[21.3573,46.7122,114.1262],[21.3362,46.7118,87.7161],[21.3239,46.7025,89.7979],[21.3148,46.7064,111.0321],[21.3095,46.7068,101.0006],[21.307,46.7051,91.8981],[21.3054,46.6993,86.3467],[21.2986,46.6963,86.0849],[21.2947,46.6975,85.767],[21.2929,46.7036,87.0878],[21.2864,46.7051,89.6383],[21.2471,46.6977,86.1244],[21.2306,46.6974,86.1111],[21.2254,46.6935,85.2226],[21.2196,46.6846,84.6888],[21.2195,46.677,84.7016],[21.2231,46.6695,93.7065],[21.2211,46.6661,86.5223],[21.1953,46.6641,85.5156],[21.1855,46.672,88.0037],[21.1707,46.6728,89.4198],[21.1657,46.67,85.7079],[21.1513,46.6498,86.0956],[21.1462,46.645,86.0294],[21.1359,46.6448,85.7048],[21.1217,46.6478,76.0386],[21.116,46.643,85.3016],[21.1027,46.6424,85.7549],[21.0777,46.633,86.6693],[21.0541,46.6296,89.1606],[21.0523,46.6274,89.1444],[21.0518,46.6182,89.5383],[21.049,46.6158,90.1053],[21.0033,46.6169,90.9345],[20.9812,46.6066,91.799],[20.9574,46.5905,91.3756],[20.9587,46.5877,91.8061],[20.9724,46.5825,93.054],[20.9757,46.5793,93.1822],[20.9756,46.5673,93.4401],[20.97,46.5599,93.296]]]]}
,"properties": {"GID_2": "HUN.3.3_1","GID_0": "HUN","country": "Hungary","GID_1": "HUN.3_1","province": "Békés","NL_NAME_1": "NA","county": "Gyulai","VARNAME_2": "NA","NL_NAME_2": "NA","TYPE_2": "Kistérség","ENGTYPE_2": "Subregion","CC_2": "NA","HASC_2": "NA","name": "Gyulai.county","area_km2": 550.2571,"hist_schema_id": "Elevation0-9000","hist_area_km2": {"75": 122.4804,"100": 427.4997,"125": 0.277}}}