{"type":"Feature","properties":{"GID_2":"HUN.16.10_1","GID_0":"HUN","country":"Hungary","GID_1":"HUN.16_1","province":"Szabolcs-Szatmár-Bereg","NL_NAME_1":"NA","county":"Tiszavasvár","VARNAME_2":"Tiszavasvári","NL_NAME_2":"NA","TYPE_2":"Kistérség","ENGTYPE_2":"Subregion","CC_2":"NA","HASC_2":"NA","name":"Tiszavasvár.county"},
"geometry":{"type": "MultiPolygon","coordinates": [[[[21.4423,48.1628,97.5014],[21.4283,48.1438,94.8719],[21.4255,48.1233,100.0214],[21.4172,48.1122,94.4184],[21.422,48.105,95.6644],[21.4387,48.0928,96.2452],[21.4402,48.0818,95.5917],[21.446,48.0756,98.3199],[21.4467,48.0728,102.2418],[21.4448,48.07,100.8519],[21.4342,48.0643,98.0981],[21.4308,48.0485,94.9767],[21.4078,48.0337,103.0776],[21.3828,48.0332,102.475],[21.3757,48.0288,95.6685],[21.3658,48.031,95.3793],[21.3518,48.0313,108.2957],[21.3379,48.0249,98.5752],[21.3324,48.0244,94.6657],[21.2974,48.0359,104.879],[21.2837,48.0376,95.8038],[21.2729,48.0408,96.508],[21.2685,48.0495,110.8692],[21.2687,48.0574,117.6964],[21.2422,48.0529,101.3357],[21.2324,48.0484,95.6563],[21.2289,48.044,93.6465],[21.2341,48.0349,100.3524],[21.234,48.0326,98.7491],[21.2226,48.0292,107.6722],[21.2069,48.0303,97.1201],[21.1916,48.0367,91.6944],[21.1794,48.0384,117.792],[21.1735,48.0431,92.2948],[21.1708,48.0484,91.9119],[21.1671,48.0499,92.1155],[21.1303,48.0474,91.4267],[21.1231,48.0444,91.7132],[21.1063,48.025,92.4025],[21.0982,48.0198,91.622],[21.0834,48.0013,92.3667],[21.0835,47.9965,92.376],[21.0883,47.9891,91.7116],[21.107,47.9742,91.1986],[21.1153,47.9587,92.5366],[21.1296,47.9591,98.1837],[21.1561,47.9662,89.8809],[21.1826,47.9661,90.6231],[21.1992,47.9603,97.1323],[21.2188,47.9499,98.231],[21.2285,47.9428,100.7222],[21.2353,47.935,100.2381],[21.2487,47.9291,93.4214],[21.2559,47.921,91.0707],[21.2692,47.9178,91.6949],[21.2808,47.9117,91.7479],[21.2935,47.9135,91.9439],[21.3088,47.9198,92.3812],[21.3295,47.9239,97.6354],[21.3888,47.9219,93.7785],[21.4235,47.9302,98.0483],[21.4395,47.9304,98.3121],[21.4523,47.928,102.1648],[21.4676,47.928,100.8027],[21.494,47.9322,101.1731],[21.5075,47.9367,103.723],[21.5192,47.9443,106.143],[21.5166,47.9697,105.409],[21.5238,47.9804,105.0056],[21.5226,47.9852,104.7294],[21.5111,47.9897,99.3497],[21.5096,47.9938,99.8554],[21.5186,48.0072,96.5607],[21.5391,48.0233,100.4008],[21.5401,48.0363,106.3464],[21.5435,48.0433,107.2067],[21.5443,48.0526,116.4274],[21.551,48.0568,108.0519],[21.5635,48.0788,105.3463],[21.5635,48.0814,104.401],[21.5537,48.0929,108.7898],[21.5516,48.1042,109.4488],[21.5378,48.11,108.9367],[21.5374,48.113,104.9935],[21.5406,48.1182,105.2515],[21.5406,48.1222,107.5252],[21.5303,48.1284,108.3513],[21.5286,48.1361,107.2036],[21.5223,48.1453,105.698],[21.5224,48.1493,104.0831],[21.5293,48.1659,108.8892],[21.5301,48.1711,107.6014],[21.5292,48.1762,100.7447],[21.5224,48.1855,97.8415],[21.5153,48.1782,100.2301],[21.5096,48.1749,96.6548],[21.4917,48.1755,98.4885],[21.4741,48.1682,100.7377],[21.4423,48.1628,97.5014]]]]}}