{"type":"Feature","properties":{"featurecla":"Plain","name":"Alföld","namealt":null,"region":"Europe","subregion":null,"min_label":5.4,"max_label":10.0,"scalerank":5},
"geometry":{"type": "Polygon","coordinates": [[[20.354453844437955,44.778561100229069,72.1715],[20.361094597271347,44.785345770306549,70.9828],[20.37647545664629,44.79370758671277,75.9229],[20.39002526133379,44.795843817181662,75.7802],[20.417124870708818,44.805243231244106,74.7708],[20.43104088633379,44.807379461712912,80.1384],[20.44105065195879,44.811590887494162,74.3827],[20.446787956646233,44.832770086712742,68.661],[20.447764519146233,44.834295965618992,68.0],[20.447886589458847,44.838202215619077,68.0],[20.443858269146347,44.843695379681549,72.6082],[20.431651237896347,44.849859930462856,70.6247],[20.425547722271347,44.852118231244077,71.5276],[20.45496666758379,44.841498114056634,71.4301],[20.514048698833847,44.838019110150327,70.7006],[20.545786980083733,44.84100983280652,69.4017],[20.58008873789629,44.858587957806549,71.113],[20.594737175396347,44.859198309369106,72.2465],[20.623545769146347,44.855780340619106,70.1838],[20.636241081646261,44.850653387494134,71.7139],[20.638438347271176,44.838568426556662,68.0],[20.627940300396347,44.789740301556662,68.0],[20.627696159771318,44.778265692181549,68.0],[20.63013313676467,44.773012652884745,69.4869],[20.700327995708761,44.756048895306634,69.1617],[20.756114128521261,44.746283270306606,75.9724],[20.824961784771261,44.745245672650356,74.8165],[20.92054283945879,44.755072332806606,66.7452],[21.00904381602129,44.774847723431549,84.3295],[21.08973229258379,44.808172918744077,80.817],[21.16126549570879,44.8587710632753,133.9385],[21.196665886333733,44.895697332806577,154.8129],[21.229502800396261,44.934759832806634,169.9462],[21.26453698008379,44.972113348431606,92.3368],[21.306162956646233,45.0039126648378,94.3227],[21.385874870708733,45.049994207806549,157.4935],[21.463145378521261,45.100409246869106,245.6339],[21.527964714458733,45.162665106244106,172.699],[21.570323112896233,45.244452215619077,165.4127],[21.58380485033112,45.320876814702928,216.6804],[21.579234245708761,45.376044012494049,184.1044],[21.58545983164629,45.710577703900384,99.4724],[21.63514244883379,46.044378973431549,203.6394],[21.752207878521261,46.399725653119049,106.0113],[21.995738151958705,46.992621160931549,181.5622],[22.12952721445879,47.205389715619049,140.9191],[22.354624870708733,47.406073309369077,199.6878],[22.637461784771205,47.5731265320253,122.7848],[23.185069206646233,47.767767645306549,140.983],[23.31275475352129,47.867499090619134,189.8708],[23.35889733164629,47.991278387494106,634.4934],[23.35450280039629,48.146307684369077,175.2985],[23.251109245708761,48.324591375775356,366.825],[23.00843346445879,48.495672918744106,512.255],[22.669444206646233,48.633063055462827,645.9933],[22.27772057383379,48.710394598431577,238.7986],[21.96558678477129,48.708319403119077,105.0879],[21.781016472271261,48.636664129681549,102.7887],[21.45728600352129,48.351446844525327,265.5365],[21.250865105083761,48.232001043744134,191.72],[21.02430260508379,48.153876043744106,167.2319],[20.787852409771261,48.104010321087884,131.1467],[20.569588877639745,48.071949330746264,726.6992],[20.536950119943725,48.066068738248163,665.8458],[20.20044686170246,47.9927590998457,310.4525],[20.14100182383379,47.9785220398378,181.7718],[20.113924266965512,47.973909534563717,270.1946],[20.090830925396261,47.968878485150384,202.7405],[20.076972935404541,47.967615088852028,221.2667],[20.002696159771261,47.9549624695253,273.0247],[19.498667839458733,47.928656317181549,405.8003],[19.398692253521205,47.909308172650327,310.5674],[19.31141198008379,47.875067449994077,223.4525],[19.22950280039629,47.827582098431577,306.1668],[19.021128776958705,47.682257391400327,271.1748],[18.88331139414629,47.597784735150356,291.9712],[18.742320183208761,47.521918035931549,152.83],[18.296641472271233,47.315008856244106,166.7076],[18.147959831646233,47.211127020306577,194.6917],[18.026011589458761,47.085089422650356,176.8154],[17.959117058208705,46.945746160931606,103.5],[17.951060417583761,46.887823797650327,103.8639],[17.948008659771261,46.821722723431549,236.0982],[17.949595573833733,46.755438543744049,178.0759],[17.955821159771261,46.696966864056634,213.6326],[17.976817253521261,46.629339910931606,195.7654],[18.011485222271233,46.580633856244049,237.2629],[18.11561119883379,46.491766668744077,159.5072],[18.297984245708733,46.259833074994077,272.126],[18.542979362896233,45.711432196087884,86.0087],[18.709971550396233,45.469916082806577,85.1592],[18.861827019146261,45.346808172650327,86.354],[19.042124870708733,45.241827703900356,107.3465],[19.605357292583733,44.988226629681577,82.5842],[19.70460045664629,44.958563543744077,83.3666],[19.88733971445879,44.928045965619077,82.3437],[19.95789635508379,44.911810614056577,81.7142],[20.026133659771233,44.889898992962827,76.7903],[20.100596550396205,44.8609683289003,75.9173],[20.215098503521261,44.801214910931606,74.5463],[20.247202995708733,44.787909246869049,77.6463],[20.329722526958761,44.777167059369077,71.175],[20.354453844437955,44.778561100229069,72.1715]]]}}