{"type":"Feature","properties":{"id":131679.0,"name":"Middle of Poroszl basin","lge_id":null,"pfafstette":6591.0,"lke_type":"N","altitude":84,"objectid":80952,"scalerank":11,"featurecla":"Lake","note":null,"funkyname":0,"min_zoom":6.7,"min_label":7.7},
"geometry":{"type": "Polygon","coordinates": [[[20.596690300396233,47.568854071087827,86.6194],[20.596690300396233,47.568854071087827,86.6194],[20.606211784771233,47.563299871869077,86.5321],[20.634898308208733,47.570502020306577,87.0],[20.649668816021233,47.583136297650327,87.0],[20.661753776958733,47.598334051556577,87.0],[20.676646355083733,47.611395574994077,88.455],[20.688487175396233,47.624457098431577,87.0],[20.687998894146233,47.633307196087827,88.4019],[20.683604362896233,47.645758367962827,88.3491],[20.662119987896233,47.645514227337827,89.3744],[20.641978386333733,47.636969305462827,91.1645],[20.630381706646233,47.629950262494077,89.2259],[20.614024284771233,47.606207586712827,95.6544],[20.596690300396233,47.568854071087827,86.6194]]]}}