{"type":"Feature","properties":{"featurecla":"River","scalerank":2,"rivernum":25,"dissolve":"25River","name":"Danube~Hungary","name_alt":null,"note":null,"min_zoom":2.1,"strokeweig":0.35,"name_en":"Danube","min_label":3.1},
"geometry":{"type": "LineString","coordinates": [[17.206445312500023,48.06110260624412,138.2547],[17.242919921875,48.04132721561912,127.3627],[17.256494140625023,48.028094793744117,128.0],[17.26171875,48.009295965619117,128.0],[17.272216796875,48.00556061405662,128.0],[17.33740234375,47.99896881718162,127.5],[17.369042968750023,47.981463934369117,124.1421],[17.471435546875,47.88910553593162,117.3625],[17.4814453125,47.882928778119116,114.773],[17.49169921875,47.88007233280662,117.3185],[17.516845703125,47.87653229374412,117.4488],[17.526123046875,47.87238190311912,118.6687],[17.559814453125,47.838251043744116,116.4601],[17.572021484375,47.82977936405662,113.4097],[17.582421875000023,47.83002350468162,114.3985],[17.592529296875,47.83344147343162,110.3936],[17.603759765625,47.834491278119117,113.1586],[17.618554687500023,47.82953522343162,114.2119],[17.639404296875,47.819452215619116,111.7714],[17.657861328125023,47.80756256718162,111.3459],[17.665771484375,47.79730866093162,112.2636],[17.676025390625,47.789422918744116,112.742],[17.741455078125,47.765643621869117,116.0572],[17.8251953125,47.750262762494117,110.6356],[18.112207031250023,47.762713934369117,116.1575],[18.2353515625,47.754169012494117,109.1524],[18.2724609375,47.756463934369116,108.2676],[18.347314453125023,47.776971746869116,115.677],[18.552001953125,47.79315827030662,109.7533],[18.596923828125,47.790887762494116,114.1183],[18.63330078125,47.78009674686912,116.2413],[18.6630859375,47.77619049686912,111.0069],[18.6923828125,47.778192449994116,120.1365],[18.716699218750023,47.788348699994117,112.3456],[18.749755859375,47.813836981244116,102.0],[18.76708984375,47.82257721561912,130.3513],[18.789794921875,47.82660553593162,175.1541],[18.882226562500023,47.825946356244117,135.3711],[18.898095703125023,47.82379791874412,165.9799],[18.9111328125,47.819598699994117,194.7328],[18.915283203125,47.81586334843162,136.8136],[18.922753906250023,47.80597565311912,170.8636],[18.927880859375023,47.80280182499412,221.339],[18.948486328125,47.803094793744116,275.4948],[19.013818359375023,47.828973699994116,113.3848],[19.0390625,47.830438543744116,120.5664],[19.063232421875,47.82648346561912,166.0687],[19.0859375,47.81720612186912,143.0765],[19.106835937500023,47.802850653119116,118.6449],[19.123046875,47.77545807499412,99.5],[19.128320312500023,47.73639557499412,109.6473],[19.1240234375,47.69342682499412,99.0],[19.111962890625023,47.65412018436912,107.5301],[19.054443359375,47.540399481244116,98.0],[19.050537109375,47.50617096561912,129.0752],[19.0537109375,47.496698309369116,113.3434],[19.062255859375,47.48541901249412,119.3914],[19.064208984375,47.47821686405662,97.0],[19.062255859375,47.46845123905662,106.1509],[19.052734375,47.45404694218162,106.7013],[19.050537109375,47.44782135624412,99.6241],[19.046777343750023,47.425555731244117,97.0],[19.036376953125,47.41254303593162,107.8468],[19.002099609375023,47.39630768436912,103.0346],[18.974365234375,47.37946198124412,97.0],[18.952539062500023,47.35700104374412,97.0],[18.934960937500023,47.328485418744116,111.2076],[18.920166015625,47.29328034061912,97.0],[18.907617187500023,47.23749420780662,96.5],[18.886962890625,47.20819733280662,101.4609],[18.88134765625,47.18964264530662,96.0],[18.87890625,47.16901276249412,104.6804],[18.879150390625,47.14923737186912,110.304],[18.88916015625,47.11041901249412,109.3636],[18.896875,47.09027741093162,117.9223],[18.903076171875,47.08161041874412,109.518],[18.918701171875,47.07404205936912,110.511],[18.968017578125,47.033221746869117,98.761],[18.966699218750023,47.02374909061912,96.4614],[18.962060546875023,47.017206121869116,108.3537],[18.956933593750023,47.011737371869117,107.8443],[18.954345703125,47.00531647343162,107.8945],[18.955078125,46.994745184369116,93.5],[18.96044921875,46.97748444218162,93.3161],[18.966943359375023,46.93585846561912,91.0],[18.966552734375,46.91730377811912,93.2939],[18.9580078125,46.909051824994116,90.5],[18.948876953125023,46.903924871869116,96.2058],[18.93896484375,46.89179108280662,109.1192],[18.930908203125,46.877215887494117,92.9763],[18.927490234375,46.865008856244117,90.5],[18.926025390625,46.83527252811912,90.0],[18.927490234375,46.827167059369117,90.0],[18.93310546875,46.820575262494117,106.368],[18.950585937500023,46.807147528119117,103.0345],[18.954345703125,46.80353424686912,99.3533],[18.958398437500023,46.80084869999412,94.8414],[18.975341796875,46.78400299686912,93.9959],[18.978515625,46.77997467655662,93.8854],[18.984765625000023,46.775653387494117,93.8548],[18.98681640625,46.765497137494116,103.868],[18.987548828125,46.75397369999412,90.0],[18.989013671875,46.74518463749412,93.8821],[18.998925781250023,46.72321198124412,100.405],[19.001708984375,46.708514715619117,97.6213],[18.996337890625,46.69489166874412,94.8777],[18.981591796875023,46.67633698124412,94.4279],[18.952880859375,46.65619537968162,92.4254],[18.88525390625,46.63532135624412,86.5],[18.858154296875,46.614862371869116,89.7412],[18.877197265625,46.591180731244116,97.4185],[18.907617187500023,46.53180573124412,92.5564],[18.920166015625,46.49884674686912,92.0459],[18.922753906250023,46.46869537968162,85.5],[18.89892578125,46.41437409061912,91.9755],[18.892236328125023,46.378436590619117,85.0],[18.8955078125,46.362909246869116,85.0],[18.910058593750023,46.34296295780662,89.1656],[18.913330078125,46.33063385624412,90.9984],[18.914941406250023,46.19525787968162,112.7688],[18.903564453125,46.17304108280662,100.9862],[18.872314453125,46.183465887494116,95.6539],[18.8251953125,46.14154694218162,113.1448],[18.813378906250023,46.12616608280662,88.384],[18.794091796875023,46.116717840619117,86.3321],[18.789794921875,46.11151764530662,86.5735],[18.78515625,46.11225006718162,95.0518],[18.775146484375,46.10297272343162,106.5153],[18.762451171875,46.087274481244116,128.1632],[18.700341796875023,46.044794012494116,137.2635],[18.691650390625,46.01850006718162,90.5699]]}}