{"type":"Feature","properties":{"GID_2":"HUN.16.2_1","GID_0":"HUN","country":"Hungary","GID_1":"HUN.16_1","province":"Szabolcs-Szatmár-Bereg","NL_NAME_1":"NA","county":"Csenger","VARNAME_2":"Csengeri","NL_NAME_2":"NA","TYPE_2":"Kistérség","ENGTYPE_2":"Subregion","CC_2":"NA","HASC_2":"NA","name":"Csenger.county"},
"geometry":{"type": "MultiPolygon","coordinates": [[[[22.5658,47.9186,118.4316],[22.5631,47.9123,115.5543],[22.5581,47.9096,114.8797],[22.5513,47.9102,114.4107],[22.5397,47.9151,114.307],[22.4992,47.9004,112.8815],[22.48,47.9048,112.056],[22.472,47.8921,111.5434],[22.4652,47.886,111.8922],[22.4639,47.8824,112.1275],[22.4619,47.8391,111.9083],[22.4628,47.834,111.6002],[22.4806,47.8222,112.1356],[22.4805,47.8186,111.4933],[22.5104,47.7968,112.3652],[22.5416,47.7823,113.1317],[22.5512,47.773,114.0019],[22.6132,47.7723,114.078],[22.6171,47.7776,114.4925],[22.6286,47.7764,115.5631],[22.6384,47.781,115.6604],[22.6483,47.7793,116.1319],[22.6617,47.7822,115.8884],[22.6653,47.7838,116.412],[22.6678,47.7872,116.5357],[22.6723,47.7885,117.1369],[22.6819,47.788,117.8527],[22.6866,47.7919,118.2244],[22.6969,47.8087,118.7508],[22.7031,47.8153,120.0494],[22.7013,47.8186,119.8762],[22.7055,47.8207,120.2879],[22.7073,47.8239,120.0304],[22.711,47.8242,120.4383],[22.7126,47.8347,118.9607],[22.7144,47.8359,119.2186],[22.7253,47.8386,119.101],[22.7404,47.8352,118.9807],[22.7577,47.835,119.1058],[22.7677,47.8422,119.8623],[22.7784,47.8437,119.5189],[22.7791,47.8524,121.8609],[22.7761,47.8564,120.6125],[22.7765,47.8591,119.6646],[22.7742,47.8598,119.7267],[22.7747,47.8634,119.5626],[22.7678,47.8644,119.6002],[22.7637,47.8673,119.0627],[22.7701,47.8789,119.1518],[22.7541,47.8911,133.6709],[22.752,47.8985,118.0483],[22.7495,47.9001,117.7845],[22.7375,47.8993,118.137],[22.7267,47.9006,116.4881],[22.7068,47.894,116.3739],[22.7009,47.8906,118.6083],[22.6889,47.8918,115.9229],[22.6732,47.884,117.0817],[22.6646,47.8867,116.9153],[22.6548,47.8942,116.4424],[22.625,47.8978,118.7008],[22.6134,47.8941,117.173],[22.6046,47.8867,116.815],[22.5982,47.8858,116.8973],[22.5858,47.8892,116.8437],[22.5834,47.8915,115.9671],[22.5843,47.9055,115.4774],[22.5886,47.913,117.9114],[22.5874,47.9174,116.4649],[22.5748,47.9222,115.7599],[22.5658,47.9186,118.4316]]]]}}