{"type": "Feature","bbox": [17.6339,46.8218,17.9719,47.0189],"geometry": {"type": "MultiPolygon","coordinates": [[[[17.8835,46.884,103.5],[17.9076,46.8935,103.5],[17.912,46.9024,103.5],[17.9117,46.9226,103.5],[17.9135,46.9262,103.5],[17.9719,46.9411,103.5],[17.9445,46.9757,104.2239],[17.9396,46.9854,141.3712],[17.9382,46.9972,266.1096],[17.9294,47.0092,263.081],[17.923,47.0137,268.7925],[17.9092,47.0189,290.7162],[17.8963,47.0136,296.2898],[17.8849,47.0067,298.5194],[17.8641,47.0021,313.5674],[17.851,46.9975,401.4697],[17.8258,46.9964,340.8112],[17.8145,46.9909,330.6914],[17.7912,46.9898,360.8605],[17.7869,46.9832,356.2751],[17.7761,46.9752,302.837],[17.7543,46.968,344.8649],[17.7533,46.965,355.4499],[17.7559,46.9589,295.8194],[17.746,46.9451,321.3875],[17.7404,46.942,328.0951],[17.7259,46.9387,291.4596],[17.7156,46.9391,316.9541],[17.707,46.9469,332.0997],[17.6973,46.9511,316.1439],[17.6951,46.9539,307.2733],[17.6937,46.9605,301.5983],[17.6884,46.9648,306.8579],[17.6623,46.9697,310.7969],[17.6566,46.9531,325.2762],[17.642,46.9458,276.4562],[17.642,46.9432,276.383],[17.6491,46.9326,344.1611],[17.6452,46.9263,367.5639],[17.639,46.9207,359.405],[17.6339,46.9116,348.9063],[17.6354,46.9012,222.1086],[17.6583,46.8939,246.4935],[17.6583,46.8916,230.5136],[17.645,46.8731,226.6764],[17.6443,46.8701,259.7092],[17.6476,46.8635,297.0853],[17.649,46.8468,158.4507],[17.668,46.8272,103.5],[17.6707,46.8218,103.5],[17.6824,46.825,103.5],[17.715,46.841,103.5],[17.7602,46.8585,103.5],[17.818,46.8692,103.5],[17.8467,46.8823,103.5],[17.8835,46.884,103.5]]]]}
,"properties": {"GID_2": "HUN.19.3_1","GID_0": "HUN","country": "Hungary","GID_1": "HUN.19_1","province": "Veszprém","NL_NAME_1": "NA","county": "Balatonfüred","VARNAME_2": "Balatonfüredi","NL_NAME_2": "NA","TYPE_2": "Kistérség","ENGTYPE_2": "Subregion","CC_2": "NA","HASC_2": "NA","name": "Balatonfüred.county","area_km2": 289.6971,"hist_schema_id": "Elevation0-9000","hist_area_km2": {"100": 99.0376,"125": 23.8095,"150": 24.3307,"175": 25.0534,"200": 18.9636,"225": 15.9798,"250": 14.8497,"275": 22.0116,"300": 20.1175,"325": 16.1521,"350": 6.8017,"375": 2.2861,"400": 0.3037}}}