{"type":"Feature","properties":{"GID_2":"HUN.1.6_1","GID_0":"HUN","country":"Hungary","GID_1":"HUN.1_1","province":"Bács-Kiskun","NL_NAME_1":"NA","county":"Kiskőrös","VARNAME_2":"Kiskőrösi","NL_NAME_2":"NA","TYPE_2":"Kistérség","ENGTYPE_2":"Subregion","CC_2":"NA","HASC_2":"NA","name":"Kiskőrös.county"},
"geometry":{"type": "MultiPolygon","coordinates": [[[[19.2911,46.3998,137.015],[19.2997,46.415,137.7933],[19.3199,46.4288,132.6819],[19.3275,46.4366,136.7424],[19.3534,46.454,127.3876],[19.3616,46.4623,131.2527],[19.378,46.4728,130.9817],[19.394,46.4744,136.8743],[19.3947,46.4767,136.1956],[19.3842,46.4984,127.639],[19.4062,46.5068,131.6164],[19.4197,46.5209,125.4824],[19.4404,46.5349,127.4714],[19.4445,46.5352,129.3481],[19.4559,46.5301,119.5165],[19.4699,46.5211,118.2171],[19.4839,46.5147,122.0393],[19.4999,46.5136,123.8947],[19.5077,46.5108,127.018],[19.5093,46.5074,126.5961],[19.5054,46.4983,134.8416],[19.5098,46.4912,129.5686],[19.5218,46.4829,136.2466],[19.5309,46.4801,137.8985],[19.536,46.4814,138.0606],[19.5476,46.4996,126.7888],[19.5626,46.5168,124.1695],[19.5645,46.5249,129.9521],[19.576,46.5444,118.1908],[19.5638,46.5627,119.9594],[19.5529,46.5744,120.7045],[19.5502,46.5804,122.962],[19.5668,46.5874,118.9564],[19.5773,46.5993,121.2022],[19.6003,46.6001,117.0629],[19.5922,46.6103,116.5646],[19.5769,46.6212,114.5319],[19.5626,46.6345,113.0787],[19.5547,46.6458,115.3489],[19.5536,46.6553,137.0886],[19.5492,46.6652,110.7835],[19.5336,46.6896,119.8847],[19.5259,46.691,124.5741],[19.4831,46.6907,115.6391],[19.4636,46.6967,119.4141],[19.4598,46.6993,116.5818],[19.4447,46.7201,117.8074],[19.4298,46.7255,111.1609],[19.4176,46.7326,107.1686],[19.4018,46.7373,106.4858],[19.4011,46.7423,107.8102],[19.4035,46.7459,109.4441],[19.4179,46.7526,106.8624],[19.4427,46.7688,105.6929],[19.4642,46.7869,107.9264],[19.4406,46.821,106.9807],[19.4076,46.85,108.4634],[19.4071,46.8521,115.8139],[19.4121,46.855,115.6827],[19.4127,46.8572,119.4634],[19.3995,46.8743,115.6427],[19.379,46.8713,101.1781],[19.3286,46.8718,95.8017],[19.3165,46.868899999999996,95.936],[19.3079,46.863,95.6482],[19.3079,46.8591,95.1688],[19.3112,46.8526,95.7981],[19.3073,46.8478,98.3632],[19.2792,46.8367,96.9975],[19.2325,46.8365,94.5224],[19.2195,46.8268,93.9182],[19.189,46.8206,93.2499],[19.1809,46.8133,93.907],[19.1664,46.804,94.2764],[19.1754,46.7921,92.317],[19.176,46.7688,93.2497],[19.1873,46.7426,92.8704],[19.1848,46.7389,93.1527],[19.1668,46.7262,92.4433],[19.1668,46.7222,92.3275],[19.1743,46.7033,92.4481],[19.1624,46.6895,92.0502],[19.1575,46.6796,92.0507],[19.157,46.6706,92.0],[19.1619,46.6555,92.0994],[19.167,46.6485,92.0065],[19.1979,46.6327,92.1336],[19.2032,46.6266,92.7071],[19.2027,46.6058,95.8067],[19.1906,46.5984,96.2883],[19.1895,46.5849,95.1749],[19.1815,46.5689,91.8237],[19.1891,46.5491,93.2105],[19.1893,46.5217,92.575],[19.1971,46.5088,96.4761],[19.1967,46.4722,99.7818],[19.1916,46.4598,100.1699],[19.1869,46.4548,107.9956],[19.1602,46.4541,90.8943],[19.1549,46.4524,93.1427],[19.1531,46.4411,92.0787],[19.1419,46.4382,94.5589],[19.1335,46.4279,91.1664],[19.1326,46.4125,91.7877],[19.137,46.4063,91.6456],[19.1404,46.4051,96.1369],[19.1521,46.4054,91.9939],[19.1684,46.4103,110.8782],[19.18,46.4067,113.1194],[19.2075,46.369,148.5267],[19.2168,46.3728,136.7531],[19.2287,46.3741,136.5563],[19.2443,46.3796,138.9593],[19.2567,46.393,142.6139],[19.2911,46.3998,137.015]]]]}}