{"type":"Feature","properties":{"GID_2":"HUN.4.12_1","GID_0":"HUN","country":"Hungary","GID_1":"HUN.4_1","province":"Borsod-Abaúj-Zemplén","NL_NAME_1":"NA","county":"Szerencs","VARNAME_2":"NA","NL_NAME_2":"NA","TYPE_2":"Kistérség","ENGTYPE_2":"Subregion","CC_2":"NA","HASC_2":"NA","name":"Szerencs.county"},
"geometry":{"type": "MultiPolygon","coordinates": [[[[21.1339,48.2408,184.2202],[21.1222,48.2401,171.5983],[21.1179,48.2342,169.5131],[21.1076,48.2295,169.1504],[21.0914,48.2192,180.6296],[21.0814,48.2092,220.2495],[21.0288,48.2085,244.4176],[21.0202,48.2066,222.512],[21.0075,48.1983,177.2477],[21.0014,48.1911,196.4611],[20.9996,48.1785,190.0205],[20.9977,48.1751,214.4354],[20.9902,48.1709,221.9092],[20.977,48.1692,120.1353],[20.9733,48.1662,118.0497],[20.968,48.1513,131.5838],[20.9668,48.124,134.9518],[20.9691,48.1211,139.0844],[20.9746,48.1209,146.1339],[21.0484,48.1328,130.9972],[21.0573,48.1284,123.9911],[21.0604,48.121,118.1619],[21.0645,48.1166,119.4662],[21.0954,48.1159,106.7473],[21.0986,48.1144,105.3411],[21.1023,48.1096,107.205],[21.102,48.1054,106.1703],[21.0961,48.0968,110.5541],[21.0861,48.0945,121.4325],[21.0816,48.0887,122.7293],[21.0714,48.0841,129.013],[21.0524,48.0716,124.2679],[21.0403,48.0613,130.8269],[21.0254,48.059,112.7835],[21.0182,48.0544,109.3552],[21.0177,48.0511,108.0047],[21.0242,48.0386,102.2319],[21.0217,48.0316,101.3763],[21.0315,48.0247,100.2015],[21.0261,48.0169,104.5313],[21.0286,48.0109,102.246],[21.0322,48.008,101.2983],[21.0489,48.0027,93.4299],[21.0637,48.004,93.3988],[21.0834,48.0013,92.3667],[21.0982,48.0198,91.622],[21.1063,48.025,92.4025],[21.1225,48.0439,91.7132],[21.1303,48.0474,91.4267],[21.1671,48.0499,92.1155],[21.1708,48.0484,91.9119],[21.1735,48.0431,92.2948],[21.1794,48.0384,117.792],[21.1916,48.0367,91.6944],[21.2069,48.0303,97.1201],[21.2257,48.0295,107.9838],[21.2343,48.0332,98.7491],[21.2289,48.044,93.6465],[21.2324,48.0484,95.6563],[21.2422,48.0529,101.3357],[21.2687,48.0574,117.6964],[21.2897,48.0684,93.3473],[21.2957,48.074,94.021],[21.3082,48.0762,92.0648],[21.3069,48.0791,93.7613],[21.2939,48.0892,95.369],[21.2866,48.102,92.4136],[21.3009,48.1174,92.1554],[21.3057,48.1263,92.2948],[21.3074,48.1358,92.6988],[21.3111,48.1424,92.8995],[21.3125,48.1559,100.4125],[21.3299,48.1603,127.2013],[21.3365,48.1676,154.1604],[21.3416,48.1829,166.9216],[21.3314,48.1971,316.6914],[21.3457,48.2127,417.3524],[21.3467,48.2166,423.3734],[21.3444,48.2203,406.1338],[21.3314,48.2263,376.3365],[21.3248,48.2365,493.9724],[21.3143,48.2393,454.5486],[21.3084,48.2523,409.2639],[21.3017,48.2578,372.014],[21.302,48.2713,464.0966],[21.2848,48.2677,556.9984],[21.2725,48.2615,386.6322],[21.2554,48.2632,506.3767],[21.2249,48.2514,248.1201],[21.2061,48.2509,170.0897],[21.1964,48.2437,110.8873],[21.1762,48.2434,140.4938],[21.1639,48.2411,168.5618],[21.1339,48.2408,184.2202]]]]}}