{"type": "Feature","bbox": [19.2911,46.1501,19.7345,46.5354],"geometry": {"type": "MultiPolygon","coordinates": [[[[19.5162,46.1539,130.3897],[19.5262,46.1501,129.0208],[19.5605,46.1714,143.4571],[19.5561,46.1767,135.574],[19.5637,46.1808,140.8444],[19.6294,46.1709,127.2242],[19.6577,46.1894,126.2915],[19.6816,46.1799,117.3024],[19.6946,46.1872,115.632],[19.6896,46.1908,115.5822],[19.6819,46.202,124.3346],[19.6793,46.2112,131.8917],[19.667,46.2284,123.702],[19.6482,46.2459,127.3819],[19.6438,46.2551,129.5486],[19.6428,46.2641,130.0494],[19.64,46.2705,132.2195],[19.6429,46.2741,133.5115],[19.6824,46.3022,126.0864],[19.6872,46.309,123.2303],[19.6743,46.3223,126.3907],[19.6575,46.3345,131.3067],[19.6562,46.3385,135.6653],[19.6568,46.3473,124.889],[19.6682,46.3515,121.5921],[19.6815,46.3536,118.9261],[19.6948,46.3612,119.4237],[19.7305,46.3625,115.6115],[19.7306,46.4068,123.0765],[19.7345,46.4185,114.9699],[19.7285,46.4269,114.8057],[19.7134,46.4294,118.287],[19.7042,46.4407,127.018],[19.6933,46.4445,120.3234],[19.6877,46.4426,121.6473],[19.662,46.4166,120.4341],[19.6573,46.4179,120.8094],[19.6488,46.4261,128.286],[19.6255,46.4326,123.5095],[19.6208,46.4383,123.7844],[19.6217,46.4427,126.6789],[19.6292,46.4458,121.7195],[19.6409,46.4471,121.2598],[19.6499,46.4503,119.2848],[19.6556,46.4566,115.8007],[19.6556,46.4599,115.0973],[19.6404,46.4784,115.996],[19.6143,46.5026,124.5223],[19.6064,46.5078,123.3777],[19.585,46.517,128.9321],[19.574,46.5271,128.9204],[19.568,46.5302,125.285],[19.5645,46.5249,129.9521],[19.5626,46.5168,124.1695],[19.5433,46.493899999999996,126.4913],[19.5376,46.4829,124.946],[19.5309,46.4801,137.8985],[19.5202,46.4837,127.9347],[19.5098,46.4912,129.5686],[19.5054,46.4983,134.8416],[19.5093,46.5074,126.5961],[19.5077,46.5108,127.018],[19.4999,46.5136,123.8947],[19.4839,46.5147,122.0393],[19.4699,46.5211,118.2171],[19.4559,46.5301,119.5165],[19.442,46.5354,132.1975],[19.4197,46.5209,125.4824],[19.4062,46.5068,131.6164],[19.3842,46.4984,127.639],[19.3947,46.4767,136.1956],[19.394,46.4744,136.8743],[19.378,46.4728,130.9817],[19.3616,46.4623,131.2527],[19.3534,46.454,127.3876],[19.3275,46.4366,136.7424],[19.3199,46.4288,132.6819],[19.2997,46.415,137.7933],[19.2911,46.3998,137.015],[19.3075,46.3919,146.9435],[19.3236,46.3812,147.2186],[19.3411,46.3721,142.9531],[19.3544,46.3595,144.3824],[19.361,46.3502,151.7835],[19.3711,46.34,155.2344],[19.3819,46.3326,156.381],[19.3926,46.328,151.9121],[19.4081,46.3171,139.8051],[19.4216,46.3045,136.9728],[19.4257,46.295,137.6991],[19.4232,46.2877,137.8621],[19.4272,46.2792,139.2364],[19.4352,46.2686,145.9111],[19.4569,46.2606,141.591],[19.487,46.2431,135.1676],[19.4858,46.2398,135.398],[19.4725,46.2357,134.6036],[19.4688,46.233,132.0999],[19.4687,46.2304,131.8616],[19.4753,46.2188,132.1929],[19.4748,46.2156,132.6611],[19.4545,46.2067,133.0949],[19.4513,46.2024,132.9546],[19.458,46.1929,134.5441],[19.4668,46.1743,135.2567],[19.4672,46.173,134.2154],[19.4629,46.1702,132.8248],[19.4969,46.159,132.9426],[19.5144,46.1564,131.4415],[19.5162,46.1539,130.3897]]]]}
,"properties": {"GID_2": "HUN.1.8_1","GID_0": "HUN","country": "Hungary","GID_1": "HUN.1_1","province": "Bács-Kiskun","NL_NAME_1": "NA","county": "Kiskunhalas","VARNAME_2": "Kiskunhalasi","NL_NAME_2": "NA","TYPE_2": "Kistérség","ENGTYPE_2": "Subregion","CC_2": "NA","HASC_2": "NA","name": "Kiskunhalas.county","area_km2": 810.4728,"hist_schema_id": "Elevation0-9000","hist_area_km2": {"100": 0.5264,"125": 660.9865,"150": 148.9599}}}