{"type":"Feature","properties":{"GID_1":"HUN.10_1","GID_0":"HUN","country":"Hungary","province":"Heves","VARNAME_1":"NA","NL_NAME_1":"NA","TYPE_1":"Megye","ENGTYPE_1":"County","CC_1":"NA","HASC_1":"HU.HE","ISO_1":"HU-HE","name":"Heves.province"},
"geometry":{"type": "MultiPolygon","coordinates": [[[[20.5977,47.5266,87.3653],[20.6336,47.5385,88.1461],[20.6576,47.5437,86.1202],[20.6625,47.5505,89.0432],[20.6565,47.5587,87.0],[20.6579,47.5614,88.6862],[20.692,47.5617,85.3071],[20.7043,47.5679,86.2691],[20.7109,47.5803,92.0272],[20.6978,47.5902,93.1539],[20.6963,47.593,91.3677],[20.701,47.6005,97.3327],[20.7184,47.6197,100.9724],[20.7189,47.6232,87.5],[20.7167,47.6311,96.3332],[20.7182,47.6382,98.7583],[20.7252,47.6446,89.8042],[20.7365,47.6495,88.4627],[20.7614,47.6517,107.2393],[20.7678,47.6605,106.1047],[20.769,47.6729,93.57],[20.768,47.6752,103.004],[20.7606,47.6758,88.6633],[20.7442,47.6811,90.5229],[20.7315,47.6877,90.3822],[20.7244,47.6948,90.1023],[20.7212,47.7004,90.8416],[20.6744,47.6971,89.6791],[20.6594,47.6931,93.5815],[20.6297,47.6908,92.465],[20.619,47.6934,93.7775],[20.6014,47.7034,93.4991],[20.5845,47.7104,94.9417],[20.5769,47.7187,98.4244],[20.5762,47.7253,97.2231],[20.5803,47.7308,98.0174],[20.5911,47.7362,97.6803],[20.5918,47.739,97.8823],[20.576,47.7487,101.338],[20.5686,47.7554,102.0774],[20.5448,47.7619,105.9073],[20.5332,47.7683,109.6707],[20.5148,47.7867,118.1615],[20.4997,47.8082,124.013],[20.5016,47.8262,133.1525],[20.5054,47.8356,158.7738],[20.5005,47.8452,172.8119],[20.4919,47.8563,181.0303],[20.4788,47.8614,178.4824],[20.4491,47.8666,225.2447],[20.4364,47.8766,223.9987],[20.4376,47.885,236.75],[20.4455,47.8898,203.8981],[20.4535,47.8973,236.9624],[20.49,47.8987,198.4947],[20.4927,47.9005,222.441],[20.4947,47.9087,245.7527],[20.5123,47.9129,253.3595],[20.5145,47.9152,238.53],[20.5117,47.92,194.2857],[20.5111,47.9293,229.7548],[20.5097,47.9316,225.3555],[20.485,47.9353,272.8293],[20.4664,47.9407,323.0504],[20.4561,47.9468,403.7391],[20.4479,47.9551,443.1906],[20.4543,47.9659,486.7254],[20.4559,47.981,381.0178],[20.4599,47.9838,387.577],[20.473,47.9884,439.6289],[20.4766,47.9915,378.1524],[20.4778,48.006,476.5349],[20.4856,48.0173,549.4559],[20.4876,48.0297,503.8048],[20.479,48.0361,487.567],[20.4752,48.0424,566.9156],[20.4892,48.0534,596.2701],[20.4912,48.0604,768.1341],[20.4874,48.0678,925.1928],[20.4863,48.077,801.3552],[20.4788,48.0855,884.018],[20.478,48.0971,886.6698],[20.4561,48.1278,393.0608],[20.4521,48.1306,384.4028],[20.4327,48.137,324.5333],[20.3948,48.1395,362.9196],[20.3887,48.1387,314.5143],[20.3872,48.1363,329.6242],[20.3868,48.1267,348.5528],[20.383,48.1223,317.7262],[20.3694,48.1217,354.9426],[20.3666,48.1203,384.0602],[20.3657,48.1105,345.4227],[20.3593,48.1033,360.8434],[20.3573,48.0959,394.3908],[20.3388,48.0966,360.2184],[20.3326,48.0983,355.3427],[20.3257,48.1026,365.6241],[20.3188,48.1113,384.6596],[20.3136,48.1153,336.1472],[20.2858,48.1136,378.7726],[20.2805,48.1128,376.7959],[20.2778,48.1107,369.8704],[20.278,48.0932,390.6881],[20.2758,48.0891,386.302],[20.2606,48.0847,408.0271],[20.2249,48.0845,297.1638],[20.1996,48.089,379.643],[20.1971,48.0961,379.7069],[20.1942,48.0992,298.5267],[20.1745,48.1076,501.8154],[20.1654,48.12,394.5352],[20.1413,48.1348,397.0432],[20.1094,48.1382,387.4353],[20.0906,48.1437,398.3449],[20.0825,48.1267,342.7104],[20.0755,48.1174,382.5007],[20.0697,48.1151,323.8468],[20.0456,48.1135,214.5211],[20.0412,48.1071,229.8752],[20.04,48.0998,213.5792],[20.0114,48.0999,267.6178],[19.9719,48.0951,350.902],[19.9698,48.0896,369.8768],[19.9717,48.0788,425.4315],[19.9843,48.077,442.3408],[20.0095,48.065,315.7097],[20.0158,48.0589,340.4781],[20.0195,48.0414,304.0822],[20.0343,48.0284,230.6059],[20.029,48.0242,229.7958],[20.0023,48.0203,264.7314],[19.9952,48.0169,288.5061],[19.9902,48.0084,266.8604],[19.9946,47.9995,235.6111],[19.9941,47.9901,326.4427],[19.9735,47.9817,284.0693],[19.9717,47.964,348.5644],[19.948,47.9541,371.0526],[19.9424,47.9356,528.7956],[19.924,47.9274,680.6425],[19.9127,47.9293,621.0386],[19.8949,47.9355,547.9735],[19.8894,47.9357,526.9896],[19.8477,47.9327,558.3469],[19.8277,47.9282,695.3965],[19.819,47.9239,617.5278],[19.8191,47.9121,502.7809],[19.8207,47.9091,566.3545],[19.8565,47.9033,809.5778],[19.8571,47.8948,753.1667],[19.8517,47.8849,629.236],[19.8396,47.8833,643.7175],[19.828,47.886,607.3697],[19.7982,47.9036,532.3663],[19.7863,47.9037,631.2468],[19.7793,47.9016,667.3528],[19.7693,47.8938,744.1643],[19.7687,47.8755,443.0658],[19.7672,47.8713,435.9867],[19.7488,47.8585,368.8491],[19.73,47.8375,233.7918],[19.7284,47.8211,322.5641],[19.7079,47.8182,234.4009],[19.6878,47.8177,135.6522],[19.6786,47.8076,133.7564],[19.6588,47.8124,136.6261],[19.6525,47.811,133.2189],[19.6481,47.8075,148.792],[19.6469,47.804,149.8659],[19.6513,47.7911,144.4615],[19.6508,47.7859,142.7087],[19.647,47.7783,140.565],[19.6497,47.7703,139.3535],[19.649,47.7681,139.8036],[19.6148,47.7668,160.0864],[19.6101,47.7625,157.3634],[19.6077,47.7561,157.0367],[19.6032,47.7509,155.6462],[19.5807,47.745,151.1674],[19.5897,47.7343,144.8143],[19.6024,47.7275,145.5997],[19.6111,47.7148,134.6779],[19.6111,47.7086,136.5849],[19.6071,47.7008,123.6536],[19.6063,47.6831,138.0947],[19.6068,47.6786,135.8927],[19.6111,47.6692,132.5102],[19.627,47.6544,126.6096],[19.6456,47.647,120.3152],[19.6472,47.6439,120.8314],[19.648,47.6348,118.5453],[19.6589,47.6221,115.136],[19.6544,47.6032,112.1147],[19.6496,47.5927,112.4358],[19.6767,47.597,111.096],[19.6935,47.5971,115.5603],[19.7066,47.5949,110.7998],[19.7088,47.5962,110.9645],[19.7093,47.5986,111.0099],[19.7053,47.6071,111.7681],[19.7088,47.6117,111.9862],[19.7305,47.6186,114.1507],[19.746,47.6202,114.6825],[19.7555,47.6232,130.3024],[19.7633,47.6229,128.883],[19.8038,47.6104,120.1473],[19.8236,47.6119,115.4375],[19.8264,47.6132,112.8108],[19.834,47.6262,112.9412],[19.8404,47.6314,113.0792],[19.8581,47.6397,111.4498],[19.8713,47.648,109.5683],[19.879,47.6673,111.0837],[19.9076,47.6597,106.9407],[19.9161,47.662,106.5774],[19.9364,47.6634,105.1704],[19.9662,47.6775,104.1083],[19.9775,47.6779,103.2376],[19.9849,47.6744,103.2513],[19.9916,47.6631,100.9998],[19.9896,47.6332,100.4721],[19.9947,47.6278,98.7921],[20.0026,47.6232,97.8096],[19.9969,47.6177,98.0669],[19.9916,47.6024,96.2607],[20.0036,47.584,95.2999],[20.0073,47.5807,95.3111],[20.0313,47.5729,94.0787],[20.0935,47.563,101.1541],[20.1118,47.5682,98.9831],[20.1145,47.5703,103.3303],[20.1121,47.5738,98.1719],[20.0922,47.5869,98.0975],[20.0901,47.5908,97.3379],[20.092,47.5953,96.4175],[20.1026,47.5998,96.6589],[20.1106,47.6066,97.2715],[20.1206,47.608,96.9184],[20.1819,47.6046,107.1942],[20.1909,47.5946,109.4062],[20.204,47.585,107.5951],[20.2077,47.5751,99.2251],[20.2195,47.5638,97.2818],[20.2404,47.5566,93.8732],[20.2483,47.5462,92.1265],[20.2691,47.5439,91.3154],[20.2816,47.5359,89.7422],[20.2873,47.5252,89.0016],[20.2878,47.5116,86.9342],[20.2765,47.4963,87.3316],[20.2755,47.4913,87.1612],[20.2827,47.4748,85.2761],[20.3313,47.4422,85.4736],[20.3607,47.4417,86.9104],[20.3689,47.4399,86.8343],[20.3735,47.4344,87.6935],[20.3751,47.4234,86.8039],[20.4229,47.4224,87.4716],[20.4382,47.4258,84.6737],[20.4511,47.4415,89.7461],[20.4533,47.45,90.3712],[20.4599,47.4575,87.4708],[20.4723,47.4613,87.6323],[20.4902,47.4587,85.1044],[20.4959,47.4602,84.7012],[20.5078,47.4756,97.1099],[20.5095,47.4828,103.4198],[20.5144,47.4925,89.331],[20.5221,47.5008,87.0],[20.5287,47.5032,87.1091],[20.5495,47.5035,87.0],[20.5645,47.5066,88.3315],[20.588,47.5236,87.0],[20.5977,47.5266,87.3653]]]]}}