{"type": "Feature","id": "3174","bbox": [19.58075,47.42522,20.77406,48.1514],"geometry": {"type": "Polygon","coordinates": [[[20.47281,48.1134,549.8024],[20.41842,48.1514,358.2656],[20.35476,48.09505,417.4795],[20.32075,48.11159,398.3678],[20.28468,48.11001,374.8291],[20.25606,48.09283,375.7551],[20.22092,48.09288,446.6379],[20.20448,48.10192,329.3776],[20.19146,48.11618,395.9203],[20.1772,48.1196,364.1431],[20.16107,48.11823,444.7683],[20.14206,48.13422,397.0432],[20.11818,48.14786,377.7406],[20.09586,48.14114,398.4173],[20.08552,48.13696,346.361],[20.07757,48.12965,398.7936],[20.04956,48.12071,217.7611],[20.02744,48.10544,249.4446],[19.9986,48.10037,340.3865],[19.98506,48.09435,358.1577],[19.97979,48.08094,364.5402],[19.98693,48.07521,436.125],[19.99922,48.07128,316.4258],[20.02062,48.04448,342.5564],[20.02785,48.01151,276.3313],[19.99767,48.00903,307.2768],[19.97339,47.99441,258.3614],[19.96005,47.96927,314.0385],[19.95685,47.94627,418.7151],[19.93101,47.9285,718.9895],[19.90342,47.91669,907.3619],[19.88998,47.92594,776.3713],[19.87293,47.92547,749.9445],[19.85897,47.91015,724.001],[19.84843,47.89243,663.6617],[19.82332,47.8802,717.0167],[19.79086,47.89256,618.2903],[19.76296,47.87935,540.9487],[19.71242,47.82106,356.6607],[19.6749,47.81279,147.6905],[19.58075,47.73724,151.0831],[19.59532,47.72169,141.3862],[19.60731,47.71773,133.1431],[19.61992,47.71559,126.0005],[19.61392,47.70244,125.756],[19.60194,47.68939,142.4932],[19.61258,47.67079,132.0221],[19.6316,47.65642,124.7894],[19.65919,47.6251,114.9678],[19.66043,47.60828,115.9712],[19.6748,47.59585,111.8392],[19.72875,47.61275,112.6684],[19.78322,47.61647,123.6103],[19.80564,47.60448,118.3557],[19.81794,47.60278,116.9512],[19.87272,47.65347,110.0119],[19.88977,47.66427,109.9955],[19.91251,47.66006,106.9208],[19.96067,47.67037,104.3576],[19.99984,47.66159,100.5489],[20.00718,47.62092,97.4967],[20.02393,47.58294,94.3809],[20.07715,47.55834,95.3762],[20.12645,47.56733,96.5994],[20.11085,47.57493,98.8295],[20.10134,47.58906,102.8937],[20.1959,47.60676,103.8537],[20.20975,47.59963,106.8542],[20.2204,47.57363,97.6333],[20.23942,47.55612,93.8732],[20.27755,47.54224,91.5924],[20.2944,47.51064,86.447],[20.2882,47.48852,86.4289],[20.29936,47.47088,84.4911],[20.31693,47.45555,85.5019],[20.37439,47.42966,87.1379],[20.39651,47.42522,98.095],[20.42101,47.43041,97.4478],[20.43041,47.43561,108.2535],[20.44292,47.44703,92.2557],[20.44829,47.4509,89.9621],[20.48457,47.45917,84.6298],[20.49811,47.4678,92.5314],[20.50348,47.48876,85.7194],[20.51237,47.49682,91.4409],[20.68931,47.57787,88.3781],[20.69531,47.59549,88.4232],[20.69531,47.60172,105.1606],[20.7043,47.60293,91.6877],[20.70926,47.60544,93.0469],[20.71236,47.6096,110.5949],[20.71577,47.61601,103.1172],[20.70978,47.62789,91.4658],[20.72001,47.63435,103.7902],[20.74998,47.64267,105.5247],[20.76331,47.65533,101.1644],[20.76807,47.66505,112.9059],[20.77406,47.67234,98.5812],[20.7415,47.67595,97.5347],[20.71856,47.68603,92.5237],[20.6089,47.70107,93.3909],[20.58813,47.72443,95.6147],[20.5748,47.75533,102.9547],[20.52849,47.79192,116.7211],[20.46452,47.86824,185.2445],[20.45677,47.87196,206.5664],[20.4484,47.88064,187.1251],[20.41366,47.87466,226.1428],[20.39152,47.85884,156.8111],[20.39152,47.83037,155.8866],[20.36937,47.81139,149.0079],[20.32507,47.81139,161.5141],[20.30293,47.84935,221.0667],[20.30293,47.89048,182.299],[20.31558,47.93161,242.2656],[20.30293,47.96958,328.8801],[20.2966,48.00122,385.0734],[20.32191,48.01071,321.4215],[20.33773,48.04552,309.1305],[20.38519,48.03919,680.2069],[20.39468,48.0202,585.7169],[20.39468,47.99173,421.5265],[20.42204,47.96911,262.14],[20.43434,47.98376,250.5762],[20.47878,48.01495,530.0911],[20.4918,48.05495,665.6228],[20.49511,48.07794,785.9095],[20.49005,48.10135,869.4425],[20.47281,48.1134,549.8024]]]}
,"properties": {"ISO3166-1-Alpha-3": "HUN","country": "Hungary","fill": "#00F","name": "Heves","area_km2": 3338.126,"hist_schema_id": "Elevation0-9000","hist_area_km2": {"25": 0.228,"50": 1.811,"75": 218.682,"100": 1009.852,"125": 521.301,"150": 230.897,"175": 194.423,"200": 159.842,"225": 142.79,"250": 113.525,"275": 92.391,"300": 90.797,"325": 87.65,"350": 79.641,"375": 59.552,"400": 45.136,"425": 35.386,"450": 27.859,"475": 23.01,"500": 21.521,"525": 19.647,"550": 17.701,"575": 16.506,"600": 15.71,"625": 14.419,"650": 13.269,"675": 12.189,"700": 9.29,"725": 8.638,"750": 7.159,"775": 6.604,"800": 6.091,"825": 6.003,"850": 6.651,"875": 6.991,"900": 6.195,"925": 4.708,"950": 2.568,"975": 0.924,"1000": 0.427,"1025": 0.142}}}