{"type":"Feature","properties":{"GID_2":"HUN.19.1_1","GID_0":"HUN","country":"Hungary","GID_1":"HUN.19_1","province":"Veszprém","NL_NAME_1":"NA","county":"Ajka","VARNAME_2":"Ajkai","NL_NAME_2":"NA","TYPE_2":"Kistérség","ENGTYPE_2":"Subregion","CC_2":"NA","HASC_2":"NA","name":"Ajka.county"},
"geometry":{"type": "MultiPolygon","coordinates": [[[[17.2342,47.122,134.3115],[17.2449,47.1234,134.2805],[17.2548,47.1225,136.9203],[17.2744,47.1106,137.3774],[17.289,47.1057,140.6641],[17.3127,47.0939,165.1826],[17.3304,47.0922,162.7467],[17.3431,47.0852,157.5482],[17.3523,47.0823,164.9721],[17.3854,47.0876,187.3517],[17.3998,47.088,181.1764],[17.4051,47.0864,181.1793],[17.4071,47.0775,182.2583],[17.412,47.0684,197.1622],[17.4238,47.0581,190.8128],[17.4245,47.0408,191.2747],[17.4136,47.0179,207.8171],[17.4025,47.0103,204.965],[17.4015,46.995,195.0459],[17.3933,46.9917,198.4855],[17.3785,46.9908,193.5795],[17.3746,46.9871,200.4836],[17.3857,46.9742,231.689],[17.3826,46.9687,218.002],[17.3773,46.9639,214.9763],[17.3774,46.9619,212.7113],[17.3998,46.9532,213.5551],[17.4125,46.9573,215.6982],[17.4217,46.9692,216.1876],[17.426,46.9715,211.1642],[17.4543,46.972,235.1921],[17.4662,46.9679,262.5254],[17.4748,46.9703,284.66],[17.4814,46.9784,310.3499],[17.4829,46.9899,253.3302],[17.4939,47.0065,243.0094],[17.4978,47.0091,233.3852],[17.507,47.0094,247.7022],[17.5114,47.0051,245.0689],[17.5148,47.0041,251.1977],[17.5394,47.0044,359.6243],[17.5431,47.0071,376.1],[17.5424,47.018,340.6367],[17.5445,47.0207,332.6725],[17.5656,47.0165,330.2705],[17.5812,47.0214,319.1135],[17.5932,47.0219,301.5459],[17.6025,47.029,324.6324],[17.616,47.0348,397.9357],[17.6162,47.0385,415.9945],[17.6121,47.0465,430.3801],[17.6115,47.056,425.7648],[17.6127,47.0593,424.3239],[17.6342,47.0664,454.0601],[17.6389,47.0688,433.4861],[17.6427,47.0732,443.9116],[17.6616,47.0702,438.6644],[17.6837,47.0603,419.6219],[17.7092,47.06,426.6891],[17.7215,47.0552,394.0321],[17.7346,47.0545,340.4539],[17.7432,47.0523,431.9855],[17.7489,47.0536,427.1109],[17.7524,47.0607,386.1966],[17.7512,47.0634,406.5154],[17.7315,47.0699,386.4083],[17.7206,47.0762,398.4504],[17.7113,47.0793,425.6296],[17.6884,47.081,376.2014],[17.6787,47.0872,451.9895],[17.6725,47.096,453.5625],[17.6725,47.1007,440.1364],[17.6804,47.1219,524.9156],[17.6846,47.1282,437.2817],[17.7021,47.1447,388.545],[17.7036,47.159,412.844],[17.7136,47.1675,444.5505],[17.7182,47.1744,436.9912],[17.7183,47.1876,395.4375],[17.7148,47.1922,400.1616],[17.7004,47.1914,425.9738],[17.6857,47.2007,440.9792],[17.6744,47.2014,452.6826],[17.6445,47.1872,413.4586],[17.6224,47.1897,346.416],[17.606,47.1871,361.8654],[17.5973,47.1918,345.0808],[17.5882,47.201,284.1257],[17.5854,47.2096,312.9294],[17.5755,47.2162,300.116],[17.5712,47.2158,271.0456],[17.562,47.2098,283.5345],[17.553,47.2065,300.2399],[17.5377,47.2057,262.427],[17.5304,47.2075,246.4135],[17.5206,47.2159,238.0963],[17.5106,47.2187,224.1243],[17.4919,47.2113,220.1595],[17.4537,47.2104,187.9781],[17.4494,47.208,182.6914],[17.4436,47.2,190.5128],[17.4374,47.1994,191.176],[17.4082,47.2066,171.8158],[17.4062,47.2097,165.8678],[17.4054,47.2214,168.3014],[17.4039,47.2248,170.297],[17.3971,47.2292,156.6901],[17.3763,47.2363,151.1053],[17.3729,47.2523,146.8448],[17.3566,47.2637,157.5014],[17.3355,47.2631,138.2875],[17.3314,47.2591,137.0418],[17.3354,47.2508,134.3193],[17.3333,47.2475,139.7687],[17.3064,47.243899999999996,148.5768],[17.3027,47.245,146.5558],[17.2961,47.2526,141.2374],[17.2836,47.2622,147.3822],[17.2746,47.2654,148.5355],[17.2447,47.2651,140.8235],[17.2282,47.2571,134.2726],[17.2131,47.2608,129.5856],[17.2194,47.1906,134.7479],[17.2155,47.18,139.0565],[17.2058,47.1681,130.7353],[17.2054,47.1634,131.6687],[17.2072,47.1594,133.3629],[17.218,47.1511,133.8053],[17.2255,47.1319,133.1911],[17.2342,47.122,134.3115]]]]}}