{"type":"Feature","properties":{"GID_2":"HUN.15.5_1","GID_0":"HUN","country":"Hungary","GID_1":"HUN.15_1","province":"Somogy","NL_NAME_1":"NA","county":"Kadarkút","VARNAME_2":"Kadarkúti","NL_NAME_2":"NA","TYPE_2":"Kistérség","ENGTYPE_2":"Subregion","CC_2":"NA","HASC_2":"NA","name":"Kadarkút.county"},
"geometry":{"type": "MultiPolygon","coordinates": [[[[18.0615,46.3116,157.3256],[18.0616,46.3282,140.0522],[18.0732,46.3429,147.8277],[18.0729,46.3675,114.672],[18.0716,46.372,128.0667],[18.0609,46.3786,127.3487],[18.0549,46.3937,129.8682],[18.0528,46.3957,128.351],[18.0434,46.3986,131.1735],[18.0086,46.3998,135.0299],[18.0012,46.4032,125.1195],[17.9931,46.4135,123.0],[17.9941,46.4163,132.641],[18.0102,46.4206,144.4216],[18.0257,46.43,126.721],[18.0515,46.4305,140.3306],[18.0547,46.4344,141.6165],[18.0537,46.4517,139.2904],[18.0325,46.5072,156.2211],[18.0312,46.5276,174.6771],[18.0232,46.5404,203.5881],[18.0236,46.5449,216.9764],[18.028,46.5542,227.5007],[18.0372,46.5657,273.4873],[18.0282,46.5744,203.1513],[17.9998,46.5753,243.202],[17.9978,46.5775,271.5494],[17.9974,46.5852,259.4662],[17.9942,46.5879,242.7661],[17.9895,46.586,208.9877],[17.9807,46.5731,192.9539],[17.9718,46.5695,284.7717],[17.9454,46.5803,229.2373],[17.9104,46.5791,193.4972],[17.9021,46.5819,247.1392],[17.893,46.579,257.695],[17.881,46.5807,233.4617],[17.8742,46.5858,253.9613],[17.8608,46.5868,243.9048],[17.8462,46.5906,241.9511],[17.8422,46.6005,219.8127],[17.8321,46.6047,187.1855],[17.8309,46.6119,178.5778],[17.8289,46.6141,201.3621],[17.8133,46.6133,244.0867],[17.8182,46.6051,194.984],[17.8188,46.5996,206.59],[17.8166,46.5957,233.0039],[17.8104,46.5921,189.0273],[17.801,46.5929,185.9943],[17.7939,46.6011,197.6704],[17.7904,46.6023,204.242],[17.7539,46.5967,246.2093],[17.7437,46.5927,211.5922],[17.7442,46.577,179.3391],[17.7293,46.5689,213.4679],[17.728,46.5653,193.5782],[17.7283,46.5548,207.7416],[17.7261,46.5519,198.6732],[17.7089,46.5516,206.8576],[17.7047,46.554,202.6601],[17.7019,46.5588,199.515],[17.6951,46.5599,200.9443],[17.6757,46.5592,151.4192],[17.6597,46.5512,154.1229],[17.6485,46.5531,157.6121],[17.6436,46.5519,157.1089],[17.6402,46.5437,151.0536],[17.6346,46.5407,134.3578],[17.6358,46.5344,155.5396],[17.6271,46.5304,156.3679],[17.6329,46.5212,149.3737],[17.6336,46.5161,152.2289],[17.6328,46.5109,158.681],[17.6275,46.5027,159.9134],[17.6143,46.502,156.232],[17.6024,46.5045,154.6249],[17.5945,46.5044,151.8234],[17.5804,46.4969,146.2711],[17.5715,46.4946,141.974],[17.5657,46.4905,146.3209],[17.5508,46.4897,133.2142],[17.5477,46.491,140.4136],[17.5437,46.4983,140.2481],[17.5417,46.5099,135.341],[17.5383,46.5138,133.6458],[17.5342,46.5145,132.2012],[17.5229,46.5106,135.8356],[17.5216,46.4996,142.6237],[17.5156,46.4949,147.8683],[17.5122,46.4894,153.165],[17.4815,46.4792,159.413],[17.463,46.4691,157.4308],[17.461,46.4662,143.0413],[17.4648,46.4561,145.9666],[17.4652,46.4446,147.6086],[17.464,46.4394,157.2492],[17.4589,46.4327,156.7791],[17.4647,46.4239,156.8837],[17.4654,46.4198,158.0002],[17.4642,46.4158,162.2549],[17.453,46.3998,152.32],[17.454,46.3852,159.1545],[17.4643,46.3789,166.6687],[17.4664,46.3723,163.7985],[17.4692,46.3701,165.8124],[17.491,46.3631,158.6587],[17.5057,46.3619,160.7715],[17.5072,46.352,162.4642],[17.5094,46.3492,169.864],[17.533,46.3463,167.72],[17.5361,46.3432,167.6729],[17.5364,46.3308,162.11],[17.5348,46.3276,164.9481],[17.5181,46.3249,156.9289],[17.5111,46.3222,160.2204],[17.5077,46.3183,152.3797],[17.5082,46.262,177.2018],[17.5045,46.2518,174.5822],[17.5052,46.243,153.9462],[17.514,46.2284,161.9958],[17.5282,46.2206,163.2108],[17.5302,46.2128,164.6926],[17.5347,46.2052,174.3131],[17.5645,46.2052,176.6279],[17.5689,46.2032,182.8606],[17.5763,46.1959,179.6148],[17.5784,46.19,184.66],[17.5782,46.1679,171.4824],[17.587,46.172,165.1433],[17.5968,46.1738,168.4321],[17.6073,46.1812,172.6438],[17.6303,46.1827,175.9267],[17.6439,46.1874,155.7129],[17.6483,46.1863,141.645],[17.6536,46.178,145.4215],[17.6625,46.178,157.0813],[17.6608,46.1843,183.2187],[17.6621,46.1885,174.8645],[17.6724,46.1923,185.4885],[17.6914,46.2171,201.4386],[17.7139,46.2259,255.8057],[17.7141,46.2351,266.1378],[17.706,46.2473,198.3859],[17.7071,46.2506,227.0771],[17.7105,46.2527,235.7567],[17.7232,46.2522,218.9187],[17.7358,46.2385,215.8456],[17.7526,46.2304,234.8061],[17.7607,46.2282,239.6215],[17.7696,46.2306,259.0185],[17.7811,46.2372,219.6758],[17.7962,46.2407,271.2471],[17.8019,46.2393,236.2948],[17.8042,46.2341,203.0545],[17.8088,46.2297,196.881],[17.8283,46.2288,218.6593],[17.8485,46.232,178.4328],[17.8837,46.2419,147.3948],[17.9159,46.2418,177.0538],[17.9239,46.2565,267.0011],[17.9234,46.3033,264.7203],[17.9283,46.3113,217.6866],[17.9338,46.3151,243.0947],[17.9592,46.3165,191.1426],[17.9734,46.3211,211.9897],[17.9799,46.3216,231.5618],[18.002,46.3177,182.1841],[18.0097,46.3112,212.8489],[18.0147,46.3097,270.4456],[18.0327,46.3095,238.0818],[18.0453,46.3119,172.0682],[18.0615,46.3116,157.3256]]]]}}