{"type": "Feature","bbox": [18.3729,45.8003,18.8516,46.2109],"geometry": {"type": "MultiPolygon","coordinates": [[[[18.5936,45.8244,98.1565],[18.6041,45.8378,102.3042],[18.6121,45.8523,109.2391],[18.6166,45.8678,118.4166],[18.6233,45.8773,122.7444],[18.6357,45.8733,115.6013],[18.653,45.8972,89.6507],[18.6588,45.9014,91.4716],[18.7043,45.9106,85.5458],[18.7237,45.9086,94.6881],[18.7486,45.9019,86.7276],[18.7921,45.8807,83.9707],[18.8036,45.887,88.159],[18.8042,45.9002,91.968],[18.8062,45.9032,101.2767],[18.8025,45.902,101.8298],[18.8049,45.9107,92.4232],[18.8046,45.9164,81.5],[18.8024,45.9192,81.5],[18.7888,45.9259,81.5],[18.7862,45.9299,102.5098],[18.7895,45.9324,97.0484],[18.8162,45.9391,95.1466],[18.8239,45.9429,112.8343],[18.8239,45.9495,90.5109],[18.817,45.9577,95.692],[18.8246,45.9817,83.5054],[18.8368,46.003,84.1362],[18.85,46.0164,84.5386],[18.8516,46.0203,84.5316],[18.8446,46.0295,85.4874],[18.8309,46.0377,90.2579],[18.7931,46.0261,84.1282],[18.7412,46.0249,85.074],[18.7336,46.0262,84.9504],[18.727,46.0345,85.7613],[18.7268,46.0472,92.6726],[18.7301,46.0503,92.5198],[18.7436,46.0555,85.1035],[18.7495,46.0627,84.5563],[18.7508,46.0819,138.6357],[18.7552,46.0892,133.7536],[18.759,46.0919,108.9118],[18.7853,46.1019,82.0],[18.7573,46.1124,139.7366],[18.7294,46.1133,143.2849],[18.7148,46.1201,142.4192],[18.7051,46.1289,148.3006],[18.6793,46.1365,174.8428],[18.6672,46.1474,177.3586],[18.6448,46.16,193.2711],[18.6339,46.1705,238.821],[18.6188,46.178,252.3017],[18.611,46.188,286.4567],[18.5872,46.1892,261.2026],[18.5696,46.2015,258.5872],[18.5631,46.1978,257.1058],[18.5586,46.1976,278.0738],[18.5466,46.2074,243.1662],[18.5286,46.2109,228.5602],[18.5267,46.2096,271.4673],[18.5271,46.2072,228.1393],[18.5414,46.1934,270.2996],[18.5449,46.1757,222.8876],[18.541,46.172,201.5182],[18.528,46.1659,221.0625],[18.5332,46.1569,179.2927],[18.5326,46.1542,178.0621],[18.5173,46.1488,177.41],[18.5129,46.1425,254.8049],[18.5047,46.1396,222.5947],[18.5008,46.1352,199.1037],[18.5037,46.1279,270.917],[18.5041,46.119,237.7813],[18.5027,46.1152,240.9722],[18.4933,46.1101,238.3024],[18.4957,46.104,238.1852],[18.4955,46.0981,207.6975],[18.4907,46.0914,204.5331],[18.4771,46.0823,197.3318],[18.4776,46.0801,194.7777],[18.4832,46.078,192.2837],[18.4843,46.0749,191.6399],[18.484,46.0674,181.7185],[18.4789,46.0588,149.233],[18.4745,46.0544,173.8908],[18.4649,46.0523,165.3709],[18.4558,46.0457,168.4144],[18.4445,46.0442,157.7748],[18.4374,46.0415,185.2105],[18.4331,46.0362,199.2873],[18.4285,46.0343,203.8629],[18.4241,46.0352,209.5917],[18.4168,46.0426,216.9847],[18.4111,46.0443,213.039],[18.3899,46.0427,169.1384],[18.3829,46.0437,142.6948],[18.377,46.0411,167.8812],[18.3732,46.0353,180.2625],[18.374,46.0242,204.159],[18.3809,46.0192,182.0759],[18.3926,46.0175,169.9572],[18.3975,46.0118,156.6962],[18.3978,46.0069,188.0399],[18.3885,45.9881,168.7817],[18.377,45.9838,145.9668],[18.3729,45.9838,163.1778],[18.3731,45.9803,161.923],[18.3752,45.9767,156.3643],[18.38,45.9738,133.6846],[18.3889,45.9759,153.6984],[18.3977,45.9805,161.2822],[18.4039,45.9806,157.6133],[18.4057,45.9778,150.8379],[18.4025,45.9716,155.3107],[18.4031,45.9692,154.4828],[18.4209,45.955,146.7176],[18.4182,45.9469,145.5752],[18.4175,45.9347,142.685],[18.4105,45.9306,142.5512],[18.4094,45.9272,141.9471],[18.4099,45.9156,154.9906],[18.4152,45.9093,136.3168],[18.4242,45.9063,133.9732],[18.4445,45.9057,138.4361],[18.449,45.9013,102.0886],[18.4536,45.8925,104.1326],[18.4681,45.8862,134.1121],[18.477,45.8876,128.9988],[18.4791,45.8906,128.5412],[18.4805,45.9008,132.3836],[18.4922,45.9058,152.3325],[18.4955,45.9043,158.5504],[18.5009,45.8931,128.3413],[18.5178,45.8948,131.3043],[18.5268,45.8902,127.5719],[18.5359,45.8744,128.5725],[18.5369,45.8683,124.3672],[18.5363,45.8592,119.1443],[18.5294,45.854,113.7413],[18.5286,45.8483,106.7732],[18.5308,45.8461,106.6725],[18.5404,45.845,108.7922],[18.5443,45.8424,108.0748],[18.5458,45.832,102.1823],[18.5525,45.8215,98.8188],[18.5496,45.8148,98.2627],[18.5495,45.8095,96.3766],[18.5573,45.8003,94.3632],[18.5746,45.8022,93.8533],[18.5561,45.8071,96.0736],[18.5936,45.8244,98.1565]]]]}
,"properties": {"GID_2": "HUN.2.2_1","GID_0": "HUN","country": "Hungary","GID_1": "HUN.2_1","province": "Baranya","NL_NAME_1": "NA","county": "Mohácsi","VARNAME_2": "NA","NL_NAME_2": "NA","TYPE_2": "Kistérség","ENGTYPE_2": "Subregion","CC_2": "NA","HASC_2": "NA","name": "Mohácsi.county","area_km2": 827.3187,"hist_schema_id": "Elevation0-9000","hist_area_km2": {"75": 114.0617,"100": 186.5222,"125": 183.1655,"150": 152.9691,"175": 75.8011,"200": 51.2322,"225": 24.6374,"250": 20.6446,"275": 12.5431,"300": 5.1103,"325": 0.6316}}}