{"type":"Feature","properties":{"ISO3166-1-Alpha-3":"HUN","country":"Hungary","fill":"#00F","id":"4904","name":"Sopron"},
"geometry":{"type": "Polygon","coordinates": [[[16.71678,47.69702,115.0705],[16.71157,47.70407,115.5],[16.70785,47.71461,115.872],[16.70247,47.7236,112.0],[16.68986,47.72957,112.0],[16.60977,47.75063,150.2901],[16.5678,47.75419,217.327],[16.53111,47.74298,277.9413],[16.52512,47.73331,245.1447],[16.52688,47.72014,234.9138],[16.5214,47.71153,240.3266],[16.51292,47.706,257.4433],[16.47303,47.69177,336.8009],[16.46114,47.68453,365.3173],[16.45453,47.68177,397.6871],[16.44988,47.68241,453.9281],[16.44492,47.68554,472.9545],[16.43913,47.69048,374.4927],[16.43179,47.68546,448.3282],[16.4166,47.66882,522.4336],[16.40781,47.66133,488.1876],[16.4259,47.65428,496.949],[16.48192,47.63895,474.5178],[16.50962,47.64314,501.7758],[16.55775,47.62984,324.6256],[16.5908,47.64719,217.939],[16.6284,47.64782,180.006],[16.68417,47.63842,136.9779],[16.69169,47.64719,115.2284],[16.68793,47.671,115.3094],[16.71678,47.69702,115.0705]]]}}