{"type":"Feature","properties":{"GID_2":"HUN.18.5_1","GID_0":"HUN","country":"Hungary","GID_1":"HUN.18_1","province":"Vas","NL_NAME_1":"NA","county":"Őriszentpéter","VARNAME_2":"Őriszentpéteri","NL_NAME_2":"NA","TYPE_2":"Kistérség","ENGTYPE_2":"Subregion","CC_2":"NA","HASC_2":"NA","name":"Őriszentpéter.county"},
"geometry":{"type": "MultiPolygon","coordinates": [[[[16.4993,46.9468,207.1871],[16.4766,46.9358,238.5113],[16.4758,46.9238,260.9749],[16.4697,46.9177,225.844],[16.4692,46.9094,249.8116],[16.4675,46.9073,242.5599],[16.4493,46.9112,269.4948],[16.4309,46.9089,273.1929],[16.4184,46.9094,275.0624],[16.4037,46.9041,264.3457],[16.3904,46.9019,278.718],[16.3803,46.8946,254.6378],[16.376,46.8871,285.6246],[16.3778,46.8842,284.4355],[16.3845,46.881,289.5593],[16.3829,46.8779,287.8514],[16.3724,46.8798,291.5843],[16.3586,46.8859,295.2057],[16.3511,46.887,288.8574],[16.3412,46.8864,305.2006],[16.3262,46.8825,292.4725],[16.3184,46.8768,314.9575],[16.3093,46.8583,309.8287],[16.3167,46.8573,309.0377],[16.3256,46.8491,293.6999],[16.3299,46.8473,294.4023],[16.3373,46.8492,290.7999],[16.339,46.8448,294.1408],[16.3454,46.8426,289.244],[16.3503,46.8308,260.9597],[16.3433,46.8294,269.95],[16.3423,46.8231,234.8703],[16.339,46.817,225.1896],[16.3375,46.8059,285.955],[16.3197,46.8011,285.9911],[16.312,46.7959,293.6566],[16.3099,46.7891,279.4605],[16.3102,46.781,239.5924],[16.3149,46.7782,274.803],[16.318,46.7783,266.6184],[16.3259,46.7718,233.5974],[16.3189,46.7564,294.7704],[16.3244,46.7516,285.4725],[16.3314,46.7499,293.341],[16.3332,46.7447,288.2174],[16.3395,46.7366,265.4961],[16.3447,46.7331,277.8],[16.3531,46.7144,214.137],[16.3677,46.7199,235.6432],[16.3761,46.7127,232.4974],[16.394,46.7195,207.01],[16.4021,46.7247,221.1518],[16.4072,46.7389,195.5267],[16.4151,46.7522,222.0811],[16.4169,46.7586,232.7087],[16.417,46.7671,241.1152],[16.4084,46.7753,272.6381],[16.4087,46.778,242.3465],[16.4119,46.7808,212.4643],[16.4265,46.7873,210.8217],[16.4386,46.7877,209.98],[16.4449,46.7833,207.7262],[16.4502,46.7828,206.9478],[16.4672,46.7842,215.8863],[16.4806,46.7882,227.2942],[16.4963,46.7989,237.7662],[16.5159,46.8052,248.5026],[16.5171,46.8299,248.5394],[16.5196,46.836,207.4202],[16.5365,46.8397,198.8296],[16.551,46.8453,194.6266],[16.5588,46.8456,205.0016],[16.5671,46.8437,188.6658],[16.5722,46.8446,187.8494],[16.5921,46.8708,227.6205],[16.5972,46.8899,243.4811],[16.6011,46.8965,254.0978],[16.608,46.902,249.3041],[16.6186,46.9052,243.776],[16.6051,46.9195,251.0654],[16.6019,46.9272,248.6096],[16.5825,46.9272,258.9845],[16.5797,46.9284,264.1104],[16.5803,46.9333,247.858],[16.5734,46.9477,237.8473],[16.5731,46.9551,225.5516],[16.5749,46.9617,221.0258],[16.5713,46.9657,217.9175],[16.5413,46.9585,223.8055],[16.5338,46.9511,229.1232],[16.5226,46.9487,226.2611],[16.5137,46.9436,233.7764],[16.5074,46.9433,225.6502],[16.4993,46.9468,207.1871]]]]}}