{"type": "Feature","bbox": [17.0112,47.6911,17.626,48.0208],"geometry": {"type": "MultiPolygon","coordinates": [[[[17.2127,48.0208,137.6498],[17.2052,48.0175,136.8271],[17.1918,48.0172,129.3736],[17.1815,48.015,129.7327],[17.1624,48.0089,130.1684],[17.1582,48.0045,130.9413],[17.1355,47.9944,130.3332],[17.1363,47.9938,129.6616],[17.1327,47.9913,129.7004],[17.0959,47.9713,130.2519],[17.1009,47.9676,128.735],[17.1183,47.9613,127.569],[17.1112,47.9548,127.6855],[17.1091,47.95,128.2299],[17.1019,47.9425,128.7574],[17.0922,47.9348,128.4607],[17.114,47.9278,127.5426],[17.104,47.9109,126.6028],[17.0969,47.9047,128.5438],[17.1054,47.8997,125.4122],[17.0865,47.8749,124.584],[17.0817,47.8749,123.8444],[17.0791,47.878,123.881],[17.05,47.8723,125.7471],[17.0509,47.8705,127.0217],[17.0413,47.8673,125.3085],[17.019,47.8688,132.3582],[17.0112,47.8588,129.5605],[17.0528,47.8383,122.9863],[17.0479,47.8333,122.6552],[17.051,47.8317,122.7571],[17.0482,47.8288,123.1054],[17.0621,47.8232,123.8918],[17.061,47.8205,123.5853],[17.0757,47.8087,120.4199],[17.0731,47.8086,119.0236],[17.0548,47.798,118.3642],[17.0522,47.7944,117.9841],[17.0595,47.7866,117.4778],[17.0621,47.7781,116.5963],[17.0651,47.7782,117.9436],[17.0683,47.7679,115.1042],[17.0669,47.7667,118.5975],[17.0697,47.7575,117.1024],[17.071,47.7577,116.7655],[17.072,47.7504,115.326],[17.0715,47.7286,120.9833],[17.0755,47.7235,117.1733],[17.1014,47.7025,119.719],[17.1055,47.7103,117.2025],[17.111,47.7128,116.4418],[17.1272,47.7136,124.8132],[17.1424,47.7165,122.4005],[17.1592,47.7166,139.3247],[17.1723,47.7141,123.0549],[17.1876,47.714,116.1566],[17.2004,47.7146,113.2772],[17.212,47.7172,114.4832],[17.2464,47.7179,114.0852],[17.2677,47.7219,117.2742],[17.2739,47.7248,104.9012],[17.2781,47.7295,112.3744],[17.3089,47.7302,112.429],[17.3252,47.7279,117.931],[17.3352,47.7204,115.9492],[17.3362,47.7188,111.7315],[17.334,47.7154,111.8764],[17.3369,47.7132,112.3247],[17.3441,47.7139,114.6799],[17.3471,47.7193,112.6605],[17.3519,47.7162,112.0174],[17.3546,47.7117,111.4735],[17.3577,47.7105,112.1171],[17.3853,47.714,111.519],[17.3924,47.7217,112.3069],[17.4087,47.7221,111.6559],[17.4119,47.7195,111.1165],[17.4103,47.7154,118.6384],[17.4116,47.7119,112.3344],[17.4144,47.711,119.2723],[17.4198,47.7136,116.9487],[17.4231,47.7115,112.3142],[17.4211,47.7084,112.2708],[17.4146,47.708,112.8073],[17.4158,47.7036,115.2486],[17.4217,47.7013,116.9471],[17.4309,47.7012,112.998],[17.4371,47.6925,115.5291],[17.44,47.6911,114.301],[17.4642,47.6964,117.1145],[17.4828,47.6974,114.3179],[17.4881,47.7011,111.5383],[17.4877,47.7102,111.8862],[17.485,47.7132,113.6664],[17.4707,47.719,112.508],[17.4696,47.7232,112.5978],[17.4725,47.7314,114.6842],[17.4692,47.7345,115.2665],[17.4564,47.7394,114.5727],[17.4417,47.7622,113.5126],[17.4447,47.7684,114.4279],[17.4585,47.7718,114.2711],[17.4632,47.78,114.7748],[17.467,47.782,116.6825],[17.5073,47.7832,110.6056],[17.5139,47.7868,111.4956],[17.5187,47.7939,113.7712],[17.5312,47.7922,113.2255],[17.5447,47.7925,113.5796],[17.5679,47.8011,115.0312],[17.5903,47.8011,116.3835],[17.6072,47.7986,114.0466],[17.6138,47.8015,112.227],[17.626,47.811,112.3029],[17.609,47.8224,109.6708],[17.5957,47.8233,118.0326],[17.5744,47.8154,111.0085],[17.567,47.8166,109.5645],[17.5534,47.8332,115.9111],[17.5462,47.8459,113.7759],[17.5351,47.8606,117.3479],[17.5246,47.8678,110.0],[17.5135,47.8673,112.499],[17.5,47.8706,116.014],[17.4763,47.8816,117.9467],[17.4624,47.8854,114.6217],[17.4507,47.8936,128.5925],[17.4354,47.9193,136.2794],[17.4027,47.9559,118.0],[17.3914,47.9638,119.9879],[17.3792,47.9597,126.156],[17.3762,47.9613,115.6283],[17.3678,47.9723,125.4981],[17.348,47.991,124.9057],[17.3345,47.9979,127.5],[17.3122,47.9997,127.5],[17.2863,47.9971,128.0],[17.2584,48.0014,133.2633],[17.2509,48.0094,137.0306],[17.2511,48.0163,129.6528],[17.2463,48.0203,125.7561],[17.2291,48.0185,138.2205],[17.2127,48.0208,137.6498]]]]}
,"properties": {"GID_2": "HUN.8.4_1","GID_0": "HUN","country": "Hungary","GID_1": "HUN.8_1","province": "Gyor-Moson-Sopron","NL_NAME_1": "NA","county": "Mosonmagyaróvár","VARNAME_2": "NA","NL_NAME_2": "NA","TYPE_2": "Kistérség","ENGTYPE_2": "Subregion","CC_2": "NA","HASC_2": "NA","name": "Mosonmagyaróvár.county","area_km2": 936.7183,"hist_schema_id": "Elevation0-9000","hist_area_km2": {"75": 0.0142,"100": 26.5417,"125": 895.3462,"150": 14.8161}}}