{"type":"Feature","properties":{"GID_2":"HUN.16.11_1","GID_0":"HUN","country":"Hungary","GID_1":"HUN.16_1","province":"Szabolcs-Szatmár-Bereg","NL_NAME_1":"NA","county":"Vásárosnamény","VARNAME_2":"Fehérgyarmati","NL_NAME_2":"NA","TYPE_2":"Kistérség","ENGTYPE_2":"Subregion","CC_2":"NA","HASC_2":"NA","name":"Vásárosnamény.county"},
"geometry":{"type": "MultiPolygon","coordinates": [[[[22.2543,48.0767,126.3953],[22.2889,48.0806,131.3884],[22.2947,48.0785,121.565],[22.314,48.0664,115.1061],[22.3284,48.0728,111.3421],[22.3477,48.0769,110.4929],[22.3581,48.0701,111.1051],[22.3563,48.0646,110.5698],[22.3574,48.0601,110.4702],[22.3824,48.0703,124.4549],[22.3838,48.0728,109.8471],[22.383,48.0752,109.8375],[22.3724,48.0774,109.6575],[22.3702,48.0806,113.1428],[22.3737,48.0844,109.2482],[22.3855,48.0872,116.7008],[22.389,48.0862,118.2574],[22.3979,48.0747,113.1603],[22.4016,48.0729,110.631],[22.4147,48.0701,112.2372],[22.4296,48.074,109.7338],[22.4331,48.0736,113.9902],[22.4334,48.0714,110.3076],[22.4295,48.0675,107.9659],[22.4302,48.0648,110.0165],[22.4333,48.0634,112.0114],[22.4514,48.0661,110.6281],[22.4612,48.0702,108.8751],[22.4676,48.0699,109.728],[22.4694,48.0677,109.9526],[22.4633,48.0641,107.2366],[22.4609,48.0602,111.6124],[22.4639,48.0554,110.7428],[22.4676,48.0537,110.6809],[22.4711,48.0541,109.6265],[22.4733,48.0561,112.678],[22.4736,48.0648,111.2757],[22.4956,48.0693,108.6058],[22.5027,48.0692,110.959],[22.5192,48.0636,112.0218],[22.5376,48.0631,112.1555],[22.5405,48.0662,112.0821],[22.5319,48.0705,112.3834],[22.5309,48.0741,115.5953],[22.5359,48.0767,111.8299],[22.5503,48.0767,112.2109],[22.5613,48.0796,112.9794],[22.5623,48.0825,112.7511],[22.5562,48.0877,112.3728],[22.5577,48.0921,114.0041],[22.5715,48.0931,117.5478],[22.5802,48.0969,106.2546],[22.5844,48.0955,113.6198],[22.5902,48.0894,112.8161],[22.5939,48.0887,112.8932],[22.5985,48.0905,114.6088],[22.6038,48.104,113.6844],[22.6016,48.1077,113.1824],[22.5902,48.1084,117.9523],[22.5985,48.1133,112.0397],[22.5993,48.1203,110.9871],[22.5976,48.1238,111.0074],[22.5949,48.1475,110.7861],[22.6049,48.1424,111.1802],[22.6036,48.1482,111.2454],[22.5936,48.1534,112.2731],[22.5923,48.1592,111.0362],[22.5853,48.1586,112.1229],[22.583,48.1611,111.2404],[22.5811,48.1702,112.5067],[22.5722,48.17,111.3886],[22.5686,48.1871,113.7188],[22.5773,48.1879,120.9603],[22.5758,48.1992,110.8384],[22.5628,48.1986,113.3661],[22.556,48.201,110.7703],[22.546,48.2092,109.1518],[22.5365,48.2116,108.9995],[22.536,48.2144,109.9368],[22.5302,48.2139,109.324],[22.5269,48.216,109.6898],[22.5247,48.2254,108.6956],[22.5157,48.2252,108.9106],[22.5146,48.2306,118.1495],[22.5224,48.2373,124.5021],[22.5034,48.2417,107.106],[22.5027,48.2455,108.0122],[22.5043,48.2466,108.0122],[22.5024,48.25,107.3733],[22.4914,48.2578,111.8021],[22.4858,48.2571,137.7008],[22.4806,48.2518,189.4382],[22.4739,48.2512,213.0766],[22.4736,48.2466,165.9317],[22.4634,48.2459,120.7795],[22.4536,48.2468,107.0606],[22.4504,48.2501,108.1827],[22.4428,48.2533,106.254],[22.4262,48.2528,106.3517],[22.434,48.2482,107.2873],[22.4232,48.2495,106.4866],[22.418,48.2529,105.697],[22.3964,48.2514,105.3171],[22.3919,48.2477,105.6341],[22.3833,48.2457,106.1247],[22.3732,48.2389,106.1389],[22.3654,48.2475,106.1224],[22.3557,48.2525,106.315],[22.3558,48.2646,117.0712],[22.348,48.2686,119.357],[22.3393,48.2793,111.0291],[22.3398,48.2844,114.0729],[22.3369,48.2903,110.6474],[22.340699999999998,48.2997,105.2274],[22.3394,48.3054,105.8753],[22.3339,48.3091,104.7599],[22.3336,48.3113,105.0837],[22.3277,48.3106,104.6405],[22.3248,48.312,104.7491],[22.3242,48.3165,104.656],[22.3192,48.3159,105.2506],[22.3147,48.3221,104.8806],[22.3131,48.3338,103.7834],[22.3206,48.341,103.827],[22.3179,48.3594,103.854],[22.3167,48.3593,103.0415],[22.3176,48.3632,103.5488],[22.3146,48.3641,103.4196],[22.3087,48.3602,103.3888],[22.3022,48.3609,103.3289],[22.298,48.3578,103.4472],[22.2923,48.3586,103.5586],[22.2916,48.3631,103.2383],[22.283,48.362,103.7746],[22.2714,48.3679,104.6773],[22.2506,48.3666,104.9756],[22.2438,48.3647,105.454],[22.2427,48.3622,106.4994],[22.254,48.3551,110.3826],[22.256,48.3462,109.7273],[22.236,48.3369,105.2551],[22.2285,48.328,108.0053],[22.2272,48.3233,106.19],[22.2286,48.3206,108.7659],[22.2357,48.3179,108.0081],[22.2357,48.315,109.5436],[22.2102,48.3087,110.3164],[22.2077,48.3037,117.2649],[22.2063,48.2926,115.5246],[22.2071,48.2891,115.1076],[22.2123,48.2872,116.8496],[22.2324,48.289,105.1518],[22.2398,48.2869,105.9082],[22.2469,48.2751,113.4873],[22.2556,48.2688,105.424],[22.2553,48.2578,107.4445],[22.2491,48.2554,107.1264],[22.2167,48.2575,114.2042],[22.2111,48.2589,118.9275],[22.2032,48.2665,114.5551],[22.1961,48.265,113.2157],[22.1956,48.2618,110.7874],[22.2086,48.2424,121.4048],[22.2094,48.2253,125.7229],[22.2136,48.2169,120.1834],[22.2109,48.2128,113.4425],[22.1963,48.2073,124.5292],[22.194,48.2017,112.9979],[22.196,48.1984,117.8725],[22.2083,48.1948,120.0027],[22.2086,48.1821,114.5265],[22.2065,48.1799,113.9292],[22.1998,48.1777,111.1791],[22.1797,48.1743,109.8524],[22.1681,48.1679,110.9426],[22.1649,48.159,111.2495],[22.1574,48.1494,114.0739],[22.1566,48.1376,114.0204],[22.1698,48.133,117.3257],[22.1899,48.1396,116.9853],[22.1985,48.1382,124.255],[22.2,48.1291,119.3289],[22.2036,48.1217,125.0398],[22.2038,48.0939,132.2061],[22.2054,48.0914,130.6559],[22.2121,48.0882,131.0108],[22.2095,48.0789,128.4765],[22.2195,48.0657,129.9678],[22.2246,48.0653,128.9867],[22.2391,48.0734,127.4578],[22.2543,48.0767,126.3953]]]]}}