{"type": "Feature","id": "4917","bbox": [20.18824,46.24592,20.61696,46.53256],"geometry": {"type": "Polygon","coordinates": [[[20.58565,46.44807,85.4137],[20.56617,46.46384,85.2355],[20.53083,46.48937,84.0577],[20.49745,46.51685,83.2224],[20.46211,46.53256,83.472],[20.37572,46.509,81.5001],[20.33253,46.51882,82.3221],[20.29719,46.52078,86.9252],[20.28148,46.49722,80.9143],[20.26185,46.43832,80.1029],[20.23829,46.41476,80.062],[20.22062,46.45599,81.4089],[20.19825,46.46731,78.4251],[20.18824,46.43366,78.0931],[20.18898,46.41002,81.0602],[20.19508,46.38898,81.0532],[20.1985,46.36599,74.0],[20.20354,46.35554,82.8781],[20.21559,46.34797,79.902],[20.21095,46.33165,81.4757],[20.21673,46.31684,78.5728],[20.22527,46.30305,77.6528],[20.22975,46.2899,78.0055],[20.22185,46.27566,78.7072],[20.24737,46.26281,77.0402],[20.26896,46.25888,77.5118],[20.32664,46.26555,77.9847],[20.36983,46.26555,78.1545],[20.41303,46.24984,79.2358],[20.47193,46.24592,80.0228],[20.51905,46.27144,84.2822],[20.54653,46.32641,84.4698],[20.58187,46.35586,86.013],[20.59929,46.38451,86.4995],[20.61696,46.41205,87.0242],[20.58492,46.40621,86.5168],[20.58565,46.44807,85.4137]]]}
,"properties": {"ISO3166-1-Alpha-3": "HUN","country": "Hungary","fill": "#00F","name": "Hódmezôvásárhely","area_km2": 735.4608,"hist_schema_id": "Elevation0-9000","hist_area_km2": {"75": 729.3333,"100": 6.1274}}}