{"type": "Feature","bbox": [20.4752,47.8776,21.102,48.2508],"geometry": {"type": "MultiPolygon","coordinates": [[[[20.7237,48.2508,126.4264],[20.7161,48.2421,126.1524],[20.7004,48.2394,126.9781],[20.6985,48.2266,136.131],[20.6899,48.2149,150.2114],[20.6865,48.2126,155.1337],[20.6589,48.2149,190.4868],[20.6482,48.2185,207.1172],[20.6403,48.2259,191.6408],[20.6363,48.2268,214.6978],[20.6141,48.218,342.4439],[20.6114,48.2152,355.5825],[20.6094,48.2054,254.6669],[20.5863,48.1968,250.1134],[20.5655,48.1831,322.3326],[20.5623,48.1791,335.5672],[20.5622,48.1718,394.5427],[20.5641,48.1696,377.1504],[20.5745,48.1653,333.9826],[20.5749,48.1587,359.5431],[20.5636,48.1503,443.4891],[20.5408,48.1444,439.9312],[20.54,48.1393,520.9031],[20.544,48.1327,673.2825],[20.5441,48.128,719.6673],[20.532,48.121,734.0991],[20.5301,48.1123,560.8448],[20.5096,48.1069,715.9957],[20.4999,48.1024,781.866],[20.478,48.0971,886.6698],[20.4788,48.0855,884.018],[20.4863,48.077,801.3552],[20.4874,48.0678,925.1928],[20.4907,48.0624,860.3113],[20.4913,48.0582,692.7462],[20.4892,48.0534,596.2701],[20.4752,48.0424,566.9156],[20.479,48.0361,487.567],[20.4876,48.0297,503.8048],[20.4955,48.0336,640.3036],[20.5036,48.0338,579.6395],[20.5138,48.0253,534.5791],[20.5381,48.0133,508.0617],[20.5666,48.012,587.7234],[20.609,47.9857,349.8619],[20.6182,47.9757,344.4347],[20.624,47.9765,314.551],[20.6311,47.983,234.7409],[20.6434,47.984,256.3583],[20.6479,47.982,244.2959],[20.6479,47.97,190.6303],[20.6509,47.9671,191.2832],[20.6641,47.9674,217.3875],[20.6831,47.9731,193.5984],[20.7022,47.9678,176.0283],[20.7047,47.9653,152.5645],[20.7051,47.9552,193.0486],[20.7098,47.9454,154.2213],[20.7145,47.9391,172.4848],[20.7257,47.9291,157.7309],[20.7531,47.9283,142.8836],[20.7675,47.9257,143.2566],[20.776,47.9262,131.7443],[20.7848,47.9287,131.2788],[20.7899,47.928,131.332],[20.7905,47.9257,130.6229],[20.7776,47.9067,120.385],[20.7677,47.9017,116.2959],[20.7666,47.8997,116.6553],[20.7865,47.886,101.3753],[20.8036,47.8776,100.4053],[20.8319,47.8829,98.3312],[20.8433,47.8816,101.4128],[20.8605,47.8931,95.4376],[20.8646,47.9018,100.4044],[20.8642,47.9126,100.4417],[20.8575,47.9171,100.2694],[20.8523,47.9247,100.3901],[20.8528,47.9624,102.2875],[20.8549,47.9673,102.4052],[20.8631,47.9719,101.3156],[20.8787,47.977,100.9294],[20.8835,47.9772,98.8229],[20.8916,47.9719,100.5626],[20.8996,47.963,99.4141],[20.9011,47.9562,99.771],[20.9042,47.9552,100.7207],[20.9292,47.9638,102.0498],[20.9435,47.9736,98.3912],[20.9616,47.969,98.1298],[20.9736,47.9711,98.2476],[20.9995,47.9943,100.8668],[21.0046,48.0057,105.4731],[21.0261,48.0169,104.5313],[21.0309,48.023,100.1672],[21.0307,48.0263,99.0819],[21.0217,48.0316,101.3763],[21.0242,48.0386,102.2319],[21.0176,48.0516,108.0047],[21.0193,48.0555,109.8965],[21.0263,48.0593,112.7835],[21.0403,48.0613,130.8269],[21.0524,48.0716,124.2679],[21.0714,48.0841,129.013],[21.0816,48.0887,122.7293],[21.0861,48.0945,121.4325],[21.0961,48.0968,110.5541],[21.102,48.1054,106.1703],[21.102,48.1103,107.205],[21.0964,48.1156,106.7473],[21.0645,48.1166,119.4662],[21.0604,48.121,118.1619],[21.0573,48.1284,123.9911],[21.0484,48.1328,130.9972],[20.9746,48.1209,146.1339],[20.9683,48.1215,139.0844],[20.9668,48.1263,138.8511],[20.968,48.1513,131.5838],[20.9701,48.1575,119.3356],[20.9307,48.1664,115.9213],[20.9158,48.1663,115.8306],[20.9045,48.1639,130.1164],[20.8995,48.1654,173.2919],[20.8944,48.1721,194.8397],[20.8932,48.1826,222.9465],[20.889,48.1913,231.2345],[20.8816,48.2017,238.1037],[20.8816,48.2244,213.5338],[20.8777,48.2289,232.5382],[20.8648,48.2328,203.0372],[20.8499,48.2229,193.0005],[20.8428,48.2162,176.9386],[20.8303,48.2173,183.7792],[20.8186,48.2162,158.8581],[20.8038,48.2066,122.327],[20.7948,48.197,119.2944],[20.767,48.1991,121.8712],[20.7506,48.2041,122.8307],[20.7478,48.2074,122.6696],[20.7494,48.215,122.5956],[20.7654,48.2208,122.6845],[20.7656,48.2239,122.7133],[20.7602,48.2336,123.1825],[20.7421,48.2486,125.2667],[20.7237,48.2508,126.4264]]]]}
,"properties": {"GID_2": "HUN.4.8_1","GID_0": "HUN","country": "Hungary","GID_1": "HUN.4_1","province": "Borsod-Abaúj-Zemplén","NL_NAME_1": "NA","county": "Miskolci","VARNAME_2": "NA","NL_NAME_2": "NA","TYPE_2": "Kistérség","ENGTYPE_2": "Subregion","CC_2": "NA","HASC_2": "NA","name": "Miskolci.county","area_km2": 1011.3486,"hist_schema_id": "Elevation0-9000","hist_area_km2": {"100": 232.6856,"125": 206.8093,"150": 82.7761,"175": 83.2301,"200": 68.6398,"225": 48.0088,"250": 33.1482,"275": 23.1716,"300": 17.5255,"325": 14.7819,"350": 13.6219,"375": 10.4675,"400": 9.0105,"425": 9.4499,"450": 10.6399,"475": 11.4619,"500": 11.1387,"525": 13.2507,"550": 15.985,"575": 16.8917,"600": 15.6297,"625": 12.9365,"650": 10.2003,"675": 7.6068,"700": 5.3828,"725": 4.0936,"750": 4.6741,"775": 5.3399,"800": 4.7876,"825": 2.9745,"850": 1.8697,"875": 1.714,"900": 0.9206,"925": 0.3966,"950": 0.1275}}}