{"type": "Feature","bbox": [19.1806,47.6305,19.4802,47.7741],"geometry": {"type": "MultiPolygon","coordinates": [[[[19.4235,47.7735,246.0959],[19.4132,47.7706,276.6659],[19.4096,47.7676,258.3044],[19.4092,47.7393,217.2989],[19.3993,47.7222,199.6861],[19.3949,47.7176,206.6948],[19.3826,47.7145,143.2099],[19.3682,47.7179,166.0422],[19.3585,47.7277,190.7578],[19.342,47.7283,239.4044],[19.3364,47.7266,252.9481],[19.3313,47.721,170.9867],[19.3257,47.7177,202.0253],[19.3023,47.7161,206.9186],[19.2908,47.7119,217.9458],[19.2821,47.7039,164.2392],[19.2764,47.7033,177.8612],[19.251,47.7171,139.5246],[19.2496,47.7204,144.1976],[19.2493,47.733,175.1357],[19.2449,47.7378,194.123],[19.2358,47.7428,171.7311],[19.2216,47.7462,140.1499],[19.2152,47.7456,140.0915],[19.2103,47.7379,174.0446],[19.2099,47.7338,144.5657],[19.221,47.7245,139.1564],[19.2221,47.7207,122.0845],[19.1933,47.6854,135.1843],[19.1919,47.6755,151.8498],[19.1807,47.6607,178.8968],[19.1806,47.6583,183.2675],[19.1876,47.6548,184.5968],[19.2055,47.6503,216.6019],[19.2549,47.6334,187.5939],[19.2746,47.6305,177.6266],[19.2878,47.6459,174.649],[19.2967,47.65,186.1898],[19.3434,47.6498,239.9971],[19.3739,47.6425,230.6514],[19.3894,47.6629,243.5619],[19.4218,47.6746,153.6532],[19.4304,47.6853,162.5757],[19.4316,47.6979,205.3383],[19.4363,47.702,216.8402],[19.4533,47.7021,234.0715],[19.479,47.6927,236.7462],[19.4802,47.7035,245.304],[19.4757,47.7106,236.8481],[19.4602,47.719,279.3152],[19.4419,47.7368,284.3571],[19.4324,47.7486,306.8929],[19.4341,47.7528,315.3278],[19.4485,47.7586,212.2403],[19.4528,47.766,227.6579],[19.4526,47.7686,207.7994],[19.4488,47.7713,163.2682],[19.4389,47.7741,205.7245],[19.4235,47.7735,246.0959]]]]}
,"properties": {"GID_2": "HUN.14.15_1","GID_0": "HUN","country": "Hungary","GID_1": "HUN.14_1","province": "Pest","NL_NAME_1": "NA","county": "Veresegyház","VARNAME_2": "Veresegyházi","NL_NAME_2": "NA","TYPE_2": "Kistérség","ENGTYPE_2": "Subregion","CC_2": "NA","HASC_2": "NA","name": "Veresegyház.county","area_km2": 163.0825,"hist_schema_id": "Elevation0-9000","hist_area_km2": {"125": 10.2445,"150": 27.7695,"175": 38.8833,"200": 35.0993,"225": 22.3784,"250": 15.8121,"275": 8.1887,"300": 3.794,"325": 0.9128}}}