{"type":"Feature","properties":{"GID_2":"HUN.18.4_1","GID_0":"HUN","country":"Hungary","GID_1":"HUN.18_1","province":"Vas","NL_NAME_1":"NA","county":"Kőszeg","VARNAME_2":"Kőszegi","NL_NAME_2":"NA","TYPE_2":"Kistérség","ENGTYPE_2":"Subregion","CC_2":"NA","HASC_2":"NA","name":"Kőszeg.county"},
"geometry":{"type": "MultiPolygon","coordinates": [[[[16.6331,47.4316,242.8842],[16.626,47.4386,255.9213],[16.6236,47.4367,257.598],[16.6216,47.4312,251.3777],[16.6165,47.4328,210.9127],[16.6136,47.4305,210.7013],[16.613,47.432,212.0917],[16.6078,47.4299,215.0852],[16.6064,47.4281,215.7767],[16.6075,47.4274,211.6494],[16.6011,47.4259,213.617],[16.6008,47.4246,219.9563],[16.5977,47.4242,214.6649],[16.598,47.4231,221.6544],[16.5891,47.4232,227.5427],[16.5888,47.4218,223.2387],[16.5926,47.4212,222.6561],[16.581,47.4189,269.2108],[16.5839,47.4172,274.2023],[16.5835,47.4157,282.8123],[16.5763,47.4128,299.6399],[16.5786,47.4099,276.527],[16.5752,47.4062,325.7972],[16.5613,47.4074,333.8182],[16.5475,47.406,322.883],[16.5411,47.4105,313.691],[16.5367,47.4095,337.283],[16.5314,47.4106,349.2357],[16.5281,47.409,345.0494],[16.5262,47.4108,331.7165],[16.5181,47.411,335.7845],[16.5149,47.4056,291.2603],[16.509,47.4054,345.7292],[16.5116,47.4008,432.5232],[16.5111,47.3969,489.3052],[16.4977,47.3894,437.6085],[16.4977,47.3967,366.6367],[16.4951,47.3963,386.4733],[16.4942,47.3945,403.2109],[16.49,47.3949,397.7473],[16.4888,47.398,377.1115],[16.4908,47.4001,346.1301],[16.485,47.3983,429.4481],[16.4862,47.4027,407.1784],[16.4919,47.4061,312.1871],[16.4883,47.4066,342.1035],[16.4889,47.4076,315.0575],[16.4865,47.4093,299.7276],[16.4757,47.4094,310.9193],[16.4656,47.4132,307.6421],[16.4593,47.4135,310.1497],[16.4506,47.4105,308.0717],[16.4466,47.4075,356.097],[16.4486,47.3983,399.7355],[16.4566,47.3891,381.4405],[16.4564,47.3875,375.4012],[16.4626,47.3841,422.1931],[16.4563,47.3841,385.7902],[16.4526,47.3801,434.5239],[16.4523,47.3781,452.9295],[16.4579,47.3726,501.7696],[16.4581,47.3676,545.1459],[16.4523,47.3615,702.2317],[16.4535,47.3575,783.4142],[16.4476,47.3579,823.2823],[16.4385,47.3558,850.6641],[16.4349,47.3532,870.1708],[16.4457,47.3468,672.6218],[16.4494,47.34,553.8177],[16.4586,47.3396,544.1389],[16.4657,47.3343,600.6243],[16.4643,47.3314,549.1262],[16.4697,47.3256,442.0168],[16.4704,47.3191,344.7751],[16.4759,47.3125,296.2906],[16.4829,47.2981,285.8733],[16.4831,47.2918,287.665],[16.4906,47.2807,275.2126],[16.4852,47.2786,276.4772],[16.487,47.2776,268.6853],[16.5143,47.2786,305.1383],[16.5229,47.2819,286.9329],[16.5236,47.2848,294.01],[16.5159,47.2941,319.3203],[16.5173,47.2998,307.0478],[16.515,47.3055,329.2507],[16.5195,47.3122,303.785],[16.5344,47.3199,319.4993],[16.5445,47.3194,292.2888],[16.5489,47.3111,288.6537],[16.5575,47.3073,276.4185],[16.5661,47.2989,255.7097],[16.5722,47.2967,250.9582],[16.6094,47.2993,234.3452],[16.6255,47.2975,231.4993],[16.6338,47.3002,230.8592],[16.6379,47.3035,231.6704],[16.6384,47.3108,233.269],[16.642,47.3144,236.7193],[16.6513,47.3177,235.9101],[16.6729,47.319,230.7262],[16.6752,47.3204,230.9987],[16.6757,47.3236,232.6022],[16.6734,47.3317,235.9815],[16.6487,47.3426,248.5655],[16.6434,47.3495,255.9331],[16.6363,47.3532,264.643],[16.6186,47.3688,285.8904],[16.608,47.374,303.1518],[16.6106,47.3766,302.8754],[16.6288,47.3808,293.4573],[16.6298,47.3828,292.2851],[16.6266,47.3867,303.7835],[16.6272,47.3897,299.8486],[16.6411,47.3931,273.8876],[16.6453,47.3983,272.8322],[16.6435,47.416,236.652],[16.6457,47.4229,248.2223],[16.6331,47.4316,242.8842]]]]}}