{"type": "Feature","bbox": [19.6496,47.3104,20.3313,47.6777],"geometry": {"type": "MultiPolygon","coordinates": [[[[20.0026,47.6232,97.8096],[19.9899,47.6325,100.4721],[19.9916,47.6631,100.9998],[19.9849,47.6744,103.2513],[19.9783,47.6777,103.0658],[19.9662,47.6775,104.1083],[19.9364,47.6634,105.1704],[19.9161,47.662,106.5774],[19.9076,47.6597,106.9407],[19.879,47.6673,111.0837],[19.8713,47.648,109.5683],[19.8581,47.6397,111.4498],[19.8404,47.6314,113.0792],[19.834,47.6262,112.9412],[19.8254,47.6124,112.8108],[19.8038,47.6104,120.1473],[19.76,47.6234,125.5395],[19.7305,47.6186,114.1507],[19.7104,47.6124,112.4482],[19.7064,47.6098,111.8625],[19.7054,47.6057,111.695],[19.7093,47.5986,111.0099],[19.7088,47.5962,110.9645],[19.7066,47.5949,110.7998],[19.6935,47.5971,115.5603],[19.6767,47.597,111.096],[19.6496,47.5927,112.4358],[19.6512,47.5663,115.7627],[19.6567,47.5547,115.6424],[19.6665,47.55,115.2572],[19.6855,47.5374,113.4437],[19.6944,47.5262,111.8517],[19.6985,47.5236,111.7951],[19.7073,47.524,111.2376],[19.7343,47.5354,108.0724],[19.7817,47.5357,109.0957],[19.7831,47.5333,106.4849],[19.782,47.5301,105.6161],[19.7675,47.5159,107.1079],[19.7548,47.4983,106.9802],[19.7543,47.4955,107.3719],[19.7559,47.4933,112.6589],[19.7687,47.485,109.8779],[19.8089,47.4667,103.112],[19.8312,47.4376,103.4881],[19.8559,47.4209,104.9294],[19.9542,47.3834,92.6924],[19.9623,47.3752,92.9264],[19.9868,47.358,91.4918],[19.99,47.3406,89.5751],[20.0095,47.3233,87.5081],[20.0154,47.3156,87.7498],[20.0229,47.3225,87.729],[20.0286,47.3251,88.1247],[20.0455,47.3253,87.7618],[20.0581,47.3275,88.2725],[20.0756,47.3245,88.0585],[20.0845,47.327,87.4388],[20.0881,47.3296,87.9114],[20.0944,47.3387,87.5986],[20.107,47.3453,87.7349],[20.1134,47.3547,86.7555],[20.1167,47.356,88.0983],[20.1207,47.3539,86.9381],[20.1337,47.3372,86.7183],[20.1555,47.3304,85.2761],[20.1673,47.3287,85.5465],[20.1843,47.3224,86.6924],[20.1905,47.3183,86.1712],[20.195,47.3117,86.4087],[20.2276,47.3156,86.6832],[20.2485,47.3104,85.863],[20.2619,47.3187,86.3514],[20.2719,47.3318,86.4446],[20.2734,47.3393,93.1167],[20.2802,47.353,86.5287],[20.2771,47.3598,86.3953],[20.276,47.371,87.0409],[20.2651,47.3868,85.6966],[20.2682,47.3923,85.9581],[20.2752,47.399,86.1732],[20.2756,47.4135,87.0133],[20.279,47.4152,85.5812],[20.2929,47.4158,85.9749],[20.3046,47.4251,85.333],[20.3202,47.4272,86.5589],[20.325,47.4308,85.458],[20.3313,47.4422,85.4736],[20.2813,47.4766,85.5267],[20.2796,47.4835,86.2526],[20.276,47.4888,87.625],[20.2756,47.493899999999996,86.9716],[20.2872,47.5099,86.7394],[20.2881,47.5148,88.079],[20.2873,47.5252,89.0016],[20.2816,47.5359,89.7422],[20.2691,47.5439,91.3154],[20.2483,47.5462,92.1265],[20.2404,47.5566,93.8732],[20.2195,47.5638,97.2818],[20.2077,47.5751,99.2251],[20.204,47.585,107.5951],[20.1909,47.5946,109.4062],[20.1839,47.6032,102.541],[20.18,47.6051,106.5979],[20.1206,47.608,96.9184],[20.1106,47.6066,97.2715],[20.1026,47.5998,96.6589],[20.092,47.5953,96.4175],[20.0901,47.5908,97.3379],[20.0922,47.5869,98.0975],[20.1121,47.5738,98.1719],[20.1145,47.5703,103.3303],[20.0954,47.5633,96.3634],[20.0865,47.5631,99.1748],[20.0778,47.5655,96.898],[20.0651,47.5666,94.7524],[20.0185,47.5761,93.7636],[20.0053,47.5823,95.2901],[19.992,47.6011,96.1801],[19.9919,47.6057,96.2407],[19.9969,47.6177,98.0669],[20.0026,47.6232,97.8096]]]]}
,"properties": {"GID_2": "HUN.11.1_1","GID_0": "HUN","country": "Hungary","GID_1": "HUN.11_1","province": "Jász-Nagykun-Szolnok","NL_NAME_1": "NA","county": "Jászberény","VARNAME_2": "Jászberényi","NL_NAME_2": "NA","TYPE_2": "Kistérség","ENGTYPE_2": "Subregion","CC_2": "NA","HASC_2": "NA","name": "Jászberény.county","area_km2": 1119.2041,"hist_schema_id": "Elevation0-9000","hist_area_km2": {"75": 200.5519,"100": 852.9554,"125": 65.5968,"150": 0.1}}}