{"type":"Feature","properties":{"ISO3166-1-Alpha-3":"HUN","country":"Hungary","fill":"#F00","id":"3175","name":"Jász-Nagykun-Szolnok"},
"geometry":{"type": "Polygon","coordinates": [[[20.99451,47.23598,84.9461],[21.02293,47.28603,85.0076],[21.0279,47.34951,86.371],[21.0187,47.3968,86.9628],[21.00175,47.44413,86.2689],[20.98986,47.52883,87.1063],[20.97663,47.56893,89.1031],[20.94573,47.58888,90.1036],[20.91328,47.59172,89.2206],[20.88113,47.60169,89.2444],[20.84258,47.62857,88.3255],[20.81923,47.67936,87.7755],[20.79153,47.67745,108.404],[20.77406,47.67234,98.5812],[20.76807,47.66505,112.9059],[20.76331,47.65533,101.1644],[20.74998,47.64267,105.5247],[20.72001,47.63435,103.7902],[20.70978,47.62789,91.4658],[20.71577,47.61601,103.1172],[20.71236,47.6096,110.5949],[20.70926,47.60544,93.0469],[20.7043,47.60293,91.6877],[20.69531,47.60172,105.1606],[20.69531,47.59549,88.4232],[20.68931,47.57787,88.3781],[20.51237,47.49682,91.4409],[20.50348,47.48876,85.7194],[20.49811,47.4678,92.5314],[20.48457,47.45917,84.6298],[20.44829,47.4509,89.9621],[20.44292,47.44703,92.2557],[20.43041,47.43561,108.2535],[20.42101,47.43041,97.4478],[20.39651,47.42522,98.095],[20.37439,47.42966,87.1379],[20.31693,47.45555,85.5019],[20.29936,47.47088,84.4911],[20.2882,47.48852,86.4289],[20.2944,47.51064,86.447],[20.27755,47.54224,91.5924],[20.23942,47.55612,93.8732],[20.2204,47.57363,97.6333],[20.20975,47.59963,106.8542],[20.1959,47.60676,103.8537],[20.10134,47.58906,102.8937],[20.11085,47.57493,98.8295],[20.12645,47.56733,96.5994],[20.07715,47.55834,95.3762],[20.02393,47.58294,94.3809],[20.00718,47.62092,97.4967],[19.99984,47.66159,100.5489],[19.96067,47.67037,104.3576],[19.91251,47.66006,106.9208],[19.88977,47.66427,109.9955],[19.87272,47.65347,110.0119],[19.81794,47.60278,116.9512],[19.80564,47.60448,118.3557],[19.78322,47.61647,123.6103],[19.72875,47.61275,112.6684],[19.6748,47.59585,111.8392],[19.66457,47.56635,121.6687],[19.68369,47.5387,114.0934],[19.71542,47.52462,110.5358],[19.75293,47.52707,107.4068],[19.7581,47.50857,106.6821],[19.758,47.49224,108.2647],[19.79965,47.46741,103.2286],[19.81856,47.45002,104.7882],[19.9986,47.32895,87.6654],[20.00667,47.31489,87.6897],[20.00667,47.29685,87.5829],[20.00253,47.28166,106.8021],[20.00481,47.26766,101.4638],[20.02238,47.24913,88.3727],[20.06139,47.28575,87.8498],[20.13226,47.34143,86.0891],[20.19301,47.29081,85.7171],[20.26135,47.25284,86.6136],[20.28736,47.21902,84.2649],[20.27971,47.20637,84.4299],[20.24871,47.19054,83.0761],[20.26894,47.16172,83.1405],[20.30438,47.1516,88.0526],[20.30185,47.11869,87.6025],[20.27147,47.10351,88.2488],[20.22085,47.09845,88.3841],[20.19353,47.10932,78.5],[20.17799,47.11518,88.7998],[20.16448,47.11835,84.5195],[20.11454,47.14401,87.4289],[20.05638,47.15195,88.646],[20.05111,47.10364,87.5502],[20.08346,47.05814,86.5345],[20.13906,47.02447,89.9667],[20.20211,47.00762,83.0424],[20.1464,46.9793,82.4358],[20.11188,46.96168,90.0906],[20.10568,46.95372,82.4682],[20.11198,46.94556,82.9116],[20.12645,46.94225,82.9959],[20.14268,46.94044,82.1654],[20.15405,46.93695,85.3367],[20.15405,46.93075,84.0977],[20.13617,46.91218,82.0987],[20.12697,46.91331,81.8503],[20.10878,46.92427,82.0475],[20.08635,46.92582,80.9427],[20.08666,46.90964,81.9703],[20.1063,46.90112,81.8719],[20.09193,46.88236,82.7187],[20.06165,46.8836,82.3839],[20.02754,46.87476,84.979],[20.00584,46.85293,83.8424],[20.01183,46.85071,81.7383],[19.99798,46.82492,85.1763],[20.00191,46.81141,90.9191],[20.01586,46.80342,79.5],[20.03509,46.80686,81.4172],[20.06134,46.80066,80.951],[20.13472,46.76826,80.8582],[20.24996,46.79446,82.8665],[20.28582,46.77146,83.7587],[20.32251,46.76436,83.3475],[20.35476,46.78205,83.716],[20.3899,46.78944,83.8062],[20.42318,46.80335,84.1835],[20.40788,46.83642,82.7798],[20.41873,46.86538,82.7327],[20.4579,46.889,83.1978],[20.49325,46.89135,80.7374],[20.52694,46.88556,83.8675],[20.55526,46.9129,84.2698],[20.5842,46.90737,84.2564],[20.60735,46.92122,103.547],[20.62265,46.91404,83.468],[20.63526,46.90215,82.8087],[20.65479,46.90535,82.5778],[20.67401,46.9146,82.6044],[20.69014,46.91667,84.3461],[20.70574,46.92367,82.7156],[20.71629,46.95352,84.1919],[20.71112,46.98628,83.7342],[20.70151,46.99884,84.652],[20.70047,47.01434,82.9547],[20.73882,47.0456,85.4042],[20.73799,47.05894,84.2342],[20.73427,47.06483,86.0415],[20.74471,47.07801,83.1646],[20.76093,47.08583,85.0777],[20.8214,47.13676,84.5007],[20.84103,47.14167,85.3107],[20.86139,47.13754,84.8613],[20.87504,47.14348,84.5275],[20.88392,47.15624,84.6045],[20.89839,47.15976,88.8542],[20.90945,47.17219,85.9447],[20.91741,47.18539,84.1372],[20.94191,47.19175,85.9677],[20.95296,47.20208,84.0041],[20.96051,47.21567,83.7211],[20.97519,47.22929,84.2947],[20.99451,47.23598,84.9461]]]}}