{"type":"Feature","properties":{"GID_1":"HUN.11_1","GID_0":"HUN","country":"Hungary","province":"Jász-Nagykun-Szolnok","VARNAME_1":"NA","NL_NAME_1":"NA","TYPE_1":"Megye","ENGTYPE_1":"County","CC_1":"NA","HASC_1":"HU.JN","ISO_1":"NA","name":"Jász-Nagykun-Szolnok.province"},
"geometry":{"type": "MultiPolygon","coordinates": [[[[20.0216,46.8345,82.0184],[20.0143,46.8333,81.6501],[20.0035,46.8171,82.5126],[20.0035,46.8143,82.6865],[20.0198,46.8086,81.3404],[20.0346,46.7962,80.9136],[20.0479,46.8126,82.0949],[20.0541,46.8172,83.9625],[20.0573,46.8169,87.2604],[20.0583,46.8153,80.4482],[20.0575,46.8006,82.3527],[20.0751,46.7932,80.8741],[20.0785,46.7904,79.1544],[20.0781,46.7715,87.9898],[20.081,46.7677,82.395],[20.1013,46.7648,79.9245],[20.1066,46.7702,81.7828],[20.1088,46.7789,81.0626],[20.1131,46.7813,80.9702],[20.118,46.7814,81.1974],[20.129,46.7776,80.358],[20.1548,46.7629,80.1825],[20.1591,46.7623,80.2329],[20.1826,46.771,79.6917],[20.1874,46.7777,81.3832],[20.1914,46.7802,80.5225],[20.2145,46.7814,81.1612],[20.2152,46.7836,80.8664],[20.2086,46.7987,82.6222],[20.2108,46.8005,80.6252],[20.2167,46.8008,81.3567],[20.2356,46.8,82.9489],[20.2524,46.7943,83.1751],[20.2648,46.7844,84.6563],[20.3001,46.7693,83.6702],[20.3378,46.7685,84.6169],[20.3414,46.771,83.9563],[20.3377,46.7789,84.3182],[20.3398,46.7826,83.9333],[20.3459,46.7848,84.4774],[20.3814,46.7902,84.0493],[20.3962,46.7912,82.808],[20.4068,46.7939,83.2394],[20.411,46.7981,83.5809],[20.4185,46.8071,83.0292],[20.4129,46.813,82.6417],[20.4114,46.8206,82.3438],[20.4084,46.8261,82.5398],[20.4085,46.8507,83.406],[20.4049,46.8583,84.4599],[20.4049,46.8639,84.1962],[20.4163,46.874,84.2528],[20.4242,46.8871,84.3254],[20.4485,46.9011,84.5968],[20.5215,46.903,82.3833],[20.5379,46.9092,82.7494],[20.5445,46.9214,82.8561],[20.5508,46.9231,82.5085],[20.5641,46.9228,83.2762],[20.5783,46.9191,82.5159],[20.5967,46.9254,90.8972],[20.6387,46.9131,83.2358],[20.6703,46.9212,83.1597],[20.689,46.919,84.211],[20.6951,46.9217,84.439],[20.701,46.9279,83.4714],[20.7129,46.9361,84.5658],[20.7226,46.9401,83.3171],[20.7252,46.9444,83.3124],[20.7254,46.9555,82.9068],[20.7135,46.9745,80.6196],[20.7133,47.0034,84.8113],[20.7017,47.0174,83.1802],[20.7019,47.0284,84.6383],[20.7074,47.0362,83.2763],[20.7247,47.0452,84.7579],[20.7336,47.0562,84.6154],[20.7382,47.0585,84.1232],[20.751,47.0576,85.1363],[20.7592,47.047,82.3452],[20.7637,47.0447,83.5468],[20.7999,47.0442,84.1564],[20.8041,47.0456,84.6681],[20.8097,47.0548,84.6951],[20.8134,47.0577,84.7909],[20.8435,47.069,85.2735],[20.8541,47.0708,82.8136],[20.8456,47.081,83.0283],[20.8446,47.0853,84.3525],[20.8462,47.115,84.9149],[20.8498,47.1186,84.9146],[20.859,47.1224,84.5616],[20.8612,47.1247,84.1416],[20.8513,47.137,82.909],[20.8513,47.1562,83.5756],[20.8529,47.1624,83.8932],[20.8774,47.1754,83.378],[20.8869,47.1787,83.267],[20.9096,47.1845,84.2076],[20.9337,47.1884,84.6098],[20.939,47.1909,85.6052],[20.9491,47.1977,83.9366],[20.9598,47.2082,83.9204],[20.9669,47.2279,83.5017],[20.9717,47.2341,83.2092],[20.9895,47.2393,84.3661],[21.0037,47.2388,84.9057],[21.0066,47.2452,84.4718],[21.0172,47.2556,84.3428],[21.0219,47.2624,84.3548],[21.0224,47.275,84.7682],[21.0263,47.2846,84.8563],[21.0261,47.3267,85.6339],[21.0337,47.3443,84.7373],[21.0341,47.3494,90.7426],[21.0176,47.3782,86.4314],[21.0166,47.3916,86.0961],[21.0127,47.3999,86.1513],[21.0121,47.4147,85.9131],[21.0001,47.4315,86.0659],[20.999,47.4512,86.4434],[20.994,47.4639,86.4786],[20.9903,47.4694,86.295],[20.991,47.4821,86.3169],[20.9972,47.4922,87.3344],[20.9919,47.4975,87.8512],[20.9827,47.5128,87.4442],[20.9943,47.5315,87.9581],[20.9904,47.5402,89.1198],[20.9897,47.561,89.4262],[20.9851,47.5681,89.6863],[20.9607,47.5818,91.2524],[20.9492,47.5854,90.647],[20.9114,47.5856,88.9681],[20.8905,47.5779,89.6326],[20.8719,47.5776,89.9665],[20.8495,47.5838,91.9313],[20.8395,47.5896,91.8653],[20.8285,47.5979,86.7636],[20.8252,47.6067,90.7492],[20.8255,47.6183,88.1031],[20.8204,47.6491,88.1299],[20.8218,47.656,88.1502],[20.8267,47.6652,89.6054],[20.83,47.6684,96.8855],[20.8294,47.6708,105.5391],[20.8198,47.6828,88.3451],[20.8108,47.6895,91.1259],[20.7977,47.6958,88.1401],[20.7896,47.6946,88.2755],[20.7733,47.685,87.9901],[20.768,47.6752,103.004],[20.7693,47.67,90.483],[20.7678,47.6605,106.1047],[20.7614,47.6517,107.2393],[20.7365,47.6495,88.4627],[20.7252,47.6446,89.8042],[20.7182,47.6382,98.7583],[20.7167,47.6311,96.3332],[20.7189,47.6232,87.5],[20.7184,47.6197,100.9724],[20.701,47.6005,97.3327],[20.6963,47.593,91.3677],[20.6978,47.5902,93.1539],[20.7109,47.5803,92.0272],[20.7043,47.5679,86.2691],[20.692,47.5617,85.3071],[20.6579,47.5614,88.6862],[20.6565,47.5587,87.0],[20.6625,47.5499,88.6538],[20.656,47.5429,86.3151],[20.6336,47.5385,88.1461],[20.5904,47.5248,87.0],[20.5737,47.5144,88.7191],[20.5645,47.5066,88.3315],[20.5495,47.5035,87.0],[20.5287,47.5032,87.1091],[20.5237,47.5017,87.0],[20.5186,47.4982,87.0],[20.5144,47.4925,89.331],[20.5095,47.4828,103.4198],[20.5078,47.4756,97.1099],[20.4959,47.4602,84.7012],[20.4902,47.4587,85.1044],[20.4723,47.4613,87.6323],[20.4599,47.4575,87.4708],[20.4533,47.45,90.3712],[20.4511,47.4415,89.7461],[20.4394,47.4266,84.7915],[20.4262,47.4228,86.0358],[20.4195,47.4224,81.9634],[20.3751,47.4234,86.8039],[20.3735,47.4344,87.6935],[20.3689,47.4399,86.8343],[20.3607,47.4417,86.9104],[20.3313,47.4422,85.4736],[20.284,47.4736,85.155],[20.2813,47.4766,85.5267],[20.2755,47.4913,87.1612],[20.2765,47.4963,87.3316],[20.2878,47.5116,86.9342],[20.2873,47.5252,89.0016],[20.2816,47.5359,89.7422],[20.2691,47.5439,91.3154],[20.2483,47.5462,92.1265],[20.2404,47.5566,93.8732],[20.2195,47.5638,97.2818],[20.2077,47.5751,99.2251],[20.204,47.585,107.5951],[20.1909,47.5946,109.4062],[20.1819,47.6046,107.1942],[20.1206,47.608,96.9184],[20.1106,47.6066,97.2715],[20.1026,47.5998,96.6589],[20.092,47.5953,96.4175],[20.0901,47.5908,97.3379],[20.0922,47.5869,98.0975],[20.1121,47.5738,98.1719],[20.1145,47.5703,103.3303],[20.1118,47.5682,98.9831],[20.0935,47.563,101.1541],[20.0313,47.5729,94.0787],[20.0095,47.5794,95.9455],[20.0036,47.584,95.2999],[19.992,47.6011,96.1801],[19.9919,47.6057,96.2407],[19.9969,47.6177,98.0669],[20.0026,47.6232,97.8096],[19.9899,47.6325,100.4721],[19.9916,47.6631,100.9998],[19.9849,47.6744,103.2513],[19.9775,47.6779,103.2376],[19.9662,47.6775,104.1083],[19.9364,47.6634,105.1704],[19.9161,47.662,106.5774],[19.9076,47.6597,106.9407],[19.879,47.6673,111.0837],[19.8713,47.648,109.5683],[19.8581,47.6397,111.4498],[19.8404,47.6314,113.0792],[19.834,47.6262,112.9412],[19.8264,47.6132,112.8108],[19.8236,47.6119,115.4375],[19.8038,47.6104,120.1473],[19.7633,47.6229,128.883],[19.7555,47.6232,130.3024],[19.746,47.6202,114.6825],[19.7305,47.6186,114.1507],[19.7088,47.6117,111.9862],[19.7053,47.6071,111.7681],[19.7093,47.5986,111.0099],[19.7088,47.5962,110.9645],[19.7066,47.5949,110.7998],[19.6935,47.5971,115.5603],[19.6767,47.597,111.096],[19.6496,47.5927,112.4358],[19.6512,47.5663,115.7627],[19.6562,47.5552,116.5495],[19.6855,47.5374,113.4437],[19.6955,47.5252,112.8456],[19.7004,47.5233,111.5257],[19.7064,47.5237,112.1946],[19.7343,47.5354,108.0724],[19.7817,47.5357,109.0957],[19.7831,47.5333,106.4849],[19.782,47.5301,105.6161],[19.7675,47.5159,107.1079],[19.7548,47.4983,106.9802],[19.7543,47.4955,107.3719],[19.7559,47.4933,112.6589],[19.7687,47.485,109.8779],[19.8089,47.4667,103.112],[19.8312,47.4376,103.4881],[19.8559,47.4209,104.9294],[19.9214,47.395,100.261],[19.9521,47.3847,93.0345],[19.9623,47.3752,92.9264],[19.985,47.3597,90.9547],[19.9882,47.3548,89.9952],[19.99,47.3406,89.5751],[20.0095,47.3233,87.5081],[20.0154,47.3156,87.7498],[20.0145,47.3111,87.9562],[19.9988,47.2885,89.5589],[20.0007,47.2845,89.6265],[20.0009,47.2789,94.4263],[19.9945,47.269,88.3033],[19.9945,47.2652,91.9781],[20.0008,47.2584,92.4978],[20.0306,47.2523,89.0913],[20.0564,47.2386,88.4033],[20.0842,47.2173,88.3645],[20.0935,47.2041,88.9072],[20.0942,47.1876,88.0578],[20.0855,47.1747,87.8682],[20.0618,47.1606,88.6281],[20.0539,47.1513,88.9705],[20.0529,47.1272,88.1924],[20.0561,47.1202,86.4503],[20.057,47.1109,87.2702],[20.0611,47.1012,87.709],[20.0988,47.0428,88.4233],[20.0979,47.0241,86.1825],[20.0816,47.0138,86.4901],[20.1145,47.0023,85.4482],[20.128,46.9919,84.5905],[20.1215,46.979,83.1405],[20.1284,46.9671,84.284],[20.1281,46.9593,87.5957],[20.119,46.9595,85.8663],[20.1087,46.9621,91.4708],[20.1001,46.9617,92.3857],[20.0971,46.9584,90.544],[20.0979,46.9502,89.9854],[20.1021,46.9462,89.0429],[20.1073,46.9443,86.3884],[20.1385,46.9446,87.8072],[20.1456,46.9432,88.928],[20.1551,46.9356,87.1548],[20.1553,46.9236,90.9875],[20.1531,46.9197,85.9461],[20.1451,46.9141,82.5069],[20.1221,46.9067,84.7478],[20.1153,46.8978,82.0092],[20.0899,46.8815,84.792],[20.0889,46.875,80.7118],[20.0904,46.8701,84.409],[20.1088,46.8589,87.5514],[20.1103,46.8495,91.0963],[20.1089,46.8458,91.6307],[20.0485,46.8449,85.5927],[20.0216,46.8345,82.0184]]]]}}