{"type":"Feature","properties":{"GID_2":"HUN.2.5_1","GID_0":"HUN","country":"Hungary","GID_1":"HUN.2_1","province":"Baranya","NL_NAME_1":"NA","county":"Sásdi","VARNAME_2":"NA","NL_NAME_2":"NA","TYPE_2":"Kistérség","ENGTYPE_2":"Subregion","CC_2":"NA","HASC_2":"NA","name":"Sásdi.county"},
"geometry":{"type": "MultiPolygon","coordinates": [[[[18.3476,46.363,219.2824],[18.3393,46.3704,217.4033],[18.3333,46.3791,231.4532],[18.3334,46.3841,197.3677],[18.34,46.394,240.8469],[18.3396,46.3996,233.0579],[18.3283,46.4122,225.4522],[18.3123,46.4192,266.8301],[18.2961,46.4127,272.9469],[18.2701,46.4124,242.9915],[18.253,46.4074,121.5098],[18.1893,46.4082,110.5867],[18.1743,46.4051,125.8168],[18.1721,46.4008,116.5274],[18.1728,46.3907,114.3318],[18.1806,46.3812,116.3476],[18.1822,46.3698,115.9362],[18.2027,46.3595,127.3771],[18.204,46.3461,172.4031],[18.2024,46.3421,157.4101],[18.1758,46.3413,152.3981],[18.1647,46.3336,149.211],[18.1396,46.3283,118.9136],[18.1256,46.3276,135.5327],[18.1088,46.3246,167.6475],[18.1071,46.3208,169.2163],[18.109,46.3135,155.01],[18.1286,46.3017,128.395],[18.1295,46.2959,121.2276],[18.1254,46.2932,121.1701],[18.1094,46.2945,160.3967],[18.1006,46.307,177.6281],[18.0875,46.3113,175.1944],[18.0453,46.3119,172.0682],[18.0327,46.3095,238.0818],[18.0147,46.3097,270.4456],[18.0097,46.3112,212.8489],[18.002,46.3177,182.1841],[17.9799,46.3216,231.5618],[17.9734,46.3211,211.9897],[17.9592,46.3165,191.1426],[17.9338,46.3151,243.0947],[17.9283,46.3113,217.6866],[17.9234,46.3033,264.7203],[17.9239,46.2565,267.0011],[17.9122,46.2345,264.1885],[17.9123,46.2185,231.2301],[17.9148,46.2159,246.9142],[17.9359,46.2077,195.2389],[17.9436,46.1948,232.2555],[17.9544,46.1848,255.0496],[17.9682,46.1876,221.0518],[17.9733,46.1913,233.8658],[17.9867,46.1921,287.0246],[17.9982,46.1967,276.6531],[18.0178,46.1944,296.9531],[18.0411,46.2046,232.2017],[18.0487,46.2012,251.1562],[18.0564,46.189,230.7662],[18.0649,46.1842,217.8352],[18.0805,46.2015,144.1466],[18.0812,46.2071,165.316],[18.0774,46.2121,151.7164],[18.0797,46.2147,160.2873],[18.0926,46.2137,195.4184],[18.1,46.2225,156.0808],[18.1052,46.2241,131.4216],[18.112,46.2236,130.6343],[18.1233,46.2191,134.4557],[18.1584,46.224,204.7703],[18.1608,46.2272,174.0905],[18.158,46.2324,205.0502],[18.1583,46.2349,209.2015],[18.1641,46.2433,203.3068],[18.1696,46.2572,190.3936],[18.1735,46.2598,200.9799],[18.1977,46.2587,248.3229],[18.2061,46.2529,223.2174],[18.2103,46.2465,203.1998],[18.2201,46.2429,185.9186],[18.2274,46.2437,199.0326],[18.2405,46.2414,228.7875],[18.258,46.2441,205.4058],[18.2615,46.2511,283.7921],[18.2686,46.2527,283.8599],[18.271,46.2549,241.7103],[18.2668,46.2611,288.5303],[18.2603,46.2648,277.7566],[18.2534,46.2715,252.057],[18.2464,46.2749,198.6334],[18.2488,46.2812,250.262],[18.2491,46.2918,156.0792],[18.2561,46.3001,187.1886],[18.2573,46.3111,200.5786],[18.2607,46.3132,209.4655],[18.2667,46.3134,208.8914],[18.2833,46.3078,239.0502],[18.291,46.3114,217.1209],[18.3019,46.3118,180.3994],[18.3127,46.3092,208.0345],[18.3176,46.3116,213.9709],[18.3162,46.3176,172.1473],[18.3004,46.3261,178.013],[18.2933,46.3364,161.8401],[18.2926,46.3528,184.773],[18.3003,46.3686,198.1082],[18.3042,46.3731,217.4151],[18.3085,46.3736,234.7903],[18.3147,46.3685,226.3088],[18.3228,46.366,233.9797],[18.3354,46.3591,231.851],[18.3403,46.3592,207.586],[18.3476,46.363,219.2824]]]]}}