{"type":"Feature","properties":{"featurecla":"River","scalerank":6,"rivernum":352,"dissolve":"352River","name":"Soroksari","name_alt":null,"note":null,"min_zoom":5.0,"strokeweig":0.25,"name_en":"Soroksari Duna","min_label":6.0},
"geometry":{"type": "LineString","coordinates": [[19.063378906250023,47.472674871869117,101.7943],[19.073876953125023,47.46710846561912,109.1295],[19.085107421875023,47.45831940311912,106.8907],[19.092529296875,47.44574616093162,114.523],[19.10302734375,47.41571686405662,100.5528],[19.104248046875,47.40534088749412,95.5],[19.100830078125,47.39569733280662,105.568],[18.993408203125,47.282245184369117,99.3031],[18.964599609375,47.23517487186912,97.2544],[18.954345703125,47.21076080936912,97.4609],[18.949365234375023,47.17731354374412,94.5],[18.957763671875,47.14850494999412,99.9654],[18.9765625,47.123407293744116,98.8746],[19.002099609375023,47.10150787968162,94.5],[18.970117187500023,47.087518621869116,97.5091],[18.961816406250023,47.08161041874412,98.2846],[18.95654296875,47.07294342655662,117.4699],[18.955712890625023,47.06403229374412,94.0],[18.96142578125,47.056903387494117,99.4004],[18.975341796875,47.053729559369117,96.9351],[18.973876953125,47.047723699994116,96.8681],[18.970947265625,47.042352606244116,106.4639],[18.968017578125,47.033221746869117,98.761]]}}