{"type": "Feature","bbox": [17.8799,47.3327,18.1831,47.6202],"geometry": {"type": "MultiPolygon","coordinates": [[[[18.1831,47.4764,233.206],[18.1747,47.4974,215.2335],[18.1736,47.5102,198.1537],[18.1626,47.5198,181.3604],[18.1606,47.5317,184.8212],[18.1375,47.5483,183.7355],[18.1333,47.5548,181.3955],[18.1326,47.564,169.2664],[18.1306,47.567,168.0765],[18.1001,47.5799,149.3719],[18.0851,47.5982,137.6542],[18.0341,47.5983,138.0653],[18.0269,47.6017,140.225],[18.0252,47.6163,131.937],[18.0151,47.6158,134.106],[18.0117,47.6194,133.6891],[18.0085,47.6202,133.6769],[18.0011,47.6181,138.7042],[17.9927,47.6096,142.9102],[17.9857,47.6079,142.2294],[17.9663,47.6081,141.7618],[17.9261,47.6164,128.5677],[17.9277,47.6019,130.8131],[17.917,47.5907,132.9177],[17.9159,47.5801,135.514],[17.9093,47.5608,141.4488],[17.9102,47.5532,141.7326],[17.92,47.5475,148.158],[17.9201,47.5442,150.5383],[17.9175,47.5413,151.8708],[17.9138,47.5403,149.7164],[17.8824,47.5398,148.607],[17.8833,47.5308,150.7048],[17.9028,47.5077,157.8086],[17.9043,47.5021,159.5941],[17.9023,47.4967,159.8451],[17.8859,47.4831,193.0853],[17.8843,47.4717,196.476],[17.8814,47.4659,204.5232],[17.882,47.4567,215.054],[17.8945,47.437,238.9086],[17.8957,47.4281,208.5504],[17.8944,47.4232,214.5612],[17.8799,47.4079,192.8254],[17.8806,47.379,229.9378],[17.8994,47.3789,284.1528],[17.9184,47.3847,213.1907],[17.9352,47.3843,265.4217],[17.946,47.3774,246.7221],[17.9478,47.368899999999996,224.3741],[17.9457,47.3661,263.0639],[17.9303,47.3615,335.584],[17.9285,47.3578,310.4949],[17.9543,47.3501,264.8052],[17.9566,47.3473,275.4622],[17.9573,47.3381,291.4716],[17.9588,47.3358,286.7617],[17.9818,47.3327,270.1396],[18.0049,47.3391,258.6295],[18.0241,47.3359,247.2303],[18.0341,47.3451,243.4154],[18.051,47.3517,253.3563],[18.0689,47.3564,253.0701],[18.0727,47.3603,236.2554],[18.0743,47.3649,262.0811],[18.0739,47.3839,221.093],[18.077,47.3871,245.8241],[18.0915,47.3927,228.1254],[18.097,47.3964,225.0559],[18.0971,47.4131,228.8734],[18.108,47.4277,234.7166],[18.1081,47.4432,231.3984],[18.1097,47.447,236.8255],[18.114,47.4499,243.8288],[18.1245,47.4529,253.4334],[18.1515,47.4434,270.793],[18.1802,47.4502,227.5341],[18.1825,47.454,268.5948],[18.1831,47.4764,233.206]]]]}
,"properties": {"GID_2": "HUN.12.3_1","GID_0": "HUN","country": "Hungary","GID_1": "HUN.12_1","province": "Komárom-Esztergom","NL_NAME_1": "NA","county": "Kisbér","VARNAME_2": "Kisbéri","NL_NAME_2": "NA","TYPE_2": "Kistérség","ENGTYPE_2": "Subregion","CC_2": "NA","HASC_2": "NA","name": "Kisbér.county","area_km2": 489.4174,"hist_schema_id": "Elevation0-9000","hist_area_km2": {"125": 16.7151,"150": 106.1165,"175": 82.0935,"200": 74.7414,"225": 66.7067,"250": 71.1333,"275": 46.894,"300": 19.7491,"325": 4.2917,"350": 0.9761}}}