{"type": "Feature","bbox": [19.2781,47.2258,19.6329,47.4989],"geometry": {"type": "MultiPolygon","coordinates": [[[[19.2781,47.4361,138.4406],[19.3001,47.4224,125.0218],[19.3118,47.4181,142.4557],[19.3229,47.4149,132.5871],[19.3462,47.4138,128.4757],[19.3577,47.402,128.0531],[19.3751,47.3907,130.597],[19.3939,47.3812,132.8743],[19.4103,47.3643,131.9962],[19.4108,47.3604,133.6258],[19.409,47.3588,135.0112],[19.3885,47.3573,128.5828],[19.3659,47.3477,122.3444],[19.3418,47.3311,124.9795],[19.3309,47.3261,121.541],[19.3284,47.321,125.0829],[19.3294,47.3075,120.1065],[19.3339,47.2992,128.9693],[19.3347,47.2933,120.6629],[19.33,47.2811,123.4846],[19.3466,47.2753,122.0404],[19.3643,47.2611,123.4646],[19.3909,47.2522,122.765],[19.4102,47.2402,122.0985],[19.4144,47.2405,127.6171],[19.4281,47.2502,136.4515],[19.4329,47.2506,128.0907],[19.4432,47.2471,123.6532],[19.4766,47.2288,139.2503],[19.4891,47.2258,135.8955],[19.5112,47.2318,139.3577],[19.528,47.2495,138.2248],[19.5456,47.2504,139.2465],[19.5594,47.2461,137.9175],[19.5662,47.2349,136.6398],[19.5709,47.2338,136.6559],[19.5812,47.2367,135.1917],[19.5825,47.2383,135.7992],[19.5754,47.2482,136.3894],[19.5762,47.2521,135.8053],[19.6109,47.2649,140.0752],[19.6134,47.2762,190.1105],[19.6262,47.2865,200.188],[19.6329,47.2942,182.6924],[19.6224,47.3013,213.0358],[19.6132,47.3108,216.3042],[19.6139,47.3133,209.8186],[19.6229,47.3208,192.7449],[19.6238,47.3288,186.5171],[19.6224,47.3328,165.0374],[19.5975,47.3691,140.7045],[19.5968,47.3933,149.0755],[19.6006,47.4017,150.6616],[19.6,47.4058,157.0077],[19.5866,47.4154,163.9729],[19.57,47.421,164.8235],[19.5668,47.424,165.7485],[19.5674,47.4267,172.8824],[19.5739,47.4331,147.1399],[19.575,47.4424,132.8332],[19.5787,47.4494,139.5676],[19.5783,47.455,135.0751],[19.5748,47.4581,133.6869],[19.5608,47.4625,138.1852],[19.5392,47.4733,142.897],[19.5279,47.4882,164.8509],[19.5128,47.4883,161.1613],[19.4997,47.4913,162.258],[19.4867,47.4985,172.8952],[19.4763,47.4989,165.8828],[19.4617,47.4945,178.3585],[19.4609,47.4746,230.7839],[19.4566,47.4651,209.0829],[19.4538,47.4633,200.25],[19.4441,47.4636,228.3284],[19.4359,47.4706,240.7346],[19.4257,47.4743,248.7758],[19.4069,47.4745,246.0363],[19.4008,47.4692,258.8569],[19.3941,47.4535,207.4199],[19.3822,47.449,183.8719],[19.3506,47.459,215.7632],[19.3332,47.4627,225.0473],[19.3223,47.4624,223.1317],[19.306,47.4588,194.4609],[19.2899,47.4529,138.8328],[19.2781,47.4361,138.4406]]]]}
,"properties": {"GID_2": "HUN.14.8_1","GID_0": "HUN","country": "Hungary","GID_1": "HUN.14_1","province": "Pest","NL_NAME_1": "NA","county": "Monor","VARNAME_2": "Monori","NL_NAME_2": "NA","TYPE_2": "Kistérség","ENGTYPE_2": "Subregion","CC_2": "NA","HASC_2": "NA","name": "Monor.county","area_km2": 491.5208,"hist_schema_id": "Elevation0-9000","hist_area_km2": {"125": 135.4468,"150": 164.5616,"175": 97.4413,"200": 65.6386,"225": 24.8052,"250": 3.4554,"275": 0.172}}}