{"type":"Feature","properties":{"ISO3166-1-Alpha-3":"HUN","country":"Hungary","fill":"#FF0","id":"4922","name":"Miskolc"},
"geometry":{"type": "Polygon","coordinates": [[[20.75409,48.20255,122.6515],[20.71109,48.22279,133.5534],[20.66557,48.20002,201.8224],[20.60667,48.16985,283.7313],[20.55862,48.14203,584.996],[20.5055,48.1395,610.0216],[20.47281,48.1134,549.8024],[20.49005,48.10135,869.4425],[20.49511,48.07794,785.9095],[20.4918,48.05495,665.6228],[20.52898,48.07103,804.218],[20.57957,48.07862,724.8662],[20.64027,48.08115,591.2456],[20.67315,48.05079,398.2965],[20.72627,48.0255,197.4744],[20.77938,48.00274,215.1897],[20.81985,48.00527,137.3732],[20.87044,48.01538,104.1307],[20.90332,48.04068,108.5164],[20.89826,48.06344,108.5131],[20.8755,48.09126,118.4253],[20.8755,48.12162,117.0931],[20.85526,48.15956,131.0074],[20.82744,48.18738,123.0501],[20.7895,48.20255,120.1538],[20.75409,48.20255,122.6515]]]}}