{"type":"Feature","properties":{"GID_2":"HUN.4.6_1","GID_0":"HUN","country":"Hungary","GID_1":"HUN.4_1","province":"Borsod-Abaúj-Zemplén","NL_NAME_1":"NA","county":"Mezőcsáti","VARNAME_2":"NA","NL_NAME_2":"NA","TYPE_2":"Kistérség","ENGTYPE_2":"Subregion","CC_2":"NA","HASC_2":"NA","name":"Mezőcsáti.county"},
"geometry":{"type": "MultiPolygon","coordinates": [[[[20.7212,47.7004,90.8416],[20.7244,47.6948,90.1023],[20.7315,47.6877,90.3822],[20.7442,47.6811,90.5229],[20.7627,47.6756,92.0185],[20.768,47.6752,103.004],[20.7741,47.686,89.0768],[20.7852,47.6929,89.2393],[20.7945,47.6957,88.6241],[20.7992,47.6952,88.8139],[20.8179,47.6845,89.1412],[20.8288,47.672,105.5391],[20.83,47.6684,96.8855],[20.8367,47.6671,99.7713],[20.8416,47.664,101.8395],[20.8527,47.6468,88.3276],[20.8671,47.6409,89.3473],[20.8728,47.6406,90.4818],[20.8768,47.6433,86.7173],[20.8776,47.6471,89.6212],[20.8733,47.6564,89.0363],[20.8578,47.6659,107.3382],[20.8548,47.6697,98.7082],[20.855,47.6742,112.1971],[20.8595,47.6821,89.7393],[20.8633,47.6826,91.8345],[20.8842,47.6752,103.051],[20.8893,47.6749,89.0558],[20.8916,47.6778,93.8079],[20.8917,47.6946,99.927],[20.8933,47.6975,93.0002],[20.8973,47.6974,88.8965],[20.9128,47.6908,88.0],[20.9299,47.6924,97.9154],[20.9319,47.6935,89.5999],[20.9345,47.7013,102.3665],[20.9381,47.7066,100.5918],[20.9463,47.7147,98.9297],[20.9577,47.7172,94.6395],[20.977,47.7127,89.2261],[20.9853,47.7155,93.3611],[20.9868,47.7189,104.3008],[20.9881,47.7438,90.1545],[20.9855,47.7476,99.7663],[20.9857,47.7506,97.8203],[20.9929,47.7533,89.3007],[21.013,47.7551,90.4146],[21.0283,47.7487,90.51],[21.0321,47.7493,89.4996],[21.0385,47.7651,90.1751],[21.0493,47.7718,89.7125],[21.0543,47.782,90.2743],[21.0563,47.7995,90.6095],[21.0714,47.8209,89.6339],[21.0471,47.8352,91.2425],[21.03,47.8419,92.7859],[21.0071,47.8461,91.6222],[20.995,47.8462,92.3281],[20.983,47.8438,90.6751],[20.974,47.8447,94.5891],[20.9357,47.8601,94.7513],[20.9345,47.8627,95.5796],[20.9391,47.8682,94.2459],[20.9365,47.8732,94.3892],[20.9332,47.8756,95.2212],[20.9194,47.8765,97.2735],[20.9164,47.8752,95.4248],[20.9144,47.8718,94.6764],[20.9095,47.8712,99.7968],[20.9072,47.8729,97.9295],[20.9062,47.8792,97.0362],[20.903199999999998,47.8817,98.4483],[20.886,47.8834,98.2522],[20.8605,47.8931,95.4376],[20.8441,47.8818,98.744],[20.8319,47.8829,98.3312],[20.8036,47.8776,100.4053],[20.8068,47.8721,99.055],[20.8055,47.8695,98.7019],[20.7692,47.8629,103.7567],[20.7495,47.8563,104.5307],[20.7472,47.8521,104.4984],[20.7503,47.844,103.9073],[20.7413,47.8396,103.329],[20.7406,47.8371,102.1654],[20.7461,47.8324,100.8091],[20.7619,47.8126,94.4313],[20.782,47.8056,92.7956],[20.797,47.8055,93.1082],[20.8037,47.8119,93.8089],[20.8079,47.8131,93.4033],[20.8298,47.8129,93.5442],[20.8365,47.8108,93.7552],[20.8399,47.8071,92.8786],[20.8354,47.8006,92.7231],[20.8451,47.7874,92.4619],[20.8474,47.779,91.3041],[20.8593,47.7638,90.186],[20.8625,47.763,89.7287],[20.8712,47.7647,89.778],[20.8753,47.7634,90.0972],[20.8756,47.7545,89.83],[20.8698,47.7498,89.6258],[20.8553,47.7441,89.6634],[20.8351,47.7403,89.596],[20.8284,47.7286,89.083],[20.8135,47.7237,90.2957],[20.8035,47.7235,90.4645],[20.7879,47.7266,90.6432],[20.7622,47.7262,89.6297],[20.7585,47.7237,89.9747],[20.7563,47.7171,97.9096],[20.7376,47.7151,89.2326],[20.7335,47.7094,89.7077],[20.7212,47.7004,90.8416]]]]}}