{"type": "Feature","bbox": [17.9088,46.9411,18.2379,47.1101],"geometry": {"type": "MultiPolygon","coordinates": [[[[18.2379,47.0272,150.2184],[18.2359,47.033,178.4689],[18.2209,47.0463,168.2332],[18.2113,47.0582,173.517],[18.2057,47.0718,186.2884],[18.2036,47.0895,190.5394],[18.1942,47.0893,193.5665],[18.1831,47.0915,190.2189],[18.1726,47.091,179.6298],[18.1681,47.0878,174.6078],[18.166,47.0786,172.3485],[18.1596,47.0741,176.4185],[18.148,47.0732,185.7718],[18.1397,47.0743,185.3238],[18.1292,47.072,190.3734],[18.1244,47.0673,190.5967],[18.104,47.0661,180.5109],[18.0793,47.058,168.1982],[18.0617,47.0632,146.1309],[18.0579,47.0659,141.1844],[18.0492,47.0795,150.8323],[18.0497,47.0816,161.0186],[18.0551,47.0848,140.0172],[18.0509,47.0923,144.2574],[18.0364,47.0944,183.3563],[18.0319,47.1005,187.6636],[18.0213,47.1088,174.6665],[18.0128,47.1101,192.1262],[17.9976,47.1098,227.4183],[17.9935,47.1082,239.2414],[17.9931,47.0907,293.5233],[17.9868,47.0825,287.0444],[17.9456,47.0796,311.9271],[17.9432,47.0654,302.7815],[17.9396,47.0602,280.6595],[17.9316,47.0539,298.21],[17.9172,47.0474,323.4711],[17.9088,47.0243,302.2479],[17.9092,47.0189,290.7162],[17.9247,47.0128,262.8458],[17.9338,47.0036,254.8884],[17.9382,46.9972,266.1096],[17.9396,46.9854,141.3712],[17.9445,46.9757,104.2239],[17.9719,46.9411,103.5],[18.0274,46.9517,103.5],[18.0583,46.97,103.5],[18.0649,46.9719,103.5],[18.1472,46.9626,103.5],[18.1635,46.9624,147.3087],[18.177,46.9591,161.2172],[18.1928,46.9709,147.5936],[18.2011,46.9831,127.9135],[18.2024,47.0038,112.4848],[18.2217,47.0123,113.0283],[18.2379,47.0272,150.2184]]]]}
,"properties": {"GID_2": "HUN.19.2_1","GID_0": "HUN","country": "Hungary","GID_1": "HUN.19_1","province": "Veszprém","NL_NAME_1": "NA","county": "Balatonalmádi","VARNAME_2": "NA","NL_NAME_2": "NA","TYPE_2": "Kistérség","ENGTYPE_2": "Subregion","CC_2": "NA","HASC_2": "NA","name": "Balatonalmádi.county","area_km2": 286.5463,"hist_schema_id": "Elevation0-9000","hist_area_km2": {"100": 118.5942,"125": 24.5719,"150": 34.3397,"175": 39.1044,"200": 18.2289,"225": 10.4017,"250": 11.9488,"275": 17.525,"300": 11.4416,"325": 0.3901}}}