{"type": "Feature","bbox": [16.9928,47.0749,17.3024,47.4358],"geometry": {"type": "MultiPolygon","coordinates": [[[[17.1497,47.4358,133.8721],[17.1423,47.429,132.6899],[17.1265,47.4213,133.6897],[17.0629,47.404,140.1872],[17.0489,47.3976,141.1407],[17.0428,47.3895,141.484],[17.0422,47.3751,140.7693],[17.0199,47.3482,143.729],[17.0127,47.3448,144.5301],[17.0113,47.339,144.1096],[17.0056,47.3348,144.7173],[17.0027,47.328,145.079],[16.9937,47.3204,147.9773],[16.9928,47.3157,149.6765],[16.995,47.3111,148.1625],[17.0114,47.2966,166.4532],[17.0172,47.2953,174.2297],[17.0344,47.2956,179.3892],[17.0401,47.293,180.4697],[17.0553,47.2787,191.4989],[17.0595,47.2623,162.0613],[17.087,47.2411,134.4297],[17.0869,47.2362,139.9035],[17.0773,47.2318,137.6902],[17.0769,47.2285,140.2249],[17.088,47.2221,143.7391],[17.1051,47.2168,133.7793],[17.1123,47.2073,135.8545],[17.1116,47.2045,134.5253],[17.1041,47.2018,145.8159],[17.0994,47.2026,139.4803],[17.0931,47.2065,144.86],[17.0841,47.2065,142.5797],[17.0739,47.203,146.7886],[17.071,47.2,142.3073],[17.0726,47.1968,153.0058],[17.0785,47.1936,147.2133],[17.0962,47.1907,138.3022],[17.1064,47.1789,136.1222],[17.1013,47.1737,135.7673],[17.0898,47.168,134.4505],[17.0876,47.1584,141.8334],[17.0778,47.1493,138.3011],[17.0816,47.1451,148.3094],[17.1106,47.1355,141.5568],[17.1144,47.131,140.4997],[17.1151,47.1219,152.4266],[17.1124,47.1153,158.7492],[17.1125,47.1071,151.5505],[17.1065,47.0991,155.8989],[17.1096,47.0916,146.4956],[17.0992,47.0749,157.535],[17.1232,47.075,154.7565],[17.1365,47.0784,165.0787],[17.1477,47.0853,151.9285],[17.1559,47.0861,149.4408],[17.1782,47.0857,147.287],[17.2007,47.0782,133.7598],[17.2141,47.0755,136.428],[17.2165,47.0769,135.4983],[17.2212,47.0893,133.3338],[17.231,47.0957,135.6448],[17.2266,47.1096,131.9884],[17.2342,47.122,134.3115],[17.2255,47.1319,133.1911],[17.218,47.1511,133.8053],[17.2072,47.1594,133.3629],[17.2054,47.1634,131.6687],[17.2058,47.1681,130.7353],[17.2155,47.18,139.0565],[17.2194,47.1906,134.7479],[17.2119,47.2773,123.7879],[17.231,47.2864,136.7688],[17.2301,47.3063,134.9922],[17.2363,47.3154,122.0313],[17.2563,47.3224,124.8308],[17.295,47.3234,127.1457],[17.2999,47.3262,121.8688],[17.3024,47.3318,122.7349],[17.2922,47.3419,125.4778],[17.282,47.3479,128.3792],[17.2634,47.3536,131.4089],[17.2492,47.3564,141.0325],[17.2348,47.357,143.984],[17.2257,47.3596,151.845],[17.2042,47.3718,148.0717],[17.2012,47.3757,153.9941],[17.2003,47.3846,145.172],[17.2057,47.397,144.0813],[17.1904,47.4051,139.7089],[17.1873,47.4211,134.1073],[17.1822,47.4275,131.4129],[17.1766,47.4321,135.3664],[17.1655,47.4351,131.3245],[17.1497,47.4358,133.8721]]]]}
,"properties": {"GID_2": "HUN.18.1_1","GID_0": "HUN","country": "Hungary","GID_1": "HUN.18_1","province": "Vas","NL_NAME_1": "NA","county": "Celldömölk","VARNAME_2": "Celldömölki","NL_NAME_2": "NA","TYPE_2": "Kistérség","ENGTYPE_2": "Subregion","CC_2": "NA","HASC_2": "NA","name": "Celldömölk.county","area_km2": 452.9552,"hist_schema_id": "Elevation0-9000","hist_area_km2": {"125": 190.4966,"150": 203.6342,"175": 46.9869,"200": 11.5208,"225": 0.1584,"250": 0.1584}}}