{"type":"Feature","properties":{"GID_2":"HUN.19.6_1","GID_0":"HUN","country":"Hungary","GID_1":"HUN.19_1","province":"Veszprém","NL_NAME_1":"NA","county":"Tapolca","VARNAME_2":"Tapolcai","NL_NAME_2":"NA","TYPE_2":"Kistérség","ENGTYPE_2":"Subregion","CC_2":"NA","HASC_2":"NA","name":"Tapolca.county"},
"geometry":{"type": "MultiPolygon","coordinates": [[[[17.6707,46.8218,103.5],[17.668,46.8272,103.5],[17.649,46.8468,158.4507],[17.6476,46.8635,297.0853],[17.6443,46.8701,259.7092],[17.645,46.8731,226.6764],[17.6583,46.8916,230.5136],[17.6583,46.8939,246.4935],[17.6515,46.897,280.2],[17.6368,46.9004,221.2998],[17.6345,46.9023,226.279],[17.6338,46.9057,226.2059],[17.6346,46.9144,356.5214],[17.6491,46.9326,344.1611],[17.642,46.9432,276.383],[17.642,46.9458,276.4562],[17.6561,46.9526,326.5759],[17.6606,46.9641,319.8058],[17.6623,46.9697,310.7969],[17.6603,46.9843,266.0737],[17.6573,46.9876,252.1458],[17.6537,46.9886,286.6814],[17.6388,46.9887,253.2918],[17.6133,46.9923,198.3492],[17.5938,47.0109,292.0529],[17.5932,47.0219,301.5459],[17.5812,47.0214,319.1135],[17.5656,47.0165,330.2705],[17.5445,47.0207,332.6725],[17.5424,47.018,340.6367],[17.5431,47.0071,376.1],[17.5394,47.0044,359.6243],[17.5148,47.0041,251.1977],[17.5114,47.0051,245.0689],[17.507,47.0094,247.7022],[17.4978,47.0091,233.3852],[17.4939,47.0065,243.0094],[17.4829,46.9899,253.3302],[17.4814,46.9784,310.3499],[17.4748,46.9703,284.66],[17.4662,46.9679,262.5254],[17.4543,46.972,235.1921],[17.425,46.9713,211.1642],[17.4217,46.9692,216.1876],[17.4125,46.9573,215.6982],[17.3998,46.9532,213.5551],[17.3826,46.9274,226.1628],[17.3787,46.9274,219.4516],[17.3591,46.9339,215.2874],[17.347,46.934,222.1352],[17.3425,46.9328,197.7197],[17.3196,46.9195,191.7275],[17.3212,46.9085,180.2492],[17.3332,46.9024,175.2741],[17.3369,46.8982,145.9417],[17.3388,46.8547,239.2348],[17.3444,46.8428,220.3642],[17.3514,46.8348,207.0568],[17.367,46.8266,163.4508],[17.369,46.8138,197.7715],[17.3712,46.8106,171.8717],[17.3903,46.7978,110.5189],[17.3999,46.7939,103.6647],[17.411,46.7867,103.5],[17.417,46.7802,103.5],[17.4296,46.7712,103.5],[17.4331,46.7637,103.5],[17.4929,46.766,103.5],[17.5296,46.7791,103.5],[17.5543,46.7837,103.5],[17.5829,46.7939,103.5],[17.5921,46.7957,103.5],[17.6241,46.8071,103.5],[17.6361,46.8143,103.5],[17.6443,46.8173,103.5],[17.6707,46.8218,103.5]]]]}}