{"type": "Feature","id": "4911","bbox": [16.91812,46.37651,17.06856,46.56158],"geometry": {"type": "Polygon","coordinates": [[[17.06856,46.42321,173.9174],[17.04013,46.46337,173.0759],[17.03178,46.50012,197.345],[17.00505,46.51849,219.1946],[16.99496,46.56158,183.2219],[16.9532,46.55991,170.7966],[16.94652,46.51982,163.5331],[16.91812,46.51648,209.4047],[16.91819,46.48675,191.7292],[16.91986,46.44833,168.4529],[16.9232,46.40156,156.7536],[16.96329,46.38152,137.5],[17.01508,46.37651,162.1139],[17.05387,46.38962,179.2867],[17.04499,46.41923,205.8978],[17.06856,46.42321,173.9174]]]}
,"properties": {"ISO3166-1-Alpha-3": "HUN","country": "Hungary","fill": "#F0F","name": "Nagykanizsa","area_km2": 159.1884,"hist_schema_id": "Elevation0-9000","hist_area_km2": {"125": 4.3276,"150": 84.7491,"175": 47.2539,"200": 18.6977,"225": 3.6641,"250": 0.496}}}