{"type":"Feature","properties":{"GID_2":"HUN.10.4_1","GID_0":"HUN","country":"Hungary","GID_1":"HUN.10_1","province":"Heves","NL_NAME_1":"NA","county":"Gyöngyös","VARNAME_2":"Gyöngyösi","NL_NAME_2":"NA","TYPE_2":"Kistérség","ENGTYPE_2":"Subregion","CC_2":"NA","HASC_2":"NA","name":"Gyöngyös.county"},
"geometry":{"type": "MultiPolygon","coordinates": [[[[20.1211,47.6961,106.686],[20.116,47.7087,104.2111],[20.0976,47.7118,110.9488],[20.0971,47.7189,113.8624],[20.0992,47.7255,116.0282],[20.1069,47.7302,108.5191],[20.1281,47.7349,116.371],[20.1548,47.7343,112.6839],[20.1664,47.7372,121.2614],[20.1746,47.7457,123.3122],[20.1762,47.7589,132.9007],[20.1742,47.7619,134.7004],[20.1687,47.7628,135.7523],[20.1358,47.7589,126.5827],[20.1268,47.7595,137.0133],[20.1183,47.7657,153.4392],[20.1146,47.7725,146.0941],[20.1153,47.7774,150.3475],[20.124,47.7887,168.9622],[20.128,47.7904,156.7004],[20.1463,47.7771,124.3243],[20.1625,47.77,155.5961],[20.168,47.7692,144.2999],[20.1765,47.7714,156.8779],[20.1804,47.774,159.2928],[20.1854,47.7831,163.3984],[20.1871,47.7943,184.2876],[20.191,47.801,213.6237],[20.1918,47.8081,220.7166],[20.1871,47.8223,170.3762],[20.1684,47.8295,170.3642],[20.1684,47.8341,160.4255],[20.1723,47.84,151.3978],[20.1731,47.8449,170.5438],[20.168,47.8579,169.1263],[20.1531,47.8651,213.8504],[20.1456,47.8706,296.9617],[20.139,47.8767,328.7332],[20.1313,47.8883,441.5149],[20.1101,47.8972,436.6989],[20.1042,47.8958,432.4031],[20.0969,47.8898,468.6474],[20.078,47.8899,411.0015],[20.0611,47.8803,492.5042],[20.0556,47.8798,529.497],[20.0371,47.8855,524.9344],[20.0118,47.8865,628.4092],[19.9947,47.8926,502.4815],[19.9777,47.9076,381.1872],[19.9645,47.9137,456.4016],[19.9526,47.9216,571.3826],[19.9424,47.9356,528.7956],[19.922,47.9272,653.3324],[19.8928,47.9357,533.7659],[19.8477,47.9327,558.3469],[19.8277,47.9282,695.3965],[19.819,47.9239,617.5278],[19.8191,47.9121,502.7809],[19.8222,47.9085,589.1593],[19.856,47.9038,799.2798],[19.8576,47.9001,761.7698],[19.8571,47.8948,753.1667],[19.8517,47.8849,629.236],[19.8396,47.8833,643.7175],[19.828,47.886,607.3697],[19.7982,47.9036,532.3663],[19.7811,47.9025,728.4],[19.7693,47.8938,744.1643],[19.7687,47.8755,443.0658],[19.7672,47.8713,435.9867],[19.7488,47.8585,368.8491],[19.73,47.8375,233.7918],[19.7284,47.8211,322.5641],[19.7397,47.8202,273.3036],[19.7522,47.8167,284.3105],[19.7601,47.8065,195.7529],[19.7611,47.7963,212.5739],[19.7641,47.7904,193.7926],[19.7629,47.7696,171.7973],[19.7651,47.7654,153.9366],[19.7796,47.7586,211.9105],[19.7934,47.7563,221.7361],[19.8367,47.7325,200.9116],[19.8526,47.7267,184.4601],[19.8535,47.7245,181.857],[19.85,47.7196,167.6157],[19.8435,47.713,153.8644],[19.8344,47.7075,141.6127],[19.8333,47.7052,129.9932],[19.8514,47.6912,129.8892],[19.8524,47.6778,114.9894],[19.8698,47.6705,112.5373],[19.9076,47.6597,106.9407],[19.9161,47.662,106.5774],[19.9364,47.6634,105.1704],[19.9662,47.6775,104.1083],[19.9783,47.6777,103.0658],[19.9849,47.6744,103.2513],[19.9916,47.6631,100.9998],[19.9893,47.6369,100.9677],[19.9913,47.6306,98.928],[20.0026,47.6232,97.8096],[20.0131,47.6235,97.3702],[20.0247,47.6208,97.3931],[20.034,47.6209,96.923],[20.0382,47.6225,96.5201],[20.0535,47.6361,97.3139],[20.0578,47.642,97.6189],[20.0609,47.6547,98.0575],[20.0959,47.6622,98.8427],[20.099,47.6778,100.7124],[20.1096,47.6833,101.2396],[20.1211,47.6961,106.686]]]]}}