{"type":"Feature","properties":{"ISO3166-1-Alpha-3":"HUN","country":"Hungary","fill":"#F0F","id":"4912","name":"Kaposvár"},
"geometry":{"type": "Polygon","coordinates": [[[17.77641,46.4391,164.0544],[17.74947,46.45406,177.2384],[17.7375,46.4361,169.6841],[17.73689,46.40917,154.3579],[17.7309,46.38223,152.4788],[17.70696,46.36129,146.7934],[17.7339,46.30742,154.1551],[17.74287,46.24757,192.4431],[17.78178,46.26851,206.961],[17.8147,46.25355,232.0405],[17.82667,46.27749,180.1588],[17.84761,46.31041,229.4694],[17.88053,46.32837,187.9528],[17.87156,46.38223,123.9261],[17.84163,46.43909,142.5726],[17.84163,46.44508,141.7922],[17.77641,46.4391,164.0544]]]}}