{"type": "Feature","bbox": [20.2845,46.1271,20.7765,46.4038],"geometry": {"type": "MultiPolygon","coordinates": [[[[20.7587,46.3657,94.2997],[20.7347,46.394,93.3437],[20.6983,46.3963,91.806],[20.6921,46.3954,91.6245],[20.6882,46.3925,91.3496],[20.684,46.3864,91.8831],[20.6777,46.3685,90.9843],[20.6749,46.3666,91.2246],[20.6503,46.3632,90.5127],[20.5944,46.3632,86.6217],[20.589,46.3658,86.6855],[20.58,46.3786,86.1581],[20.5588,46.3881,85.4766],[20.5482,46.4038,84.8165],[20.5419,46.4003,85.7116],[20.5317,46.3911,84.562],[20.4982,46.3787,82.424],[20.4807,46.3542,81.6787],[20.4558,46.353,80.2204],[20.4341,46.3489,79.3988],[20.4283,46.3462,79.1718],[20.4228,46.3391,78.6115],[20.383,46.3219,79.4806],[20.3595,46.3066,79.4568],[20.339,46.3027,76.879],[20.3018,46.303,76.8214],[20.293,46.3059,77.8107],[20.2861,46.305,77.576],[20.2845,46.3019,76.8358],[20.2845,46.2842,77.1655],[20.2982,46.2653,78.4382],[20.2918,46.2543,79.2855],[20.2914,46.2451,93.6604],[20.294,46.2423,95.8848],[20.2986,46.241,96.4714],[20.3137,46.2436,96.7627],[20.3201,46.2429,93.6093],[20.3263,46.2351,94.2301],[20.3284,46.2239,79.5129],[20.3416,46.2222,84.5708],[20.3463,46.2192,80.2018],[20.3507,46.2089,79.1751],[20.3511,46.197,78.4947],[20.347,46.1823,78.2477],[20.3427,46.1738,77.7873],[20.3493,46.171,77.8943],[20.3538,46.1732,78.5228],[20.3701,46.1533,79.5437],[20.3791,46.1581,79.4965],[20.3826,46.1583,80.2639],[20.3959,46.153,80.0406],[20.3989,46.1578,80.3051],[20.411,46.1515,79.5679],[20.428,46.1456,79.5138],[20.4468,46.1422,80.0287],[20.4607,46.1432,80.1332],[20.4969,46.1715,81.7972],[20.4948,46.1743,81.9607],[20.498,46.1786,82.1508],[20.4935,46.1813,82.3489],[20.4997,46.1849,82.9721],[20.4971,46.1864,82.6626],[20.4983,46.1892,88.1729],[20.5018,46.1886,89.6283],[20.5032,46.1903,81.418],[20.5251,46.1817,79.5],[20.5374,46.181,84.813],[20.5511,46.1775,86.8906],[20.5555,46.1724,80.0],[20.5637,46.17,83.7993],[20.5794,46.1596,81.5298],[20.5908,46.1546,84.5273],[20.5952,46.1504,84.2484],[20.6114,46.1465,86.4205],[20.6158,46.1408,84.7863],[20.6194,46.1404,82.7998],[20.6258,46.1362,90.3434],[20.6271,46.1326,84.6251],[20.6336,46.1279,91.7172],[20.6409,46.1271,86.7577],[20.6509,46.1351,92.1982],[20.6512,46.1449,88.8748],[20.6547,46.1488,83.4287],[20.6652,46.1513,82.5],[20.6737,46.1499,87.244],[20.6783,46.1462,86.9947],[20.6883,46.1457,86.4759],[20.6936,46.1502,83.9749],[20.6965,46.159,93.6582],[20.7067,46.161,83.8188],[20.7105,46.1651,88.7405],[20.7155,46.1663,89.2082],[20.724,46.1878,88.6221],[20.7265,46.1876,88.9734],[20.733,46.1908,89.9797],[20.7357,46.1941,89.2714],[20.7273,46.1968,89.0203],[20.7301,46.2054,90.1179],[20.729,46.2078,90.916],[20.7634,46.2048,91.5766],[20.7504,46.251,92.1021],[20.7765,46.2757,94.6158],[20.7745,46.2778,102.9686],[20.7594,46.2839,93.5373],[20.7551,46.288,92.9138],[20.7468,46.3042,92.1088],[20.748,46.3293,92.9288],[20.7568,46.3514,94.3405],[20.7587,46.3657,94.2997]]]]}
,"properties": {"GID_2": "HUN.6.4_1","GID_0": "HUN","country": "Hungary","GID_1": "HUN.6_1","province": "Csongrád","NL_NAME_1": "NA","county": "Makó","VARNAME_2": "NA","NL_NAME_2": "NA","TYPE_2": "Kistérség","ENGTYPE_2": "Subregion","CC_2": "NA","HASC_2": "NA","name": "Makó.county","area_km2": 743.5119,"hist_schema_id": "Elevation0-9000","hist_area_km2": {"75": 451.6397,"100": 291.8722}}}