{"type": "Feature","bbox": [16.5287,46.3643,16.8946,46.6394],"geometry": {"type": "MultiPolygon","coordinates": [[[[16.6257,46.4662,154.5184],[16.627,46.4649,147.1108],[16.6343,46.4675,144.5],[16.6411,46.464,143.5],[16.6568,46.4618,146.4464],[16.6656,46.4579,146.1221],[16.6662,46.4545,151.4331],[16.6593,46.4489,150.8228],[16.6594,46.4466,149.9054],[16.6634,46.4439,148.42],[16.6679,46.4471,151.625],[16.6735,46.4479,147.1006],[16.6755,46.4438,147.9132],[16.6812,46.4407,148.5946],[16.6884,46.4273,142.8757],[16.6972,46.4161,139.3617],[16.7071,46.4047,148.4458],[16.7165,46.3986,139.1817],[16.7195,46.392,145.6217],[16.7234,46.3911,138.617],[16.7257,46.3932,140.7186],[16.7257,46.3966,148.6821],[16.7286,46.4011,141.5564],[16.7339,46.4016,144.7083],[16.739,46.4009,154.9413],[16.7402,46.3981,146.4969],[16.7385,46.3945,139.4084],[16.74,46.39,144.1511],[16.7478,46.3857,149.301],[16.7545,46.3894,137.3848],[16.7574,46.3882,148.3871],[16.7594,46.3832,139.8087],[16.7626,46.3805,142.3141],[16.7679,46.3823,143.5565],[16.7689,46.385,145.239],[16.7724,46.3863,146.1795],[16.7814,46.3806,134.4535],[16.7885,46.3876,145.7763],[16.8027,46.387,135.9074],[16.8044,46.3809,135.4379],[16.8065,46.379,142.3458],[16.8134,46.3801,134.9632],[16.8148,46.3735,141.5695],[16.8176,46.3724,135.6664],[16.8217,46.3743,139.4756],[16.8256,46.3741,142.1155],[16.8303,46.3686,136.6181],[16.8339,46.3745,136.6141],[16.8366,46.3759,135.3596],[16.8398,46.3731,134.2272],[16.8394,46.3697,135.91],[16.8366,46.3669,142.5003],[16.8374,46.3647,138.57],[16.8462,46.3643,140.9949],[16.8526,46.374,141.0063],[16.8592,46.3786,139.3334],[16.8708,46.3775,146.7164],[16.8758,46.3792,154.016],[16.8796,46.3861,163.9393],[16.8763,46.3924,173.1575],[16.8651,46.3979,165.3837],[16.8637,46.4,168.4332],[16.8665,46.4083,171.6201],[16.8645,46.4439,163.9075],[16.8768,46.4738,201.2794],[16.8835,46.481,181.2938],[16.8843,46.4859,212.2186],[16.8833,46.4894,258.9617],[16.8709,46.5048,235.9103],[16.8693,46.5261,294.8782],[16.8713,46.5298,251.378],[16.8845,46.5357,331.3348],[16.8946,46.5478,188.1356],[16.8932,46.5516,222.8133],[16.8864,46.5553,195.7999],[16.8815,46.5612,270.5173],[16.8819,46.5653,201.979],[16.8875,46.5744,262.0572],[16.885,46.5811,205.813],[16.884,46.5988,242.6446],[16.8755,46.6089,250.4276],[16.8795,46.6256,268.7683],[16.8788,46.6334,236.6654],[16.8752,46.6394,298.8354],[16.8574,46.6292,268.8308],[16.8427,46.6305,217.4745],[16.8192,46.6265,251.0426],[16.8099,46.6223,267.2943],[16.8089,46.6178,269.1062],[16.8045,46.6153,307.3414],[16.7763,46.6134,211.7354],[16.7618,46.5999,243.8821],[16.7447,46.592,243.4177],[16.7389,46.5824,222.7097],[16.7318,46.5759,205.3085],[16.7264,46.5735,215.0286],[16.709,46.5709,217.3285],[16.7046,46.5664,172.9788],[16.6944,46.5646,171.1228],[16.6847,46.5594,241.6287],[16.6766,46.5597,232.8971],[16.6661,46.5643,280.8208],[16.659,46.5639,276.5519],[16.6555,46.5616,263.2046],[16.651,46.554,272.744],[16.6322,46.5505,227.1073],[16.6227,46.539,224.8006],[16.6108,46.5317,218.3306],[16.6066,46.5258,236.8718],[16.6048,46.5178,223.1309],[16.6015,46.5155,192.1804],[16.5889,46.5165,156.2649],[16.5783,46.5144,153.8712],[16.5485,46.5136,153.0929],[16.5287,46.503,163.8474],[16.562,46.4908,150.9542],[16.5713,46.4839,152.2711],[16.578,46.4811,150.1534],[16.5918,46.478,151.7816],[16.6051,46.4781,152.7809],[16.605,46.4748,148.2298],[16.6074,46.4722,149.2635],[16.6115,46.4698,156.9179],[16.6198,46.4683,150.4639],[16.6216,46.4707,148.4186],[16.6257,46.4662,154.5184]]]]}
,"properties": {"GID_2": "HUN.20.3_1","GID_0": "HUN","country": "Hungary","GID_1": "HUN.20_1","province": "Zala","NL_NAME_1": "NA","county": "Letenye","VARNAME_2": "Letenyei","NL_NAME_2": "NA","TYPE_2": "Kistérség","ENGTYPE_2": "Subregion","CC_2": "NA","HASC_2": "NA","name": "Letenye.county","area_km2": 431.7389,"hist_schema_id": "Elevation0-9000","hist_area_km2": {"125": 10.0176,"150": 95.8336,"175": 51.0657,"200": 73.8881,"225": 80.9852,"250": 64.9813,"275": 37.9648,"300": 13.898,"325": 2.8861,"350": 0.2185}}}