{"type": "Feature","bbox": [17.993,46.293,18.3696,46.5916],"geometry": {"type": "MultiPolygon","coordinates": [[[[18.3123,46.4192,266.8301],[18.3132,46.4232,247.6005],[18.3186,46.4316,111.8528],[18.3563,46.4327,261.8304],[18.3671,46.4392,266.5715],[18.3696,46.4456,186.7638],[18.3681,46.4583,229.6636],[18.3543,46.4752,105.2778],[18.321,46.476,107.3477],[18.3164,46.478,112.7078],[18.3117,46.4902,148.235],[18.312,46.4985,149.6865],[18.317,46.5057,156.8399],[18.3302,46.5153,147.9244],[18.3326,46.5193,143.9109],[18.3273,46.5343,141.2011],[18.319,46.5449,129.333],[18.3063,46.5471,151.5858],[18.2952,46.5514,200.6736],[18.2732,46.5746,245.7016],[18.2685,46.575,214.3484],[18.2518,46.5706,179.1616],[18.2485,46.571,149.6234],[18.2354,46.5882,113.9597],[18.2321,46.59,111.8615],[18.2253,46.5881,114.7737],[18.2224,46.5858,114.08],[18.2226,46.5805,121.5232],[18.2262,46.5745,157.4081],[18.2254,46.5709,141.5661],[18.218,46.5678,165.1627],[18.1996,46.5651,143.7511],[18.1955,46.5664,178.6371],[18.19,46.5726,161.9663],[18.1834,46.5761,193.0468],[18.1652,46.5766,174.7063],[18.1535,46.574,132.1353],[18.1477,46.5744,118.1924],[18.1442,46.5765,116.7559],[18.1384,46.5852,145.2611],[18.1353,46.5872,148.308],[18.1267,46.5852,119.8328],[18.1177,46.5806,153.5906],[18.1037,46.5776,206.6303],[18.0996,46.5789,227.5259],[18.0919,46.5857,192.2987],[18.0658,46.5916,227.1439],[18.0641,46.5875,232.5235],[18.064,46.5734,241.7239],[18.0602,46.5676,276.4277],[18.0551,46.5658,270.8964],[18.0372,46.5657,273.4873],[18.028,46.5542,227.5007],[18.0232,46.5427,213.0473],[18.0241,46.5374,197.7489],[18.0312,46.5276,174.6771],[18.0325,46.5072,156.2211],[18.0537,46.4517,139.2904],[18.0544,46.433,141.5298],[18.0497,46.4303,139.7507],[18.0257,46.43,126.721],[18.0102,46.4206,144.4216],[17.9976,46.4177,139.197],[17.993,46.4141,123.0],[18.0012,46.4032,125.1195],[18.0086,46.3998,135.0299],[18.0434,46.3986,131.1735],[18.0528,46.3957,128.351],[18.0549,46.3937,129.8682],[18.0609,46.3786,127.3487],[18.0716,46.372,128.0667],[18.0729,46.3675,114.672],[18.0732,46.3429,147.8277],[18.0616,46.3282,140.0522],[18.0615,46.3116,157.3256],[18.0907,46.3108,150.7054],[18.1019,46.306,179.4042],[18.1052,46.2991,172.9693],[18.1094,46.2945,160.3967],[18.1234,46.293,128.969],[18.1288,46.2946,121.4222],[18.1293,46.3003,123.5236],[18.1261,46.3042,144.5472],[18.109,46.3135,155.01],[18.1071,46.3208,169.2163],[18.1088,46.3246,167.6475],[18.1256,46.3276,135.5327],[18.1396,46.3283,118.9136],[18.1647,46.3336,149.211],[18.1758,46.3413,152.3981],[18.1989,46.3412,163.0278],[18.2034,46.3433,157.4101],[18.2023,46.3602,127.3771],[18.1822,46.3698,115.9362],[18.1806,46.3812,116.3476],[18.1728,46.3907,114.3318],[18.1721,46.4008,116.5274],[18.1736,46.4047,125.8168],[18.1893,46.4082,110.5867],[18.253,46.4074,121.5098],[18.2701,46.4124,242.9915],[18.2961,46.4127,272.9469],[18.3123,46.4192,266.8301]]]]}
,"properties": {"GID_2": "HUN.17.2_1","GID_0": "HUN","country": "Hungary","GID_1": "HUN.17_1","province": "Tolna","NL_NAME_1": "NA","county": "Dombóvár","VARNAME_2": "NA","NL_NAME_2": "NA","TYPE_2": "Kistérség","ENGTYPE_2": "Subregion","CC_2": "NA","HASC_2": "NA","name": "Dombóvár.county","area_km2": 510.0712,"hist_schema_id": "Elevation0-9000","hist_area_km2": {"100": 21.3921,"125": 126.4823,"150": 158.1893,"175": 110.4333,"200": 51.9765,"225": 28.5285,"250": 10.4868,"275": 2.524,"300": 0.0584}}}