{"type":"Feature","properties":{"GID_2":"HUN.2.7_1","GID_0":"HUN","country":"Hungary","GID_1":"HUN.2_1","province":"Baranya","NL_NAME_1":"NA","county":"Siklósi","VARNAME_2":"NA","NL_NAME_2":"NA","TYPE_2":"Kistérség","ENGTYPE_2":"Subregion","CC_2":"NA","HASC_2":"NA","name":"Siklósi.county"},
"geometry":{"type": "MultiPolygon","coordinates": [[[[18.3373,45.7557,89.3517],[18.3468,45.7593,89.895],[18.3597,45.7698,89.3438],[18.3821,45.7678,89.5669],[18.3963,45.7578,89.0682],[18.4024,45.7492,88.6893],[18.4216,45.7478,88.615],[18.463,45.7591,89.9798],[18.4855,45.7906,97.1266],[18.4962,45.7951,92.8832],[18.5218,45.7826,90.628],[18.5462,45.7916,92.2629],[18.5573,45.8003,94.3632],[18.5495,45.8095,96.3766],[18.5496,45.8148,98.2627],[18.5525,45.8215,98.8188],[18.5458,45.832,102.1823],[18.5443,45.8424,108.0748],[18.5404,45.845,108.7922],[18.5308,45.8461,106.6725],[18.5286,45.8483,106.7732],[18.5294,45.854,113.7413],[18.5363,45.8592,119.1443],[18.5369,45.8683,124.3672],[18.5359,45.8744,128.5725],[18.5268,45.8902,127.5719],[18.5178,45.8948,131.3043],[18.5009,45.8931,128.3413],[18.4955,45.9043,158.5504],[18.4922,45.9058,152.3325],[18.4805,45.9008,132.3836],[18.4791,45.8906,128.5412],[18.477,45.8876,128.9988],[18.4681,45.8862,134.1121],[18.4536,45.8925,104.1326],[18.449,45.9013,102.0886],[18.4445,45.9057,138.4361],[18.4242,45.9063,133.9732],[18.4146,45.9096,136.3168],[18.4099,45.9156,154.9906],[18.4094,45.9272,141.9471],[18.4105,45.9306,142.5512],[18.4175,45.9347,142.685],[18.4182,45.9469,145.5752],[18.4209,45.955,146.7176],[18.4031,45.9692,154.4828],[18.4025,45.9716,155.3107],[18.4057,45.9778,150.8379],[18.4046,45.9802,156.2075],[18.3977,45.9805,161.2822],[18.3889,45.9759,153.6984],[18.38,45.9738,133.6846],[18.3742,45.9777,160.5054],[18.3729,45.9838,163.1778],[18.3648,45.9917,176.7003],[18.3615,45.9912,174.0615],[18.3592,45.9864,163.0474],[18.3551,45.9841,139.6996],[18.3418,45.9867,170.9646],[18.3341,45.9851,186.088],[18.3333,45.9824,184.3821],[18.3433,45.9656,164.732],[18.3427,45.9603,154.1179],[18.3328,45.9522,164.8906],[18.3299,45.9444,161.3521],[18.3083,45.9428,129.5634],[18.3064,45.9407,137.6262],[18.3048,45.9327,139.885],[18.2944,45.9263,148.7866],[18.2888,45.9268,153.2877],[18.2794,45.9306,153.4597],[18.2778,45.9335,162.0152],[18.2792,45.938,158.665],[18.2756,45.9404,167.3498],[18.2553,45.9369,150.4344],[18.2457,45.9287,171.208],[18.2421,45.9276,173.8815],[18.2274,45.9304,162.7943],[18.2211,45.94,179.6087],[18.2144,45.9432,166.8957],[18.196,45.9447,149.9874],[18.1883,45.942,147.8271],[18.1859,45.931399999999996,145.8268],[18.1737,45.9323,151.3716],[18.1554,45.9208,127.9822],[18.1502,45.9199,122.9013],[18.1412,45.9231,118.575],[18.1368,45.9278,120.4291],[18.128,45.9403,127.4457],[18.1255,45.9508,132.5151],[18.1106,45.9569,147.2209],[18.1042,45.9569,136.8014],[18.1021,45.9551,132.922],[18.1029,45.9526,131.2565],[18.1099,45.9519,132.838],[18.1022,45.9423,127.854],[18.1022,45.9304,116.7218],[18.113,45.9313,120.3748],[18.1166,45.9294,121.9332],[18.117,45.9272,120.9444],[18.1127,45.9202,112.5746],[18.0952,45.915,106.0184],[18.093,45.9095,105.9485],[18.0941,45.9057,102.057],[18.0982,45.903,101.6621],[18.1132,45.902,106.7062],[18.1177,45.8997,105.5178],[18.1187,45.895,171.0986],[18.1145,45.8841,106.8497],[18.111,45.8826,103.1735],[18.1017,45.885,115.471],[18.0939,45.8838,109.855],[18.0895,45.8771,107.5724],[18.0934,45.8681,96.9365],[18.0922,45.8626,96.7742],[18.0749,45.852,112.2547],[18.0654,45.8388,94.5209],[18.0583,45.8366,97.2677],[18.0492,45.8386,96.2183],[18.0442,45.8379,96.3128],[18.0415,45.8306,96.2393],[18.0344,45.8228,94.2247],[18.0341,45.8092,98.01],[18.0406,45.8044,104.2236],[18.045,45.7987,93.5178],[18.0471,45.7869,95.3481],[18.0588,45.7729,98.3883],[18.0807,45.7719,92.7101],[18.1106,45.787,92.5976],[18.1365,45.7961,91.9365],[18.1597,45.7869,92.2257],[18.1934,45.7907,91.8427],[18.2085,45.7904,93.3488],[18.2211,45.7821,110.7564],[18.2334,45.7649,93.7587],[18.2953,45.7607,93.8244],[18.3322,45.7539,91.8826],[18.3373,45.7557,89.3517]]]]}}