{"type":"Feature","properties":{"GID_2":"HUN.4.3_1","GID_0":"HUN","country":"Hungary","GID_1":"HUN.4_1","province":"Borsod-Abaúj-Zemplén","NL_NAME_1":"NA","county":"Edelényi","VARNAME_2":"NA","NL_NAME_2":"NA","TYPE_2":"Kistérség","ENGTYPE_2":"Subregion","CC_2":"NA","HASC_2":"NA","name":"Edelényi.county"},
"geometry":{"type": "MultiPolygon","coordinates": [[[[20.7237,48.2508,126.4264],[20.7421,48.2486,125.2667],[20.7611,48.2324,123.1825],[20.7656,48.2239,122.7133],[20.7654,48.2208,122.6845],[20.7488,48.2144,123.3138],[20.7476,48.2088,122.3796],[20.7492,48.2049,122.9701],[20.767,48.1991,121.8712],[20.7844,48.1987,120.3183],[20.7939,48.1969,119.5811],[20.7968,48.1981,119.7083],[20.8059,48.2082,121.6941],[20.8186,48.2162,158.8581],[20.8435,48.2165,176.9386],[20.8499,48.2229,193.0005],[20.8648,48.2328,203.0372],[20.8648,48.2402,230.2505],[20.8744,48.2514,223.6937],[20.8859,48.2563,171.1633],[20.8865,48.2603,158.1044],[20.8849,48.2653,211.9225],[20.8959,48.2753,150.3709],[20.8972,48.2922,165.1687],[20.912,48.2972,136.6264],[20.9147,48.3004,138.062],[20.9136,48.3037,145.4479],[20.9069,48.3098,197.9767],[20.9067,48.3133,194.8638],[20.9098,48.3199,155.4436],[20.903,48.3279,201.4151],[20.9111,48.3349,174.1405],[20.9111,48.3433,188.3934],[20.8963,48.3563,242.2953],[20.8872,48.3613,172.9839],[20.8985,48.369,220.749],[20.8998,48.3863,270.6963],[20.9086,48.3995,259.5418],[20.9093,48.415,279.3548],[20.9051,48.4176,267.9179],[20.8871,48.4176,292.0774],[20.8827,48.4216,263.694],[20.8857,48.425,319.1769],[20.9041,48.4302,266.51],[20.9146,48.4373,209.8697],[20.9193,48.4438,246.2357],[20.9193,48.4548,200.086],[20.9161,48.4616,191.7122],[20.9182,48.4688,200.1584],[20.9119,48.4796,213.2222],[20.9124,48.4925,231.4089],[20.9164,48.4998,267.8064],[20.9187,48.5105,259.8371],[20.9269,48.5153,273.3352],[20.9382,48.5167,265.8624],[20.9419,48.5237,237.0646],[20.9359,48.5323,226.6787],[20.9423,48.5373,239.3615],[20.9424,48.5412,254.7372],[20.9382,48.5393,279.4093],[20.9347,48.5483,229.2555],[20.9288,48.5569,211.4433],[20.9206,48.5615,212.5559],[20.9142,48.5613,199.1013],[20.8783,48.5512,258.0542],[20.8767,48.5545,228.7441],[20.8672,48.5536,210.2914],[20.8624,48.5601,231.8157],[20.8542,48.5667,210.5046],[20.8444,48.5663,167.8464],[20.8495,48.5834,195.7366],[20.8403,48.5864,225.5483],[20.83,48.5837,373.5662],[20.808,48.5742,427.2702],[20.7983,48.5768,439.921],[20.7439,48.5771,504.5152],[20.7424,48.5735,546.8593],[20.7438,48.5704,545.6099],[20.7201,48.5712,518.1505],[20.7071,48.5696,531.9775],[20.684,48.5609,495.5328],[20.6787,48.5667,549.8115],[20.6688,48.5645,496.0926],[20.6566,48.5644,457.9923],[20.6512,48.5603,429.0073],[20.6399,48.5591,277.3102],[20.6326,48.5534,379.1644],[20.6238,48.5523,396.5417],[20.6186,48.5445,466.2769],[20.6069,48.5456,460.8507],[20.5903,48.5363,444.6281],[20.5641,48.5445,490.447],[20.5469,48.5459,501.2906],[20.5364,48.5259,533.1903],[20.5188,48.5346,498.3562],[20.5075,48.5331,460.5152],[20.5024,48.5199,445.2238],[20.5245,48.5195,507.6918],[20.5451,48.5265,528.135],[20.5693,48.5305,521.577],[20.5708,48.5159,540.2759],[20.5768,48.5119,502.9027],[20.5884,48.5083,465.0605],[20.5926,48.5049,442.3002],[20.5892,48.5022,433.1385],[20.5533,48.501,317.4763],[20.5404,48.4981,301.4182],[20.5197,48.4973,414.4211],[20.5094,48.4931,386.6521],[20.509,48.4808,447.899],[20.5104,48.475,359.3597],[20.5244,48.4586,340.9068],[20.5399,48.4453,370.3744],[20.5375,48.4398,337.9194],[20.5303,48.4309,318.1317],[20.5302,48.4277,319.2867],[20.5317,48.4262,282.6923],[20.5453,48.4224,271.9867],[20.5727,48.4225,279.384],[20.5972,48.4156,266.6552],[20.6183,48.4128,268.9601],[20.6363,48.4157,256.86],[20.6469,48.415,271.5236],[20.6547,48.422,229.6663],[20.6598,48.4243,241.1411],[20.6676,48.4228,223.5017],[20.6725,48.4198,332.2684],[20.6736,48.4161,333.3011],[20.6726,48.4,215.2627],[20.6664,48.3926,223.3102],[20.6503,48.3869,318.2953],[20.6445,48.383,240.1679],[20.6446,48.3805,227.8706],[20.6507,48.3746,179.3993],[20.6512,48.3675,212.7277],[20.6497,48.3641,230.0238],[20.6406,48.3574,236.4611],[20.6398,48.355,205.3069],[20.6507,48.3475,242.8844],[20.6619,48.3428,229.8037],[20.6724,48.3338,193.7454],[20.6854,48.328,268.0198],[20.686,48.3248,232.0182],[20.6781,48.3106,240.9027],[20.6782,48.2916,204.6906],[20.6968,48.2695,163.045],[20.7072,48.2644,158.7337],[20.7105,48.2548,127.0761],[20.7237,48.2508,126.4264]]]]}}