{"type": "Feature","bbox": [18.7268,45.902,20.1557,47.1187],"geometry": {"type": "MultiPolygon","coordinates": [[[[19.5079,46.1484,133.857],[19.5157,46.154,130.3897],[19.5262,46.1501,129.0208],[19.5605,46.1714,143.4571],[19.5561,46.1767,135.574],[19.5637,46.1808,140.8444],[19.6294,46.1709,127.2242],[19.6577,46.1894,126.2915],[19.6816,46.1799,117.3024],[19.6946,46.1872,115.632],[19.6896,46.1908,115.5822],[19.6819,46.202,124.3346],[19.6793,46.2112,131.8917],[19.667,46.2284,123.702],[19.6482,46.2459,127.3819],[19.6438,46.2551,129.5486],[19.6428,46.2641,130.0494],[19.64,46.2692,134.808],[19.6429,46.2741,133.5115],[19.6824,46.3022,126.0864],[19.6872,46.309,123.2303],[19.6743,46.3223,126.3907],[19.6575,46.3345,131.3067],[19.6561,46.3434,124.7246],[19.6577,46.3484,124.889],[19.6815,46.3536,118.9261],[19.691,46.3596,119.6152],[19.6969,46.3615,118.7364],[19.7305,46.3625,115.6115],[19.7396,46.3571,116.1423],[19.7534,46.3574,113.1193],[19.7601,46.3611,116.5863],[19.7698,46.3708,119.4645],[19.7961,46.3791,106.8578],[19.8152,46.3919,107.0497],[19.8431,46.3805,111.4934],[19.8532,46.3805,99.6892],[19.8648,46.3846,99.8506],[19.8722,46.3949,95.1931],[19.8749,46.4043,97.1718],[19.8893,46.4153,95.267],[19.8887,46.4296,94.8226],[19.878,46.4413,96.9063],[19.8748,46.4468,97.1294],[19.8784,46.4531,96.7654],[19.889,46.4626,91.6434],[19.8896,46.4782,96.3917],[19.8877,46.4829,99.9796],[19.8674,46.4969,101.3338],[19.8456,46.5059,110.1529],[19.8088,46.5056,111.0256],[19.8032,46.5067,99.6474],[19.7828,46.5206,103.8851],[19.776,46.5298,108.6325],[19.7867,46.5378,105.0004],[19.8005,46.5448,103.9673],[19.829,46.5557,103.4073],[19.8579,46.57,92.1632],[19.8759,46.5767,90.8461],[19.8934,46.577,90.6532],[19.9298,46.5591,97.6165],[19.9394,46.5567,89.7614],[19.9425,46.5587,89.185],[19.9494,46.5687,90.5413],[19.974,46.5858,86.7152],[19.9852,46.597,88.2075],[19.9854,46.628,85.9007],[19.9771,46.6419,83.0],[19.9766,46.6598,84.6205],[19.9778,46.6639,84.7969],[19.9937,46.6847,85.5538],[19.9944,46.7078,86.3758],[19.9912,46.7119,87.0743],[19.9687,46.7213,86.8627],[19.9592,46.733,88.3864],[19.9591,46.7362,88.083],[19.9618,46.7392,88.052],[19.9927,46.7577,89.075],[20.0093,46.7704,93.4198],[20.0346,46.7962,80.9136],[20.0198,46.8086,81.3404],[20.0032,46.8148,82.6865],[20.0143,46.8333,81.6501],[20.0216,46.8345,82.0184],[20.0485,46.8449,85.5927],[20.1035,46.8448,91.2686],[20.1098,46.8469,91.7239],[20.1099,46.8561,95.6687],[20.1084,46.8596,87.5514],[20.0899,46.8708,83.6475],[20.0889,46.875,80.7118],[20.0899,46.8815,84.792],[20.1153,46.8978,82.0092],[20.1221,46.9067,84.7478],[20.1435,46.9133,84.216],[20.149,46.9164,82.6995],[20.1542,46.9209,82.6746],[20.1557,46.9266,87.7113],[20.1551,46.9356,87.1548],[20.1456,46.9432,88.928],[20.1385,46.9446,87.8072],[20.1073,46.9443,86.3884],[20.1021,46.9462,89.0429],[20.0979,46.9502,89.9854],[20.0971,46.9584,90.544],[20.1001,46.9617,92.3857],[20.1087,46.9621,91.4708],[20.119,46.9595,85.8663],[20.1281,46.9593,87.5957],[20.1284,46.9671,84.284],[20.1215,46.979,83.1405],[20.1222,46.9824,83.5162],[20.1278,46.9902,84.434],[20.1273,46.993,86.2681],[20.1145,47.0023,85.4482],[20.0901,47.0115,87.0638],[20.0696,47.0175,87.1997],[20.0602,47.0173,86.7118],[20.0499,47.0119,90.4137],[20.0334,47.0083,91.033],[20.0172,47.0071,91.1691],[20.0003,47.0013,91.8821],[19.9931,46.9946,92.69],[19.9913,46.9756,96.2267],[19.9853,46.9661,99.0897],[19.9797,46.9645,97.8288],[19.9586,46.9685,101.19],[19.9075,46.9862,103.4861],[19.8914,46.9936,105.4621],[19.8867,46.9941,106.4898],[19.8794,46.9899,109.2005],[19.857,46.9679,109.5019],[19.8495,46.9453,109.7474],[19.8315,46.947,110.5026],[19.8149,46.9517,113.8804],[19.7879,46.9455,124.3793],[19.7812,46.9455,117.4688],[19.7638,46.9537,123.1609],[19.7452,46.9691,122.0803],[19.7361,46.9719,122.5033],[19.7246,46.9726,123.4117],[19.7139,46.9762,124.84],[19.6854,46.9959,128.4554],[19.6558,47.0282,138.7786],[19.6475,47.0433,139.298],[19.6462,47.0532,136.4427],[19.6414,47.0631,143.365],[19.6265,47.0802,138.7088],[19.6164,47.0972,140.7406],[19.5995,47.1125,141.638],[19.5877,47.1022,138.3469],[19.5804,47.0993,136.6901],[19.5612,47.0989,153.1353],[19.5427,47.1039,146.3116],[19.5189,47.1028,145.0112],[19.5138,47.097,136.1758],[19.5125,47.0885,135.6428],[19.5021,47.072,136.3085],[19.5021,47.0663,132.2591],[19.506,47.0568,132.9462],[19.4974,47.0439,135.9092],[19.4803,47.0424,128.61],[19.4653,47.0448,134.3004],[19.4463,47.0438,131.1102],[19.4317,47.0363,124.1828],[19.4192,47.0271,126.1745],[19.4057,47.0198,118.1201],[19.3691,47.0137,102.1191],[19.3603,47.0101,102.4137],[19.3497,47.0024,111.921],[19.3392,46.9997,118.167],[19.319,47.0139,97.596],[19.3171,47.0181,96.8338],[19.3168,47.0276,96.2863],[19.3209,47.0378,97.8807],[19.3288,47.0504,100.0944],[19.3486,47.0663,102.4809],[19.3574,47.0783,101.7646],[19.3451,47.0927,100.8982],[19.3331,47.0979,98.6451],[19.3111,47.112,98.3022],[19.2929,47.1167,117.0574],[19.2415,47.1187,96.9333],[19.2424,47.1041,98.8367],[19.2244,47.0825,95.056],[19.2177,47.0817,94.800299999999993],[19.206,47.0849,95.1208],[19.1826,47.0866,94.8164],[19.1693,47.0763,94.8239],[19.1547,47.0751,94.9761],[19.1531,47.0659,94.8859],[19.1472,47.063,95.4763],[19.1115,47.0628,94.3081],[19.1101,47.0595,94.7793],[19.1111,47.0455,94.4529],[19.0992,47.042,95.085],[19.0743,47.0399,96.8159],[19.0286,47.0511,96.5385],[19.0073,47.06,96.9965],[18.9776,47.0619,97.0626],[18.9704,47.0609,96.7185],[18.9691,47.056399999999996,106.3092],[18.9708,47.0171,94.0],[18.9636,47.0024,94.0],[18.9588,46.9873,96.4828],[18.9595,46.9807,96.6094],[18.9668,46.9674,104.831],[18.9679,46.9626,99.5598],[18.9681,46.936,93.1631],[18.9641,46.926,90.5],[18.964,46.9086,94.4059],[18.9543,46.8935,102.0109],[18.9357,46.8768,93.0528],[18.9306,46.8668,100.2311],[18.9297,46.8602,98.3156],[18.9308,46.854,103.6749],[18.934,46.8484,94.9036],[18.9345,46.8371,92.6806],[18.9301,46.8245,102.5833],[18.9334,46.8185,106.5366],[18.9535,46.8075,108.2289],[18.9634,46.7944,97.7252],[18.9742,46.7709,109.7653],[18.9938,46.743899999999996,94.7621],[18.9981,46.7351,94.4682],[19.0026,46.7257,93.9692],[19.0037,46.7165,89.75],[19.0069,46.7111,89.25],[19.0074,46.7033,88.5],[18.9979,46.6804,104.8412],[18.9792,46.6558,94.0717],[18.9556,46.6504,90.1265],[18.9376,46.6402,88.7093],[18.8917,46.6392,92.6403],[18.8757,46.6318,86.5],[18.8673,46.6217,86.5],[18.8674,46.5974,96.6499],[18.8823,46.5822,86.3141],[18.8876,46.5714,86.0],[18.8885,46.5306,94.5786],[18.904,46.5148,98.197],[18.9162,46.498,93.3362],[18.9175,46.4936,85.5],[18.9164,46.4544,98.7271],[18.9076,46.4364,85.5],[18.8851,46.4057,85.5],[18.8834,46.4008,85.125],[18.884,46.3883,102.2873],[18.8911,46.3749,89.3508],[18.8922,46.363,91.6714],[18.8956,46.3562,85.0],[18.8964,46.3362,85.0],[18.9053,46.3205,110.2499],[18.9126,46.3135,102.6762],[18.9122,46.2922,101.2179],[18.9048,46.28,92.3509],[18.903199999999998,46.2725,103.0451],[18.8976,46.2634,92.9274],[18.8873,46.2632,92.5088],[18.868,46.27,98.3649],[18.8623,46.2681,100.4565],[18.8596,46.262,109.7879],[18.8698,46.2472,90.615],[18.8706,46.242,112.2124],[18.869,46.2372,100.3276],[18.8456,46.2299,99.8214],[18.8288,46.2217,91.3749],[18.8208,46.2154,87.7081],[18.8169,46.2093,87.2295],[18.8184,46.2072,88.3742],[18.8465,46.2041,95.5794],[18.849,46.2024,92.2053],[18.8496,46.1992,104.8686],[18.8475,46.1948,117.9684],[18.8388,46.1909,112.0006],[18.8331,46.1858,89.689],[18.8324,46.1607,97.8337],[18.8233,46.1403,108.2477],[18.8187,46.1338,99.3231],[18.8086,46.125,87.5745],[18.8074,46.1124,82.0],[18.8053,46.1094,82.0],[18.759,46.0919,108.9118],[18.7552,46.0892,133.7536],[18.7508,46.0819,138.6357],[18.7495,46.0627,84.5563],[18.7436,46.0555,85.1035],[18.7301,46.0503,92.5198],[18.7268,46.0472,92.6726],[18.727,46.0345,85.7613],[18.7312,46.028,85.7281],[18.7361,46.0253,87.8379],[18.7931,46.0261,84.1282],[18.8309,46.0377,90.2579],[18.8446,46.0295,85.4874],[18.8512,46.0215,84.6479],[18.851,46.0176,84.8147],[18.8368,46.003,84.1362],[18.8246,45.9817,83.5054],[18.817,45.9577,95.692],[18.8239,45.9495,90.5109],[18.8239,45.9429,112.8343],[18.8162,45.9391,95.1466],[18.7888,45.9321,97.0484],[18.7862,45.9299,102.5098],[18.7865,45.928,82.0914],[18.804,45.9177,81.5],[18.8049,45.9107,92.4232],[18.8025,45.902,101.8298],[18.8062,45.9032,101.2767],[18.8113,45.9113,81.5],[18.8413,45.9133,83.3201],[18.8629,45.9179,84.63],[18.8812,45.9256,85.9587],[18.8992,45.9378,96.5605],[18.9278,45.9348,84.3976],[18.9493,45.9294,88.775],[18.9702,45.9317,88.0611],[18.9864,45.9361,88.9921],[18.9968,45.9455,88.8621],[19.0014,45.9598,89.3357],[19.0108,45.968,91.0794],[19.071,45.9712,94.1002],[19.0607,45.9997,95.0215],[19.0792,46.0199,100.1073],[19.0943,46.0336,100.7507],[19.1099,46.0383,98.7272],[19.1275,46.0347,105.6261],[19.134,46.0217,98.9735],[19.1359,46.0079,101.1132],[19.1487,45.998,96.3611],[19.191,45.9977,117.3621],[19.2113,46.0024,118.9012],[19.2439,46.0012,118.098],[19.2745,45.998,114.8086],[19.2964,46.0014,120.1084],[19.2829,46.0164,123.7761],[19.3665,46.0555,123.4861],[19.3788,46.0377,125.2104],[19.4119,46.0478,133.3807],[19.4182,46.0561,129.9164],[19.4259,46.0618,129.5487],[19.4485,46.0774,144.5262],[19.4635,46.0836,132.7596],[19.462,46.0971,137.4461],[19.4935,46.1106,128.5182],[19.5147,46.1174,125.2457],[19.5214,46.1223,126.6873],[19.5033,46.136,131.0619],[19.5018,46.1441,133.9708],[19.5079,46.1484,133.857]]]]}
,"properties": {"GID_1": "HUN.1_1","GID_0": "HUN","country": "Hungary","province": "Bács-Kiskun","VARNAME_1": "Bacs-Bodrog-Kiskun","NL_NAME_1": "NA","TYPE_1": "Megye","ENGTYPE_1": "County","CC_1": "NA","HASC_1": "HU.BK","ISO_1": "NA","name": "Bács-Kiskun.province","area_km2": 8298.499,"hist_schema_id": "Elevation0-9000","hist_area_km2": {"75": 344.399,"100": 4522.198,"125": 2819.976,"150": 594.658,"175": 17.268}}}