{"type":"Feature","properties":{"ISO3166-1-Alpha-3":"HUN","country":"Hungary","fill":"#00F","id":"3161","name":"Bács-Kiskun"},
"geometry":{"type": "Polygon","coordinates": [[[19.32299,47.01956,97.2773],[19.30283,47.04108,96.5422],[19.31058,47.06901,97.0357],[19.33436,47.09542,99.009],[19.33022,47.12436,99.1178],[19.30139,47.14526,98.8859],[19.26532,47.15164,108.4346],[19.15752,47.11883,95.3108],[19.08321,47.07801,95.9135],[19.0367,47.0685,96.6153],[18.98936,47.06664,96.2926],[18.96797,47.03315,98.761],[18.96673,47.02369,96.4614],[18.96208,47.01718,108.3537],[18.95691,47.01168,107.8443],[18.95433,47.00524,107.8945],[18.95515,46.9947,93.5],[18.96053,46.97744,93.3161],[18.96694,46.93584,91.0],[18.96652,46.91724,93.2939],[18.95805,46.90902,90.5],[18.94885,46.90391,96.2058],[18.93893,46.89171,109.1192],[18.93087,46.87714,92.9763],[18.92756,46.86494,90.5],[18.92673,46.84841,90.0],[18.92601,46.83523,90.0],[18.92756,46.82712,90.0],[18.93314,46.8205,106.368],[18.95061,46.80707,104.0881],[18.95433,46.8035,99.3533],[18.95836,46.80081,94.8414],[18.97541,46.78397,93.9959],[18.97851,46.77994,93.8854],[18.98471,46.77559,93.8548],[18.98688,46.76549,103.868],[18.9875,46.75389,90.0],[18.98905,46.74516,93.8821],[18.99887,46.72314,100.405],[19.00177,46.70847,97.6213],[18.99639,46.69488,94.8777],[18.98161,46.67627,94.4279],[18.95288,46.65612,92.4254],[18.88529,46.63524,86.5],[18.85811,46.61483,89.7412],[18.87723,46.59116,97.4185],[18.90761,46.53173,92.5564],[18.92012,46.49876,92.0459],[18.9227,46.46861,85.5],[18.89893,46.4143,91.9755],[18.89221,46.37836,85.0],[18.89552,46.36286,85.0],[18.91009,46.34291,89.1656],[18.9133,46.33056,90.9984],[18.91443,46.2457,83.75],[18.89841,46.23403,97.836],[18.84167,46.22565,108.0272],[18.8241,46.2171,88.215],[18.82048,46.21219,87.4795],[18.82328,46.20633,108.9114],[18.83495,46.20261,110.0303],[18.84705,46.20555,109.9587],[18.85387,46.19323,91.417],[18.83351,46.16178,103.8937],[18.8178,46.15566,95.8988],[18.8026,46.16139,105.934],[18.79506,46.15119,98.3773],[18.80715,46.1314,86.6954],[18.82917,46.1229,88.4935],[18.80891,46.10814,95.5292],[18.78576,46.09967,82.0],[18.80415,46.10096,100.3662],[18.82203,46.09892,86.6767],[18.82865,46.08814,85.9141],[18.82834,46.07419,86.3462],[18.84467,46.04985,107.2493],[18.8455,46.0259,84.1998],[18.85242,46.0112,84.51],[18.84488,45.98991,83.998],[18.83134,45.97073,83.7998],[18.8241,45.94019,87.1276],[18.80147,45.91999,81.5],[18.82224,45.90573,83.3391],[18.82245,45.90558,83.3391],[18.82834,45.90573,84.7129],[18.84539,45.91394,83.456],[18.86544,45.91808,87.9185],[18.8766,45.92242,97.6611],[18.88653,45.93043,103.6568],[18.90131,45.9312,85.6777],[18.9627,45.92795,89.5964],[18.98182,45.92185,87.9034],[18.9875,45.92381,87.2772],[18.98874,45.92702,88.7879],[18.98647,45.93125,87.8498],[18.97882,45.93978,88.8097],[18.97768,45.9435,89.4648],[18.97872,45.94717,89.0477],[18.98182,45.95079,88.8348],[19.00559,45.96257,92.6168],[19.03091,45.96004,90.8564],[19.04858,45.96345,92.5605],[19.04972,45.99311,94.1322],[19.06543,46.01202,97.3204],[19.08848,46.01885,101.4842],[19.11101,46.01295,95.6134],[19.12579,45.99327,98.6746],[19.12579,45.99311,98.6746],[19.14801,45.98407,101.9109],[19.23565,45.97771,111.5071],[19.26345,45.98143,112.8877],[19.27482,45.99161,118.5273],[19.27947,46.00381,111.0181],[19.28692,46.01616,123.4636],[19.29831,46.02212,126.7531],[19.30697,46.02665,127.2124],[19.32516,46.02949,126.8707],[19.36216,46.02965,122.1442],[19.3789,46.03368,123.6053],[19.38913,46.04153,121.8828],[19.39657,46.05156,125.1242],[19.40474,46.06024,133.1134],[19.41724,46.06432,130.1119],[19.4283,46.06551,128.8743],[19.43688,46.06799,129.7833],[19.45373,46.07755,136.1775],[19.46086,46.08447,133.3454],[19.46592,46.09197,134.0005],[19.47295,46.09869,135.3643],[19.49931,46.10861,127.2624],[19.49672,46.11688,128.7451],[19.48928,46.12602,131.1259],[19.48752,46.13424,129.1627],[19.50199,46.14561,132.3],[19.52525,46.15641,131.2553],[19.54995,46.16416,132.792],[19.56845,46.16643,132.6816],[19.58974,46.16597,134.337],[19.64782,46.17388,128.7472],[19.66932,46.1731,122.9069],[19.69009,46.1684,124.4616],[19.71189,46.15871,123.5527],[19.69681,46.18829,114.5461],[19.67201,46.22041,122.4015],[19.6531,46.25495,124.7645],[19.65609,46.28333,127.6633],[19.67129,46.30456,124.8144],[19.67222,46.3271,125.6357],[19.66974,46.35066,120.0357],[19.68979,46.3612,121.4993],[19.71294,46.36298,119.8824],[19.74022,46.35681,117.3805],[19.76937,46.35888,110.5254],[19.79727,46.37304,106.2488],[19.82828,46.38017,102.6679],[19.84967,46.37929,102.2438],[19.8628,46.39926,97.0146],[19.87964,46.44466,100.9604],[19.86828,46.49117,105.3709],[19.82094,46.51411,110.7144],[19.81949,46.55514,102.3915],[19.85711,46.57349,91.9674],[19.94393,46.56408,89.0625],[19.97897,46.59049,88.4979],[19.99736,46.69973,86.2591],[19.9891,46.71777,86.5884],[19.96853,46.7286,90.0142],[20.01163,46.77032,95.8214],[20.06134,46.80066,80.951],[20.03509,46.80686,81.4172],[20.01586,46.80342,79.5],[20.00191,46.81141,90.9191],[19.99798,46.82492,85.1763],[20.01183,46.85071,81.7383],[20.00584,46.85293,83.8424],[20.02754,46.87476,84.979],[20.06165,46.8836,82.3839],[20.09193,46.88236,82.7187],[20.1063,46.90112,81.8719],[20.08666,46.90964,81.9703],[20.08635,46.92582,80.9427],[20.10878,46.92427,82.0475],[20.12697,46.91331,81.8503],[20.13617,46.91218,82.0987],[20.15405,46.93075,84.0977],[20.15405,46.93695,85.3367],[20.14268,46.94044,82.1654],[20.12645,46.94225,82.9959],[20.11198,46.94556,82.9116],[20.10568,46.95372,82.4682],[20.11188,46.96168,90.0906],[20.1464,46.9793,82.4358],[20.1094,47.00669,85.4673],[20.07633,47.02039,86.1026],[20.04697,47.01139,89.4654],[20.01855,46.99765,91.91],[19.97711,46.9629,96.7195],[19.94548,46.97036,99.2005],[19.91592,46.98571,102.0031],[19.8843,46.9806,109.2378],[19.85598,46.96248,111.1943],[19.83872,46.94651,111.1404],[19.81908,46.94551,113.2455],[19.8174,46.91856,110.2897],[19.78598,46.90285,111.472],[19.75064,46.90285,112.9508],[19.72119,46.87144,113.5696],[19.72119,46.82628,113.7974],[19.68978,46.78505,116.8671],[19.65051,46.80665,126.6617],[19.62695,46.86359,123.0477],[19.59358,46.90482,126.9978],[19.57394,46.94212,140.8448],[19.55628,46.97353,128.5161],[19.56217,46.99709,133.0016],[19.57591,47.01476,136.9726],[19.62695,46.99709,130.7264],[19.64671,47.01207,131.8706],[19.62364,47.02788,138.3516],[19.56835,47.09051,139.1989],[19.53062,47.11619,147.9807],[19.46231,47.12348,128.3662],[19.44753,47.11097,122.6343],[19.44546,47.09098,119.0456],[19.43326,47.07682,131.69],[19.40277,47.06857,119.3822],[19.37435,47.05578,111.7432],[19.35255,47.02656,101.4988],[19.32299,47.01956,97.2773]]]}}