{"type":"Feature","properties":{"featurecla":"River","scalerank":8,"rivernum":871,"dissolve":"871River","name":"Mures2","name_alt":null,"note":null,"min_zoom":7.0,"strokeweig":0.25,"name_en":"Mures","min_label":8.0},
"geometry":{"type": "LineString","coordinates": [[21.026269531250023,46.17157623905662,97.9999],[21.013574218750023,46.170038153119116,98.6144],[21.000146484375023,46.16681549686912,97.1142],[20.995263671875023,46.16400787968162,109.9539],[20.98779296875,46.155633856244116,101.6098],[20.983056640625023,46.152460028119116,109.8246],[20.978417968750023,46.14801666874412,108.1113],[20.968017578125,46.13239166874412,92.5],[20.963281250000023,46.12750885624412,95.3094],[20.952294921875023,46.120135809369117,97.233],[20.929589843750023,46.097186590619117,95.1656],[20.90283203125,46.083856512494116,93.2933],[20.873925781250023,46.080829168744117,96.9718],[20.84521484375,46.085809637494116,92.3751],[20.818603515625,46.09650299686912,91.3646],[20.806640625,46.10529205936912,89.0797],[20.783447265625,46.128778387494116,90.9131],[20.772119140625023,46.13678619999412,90.5842],[20.753076171875023,46.14191315311912,88.386],[20.66357421875,46.14557526249412,87.3527],[20.624267578125,46.139032293744116,97.6915],[20.6025390625,46.14179108280662,86.1578],[20.486572265625,46.18109772343162,81.5347],[20.486572265625,46.18109772343162,81.5347],[20.486572265625,46.18109772343162,81.5347],[20.486572265625,46.18109772343162,81.5347],[20.486572265625,46.18109772343162,81.5347],[20.40185546875,46.214471746869116,77.9162],[20.313720703125,46.23541901249412,82.1211],[20.2431640625,46.234002996869116,81.1312],[20.20849609375,46.23883698124412,78.3694],[20.1806640625,46.25934479374412,78.8882]]}}