{"type":"Feature","properties":{"GID_2":"HUN.16.5_1","GID_0":"HUN","country":"Hungary","GID_1":"HUN.16_1","province":"Szabolcs-Szatmár-Bereg","NL_NAME_1":"NA","county":"Kisvárda","VARNAME_2":"Kisvárdai","NL_NAME_2":"NA","TYPE_2":"Kistérség","ENGTYPE_2":"Subregion","CC_2":"NA","HASC_2":"NA","name":"Kisvárda.county"},
"geometry":{"type": "MultiPolygon","coordinates": [[[[21.8349,48.2441,97.8235],[21.8276,48.2199,97.9401],[21.8288,48.2123,96.4176],[21.8274,48.2008,97.3976],[21.8551,48.1961,95.4711],[21.8652,48.189,96.31],[21.8814,48.1852,95.4905],[21.893,48.1856,95.1455],[21.9015,48.1924,95.5805],[21.9091,48.1953,95.9961],[21.9229,48.1947,95.6455],[21.9259,48.1897,94.9244],[21.9259,48.184,95.6423],[21.9317,48.1699,94.5084],[21.9488,48.1483,99.4792],[21.9561,48.1311,97.4122],[21.9619,48.1252,97.5061],[21.9728,48.1277,99.9207],[21.9769,48.1302,103.9962],[21.9809,48.1358,103.9976],[21.9817,48.1445,101.169],[21.9834,48.1467,100.1856],[22.0168,48.1563,102.2581],[22.0248,48.1568,101.9667],[22.0519,48.155,104.9297],[22.0544,48.1519,105.1512],[22.0544,48.1421,104.137],[22.0562,48.1388,106.4891],[22.0625,48.1375,108.1219],[22.0783,48.1388,117.4396],[22.0816,48.1363,123.2602],[22.0834,48.1295,120.0573],[22.0867,48.1279,119.5687],[22.0928,48.1283,105.801],[22.1051,48.1347,106.9599],[22.1173,48.1374,113.7571],[22.1359,48.1335,110.6628],[22.1396,48.1262,111.796],[22.1468,48.1257,112.3005],[22.1566,48.1376,114.0204],[22.1574,48.1494,114.0739],[22.1649,48.159,111.2495],[22.1681,48.1679,110.9426],[22.1797,48.1743,109.8524],[22.1998,48.1777,111.1791],[22.2065,48.1799,113.9292],[22.2086,48.1821,114.5265],[22.2083,48.1948,120.0027],[22.196,48.1984,117.8725],[22.194,48.2017,112.9979],[22.1963,48.2073,124.5292],[22.2109,48.2128,113.4425],[22.2136,48.2169,120.1834],[22.2094,48.2253,125.7229],[22.2086,48.2424,121.4048],[22.1956,48.2618,110.7874],[22.1961,48.265,113.2157],[22.2032,48.2665,114.5551],[22.2111,48.2589,118.9275],[22.2167,48.2575,114.2042],[22.2491,48.2554,107.1264],[22.2553,48.2578,107.4445],[22.2556,48.2688,105.424],[22.2469,48.2751,113.4873],[22.2398,48.2869,105.9082],[22.2324,48.289,105.1518],[22.2123,48.2872,116.8496],[22.2071,48.2891,115.1076],[22.2063,48.2926,115.5246],[22.2077,48.3037,117.2649],[22.2102,48.3087,110.3164],[22.2357,48.315,109.5436],[22.2357,48.3179,108.0081],[22.2286,48.3206,108.7659],[22.2272,48.3233,106.19],[22.2285,48.328,108.0053],[22.236,48.3369,105.2551],[22.256,48.3462,109.7273],[22.254,48.3551,110.3826],[22.2435,48.3611,105.4373],[22.2431,48.3641,105.142],[22.2536,48.3671,105.3307],[22.2714,48.3679,104.6773],[22.2639,48.3717,105.5836],[22.2631,48.3781,104.8755],[22.2535,48.3829,104.4369],[22.2527,48.3893,109.7588],[22.2439,48.3878,111.1887],[22.2431,48.3941,106.7866],[22.2607,48.3971,98.3741],[22.2599,48.4034,105.45],[22.2687,48.4049,104.4794],[22.2669,48.4171,103.338],[22.2405,48.4129,105.1287],[22.2395,48.4186,103.6985],[22.2308,48.4172,104.1832],[22.2198,48.4273,105.4491],[22.2023,48.4245,101.1103],[22.1947,48.4173,105.675],[22.1612,48.4119,100.3317],[22.16,48.4102,105.7869],[22.1608,48.4059,103.3953],[22.1573,48.4054,103.6124],[22.1568,48.401,105.2983],[22.136,48.3934,96.0],[22.1422,48.3842,103.6577],[22.1274,48.3826,102.9563],[22.122,48.3797,97.9762],[22.1306,48.3756,103.2974],[22.1349,48.3717,102.3294],[22.1372,48.3669,101.8653],[22.135,48.3622,102.7073],[22.1059,48.3498,106.8297],[22.0915,48.3364,103.1607],[22.0641,48.3251,100.1217],[22.0475,48.3126,100.3969],[22.0355,48.3085,102.1089],[22.0184,48.3118,104.6258],[22.0018,48.3127,98.546],[21.9921,48.3123,98.3876],[21.9836,48.3097,100.4699],[21.9686,48.3043,97.4093],[21.9586,48.2988,97.0218],[21.9403,48.2786,98.3606],[21.9228,48.2685,97.3525],[21.9142,48.2575,97.6553],[21.9057,48.2515,98.2577],[21.9009,48.2509,99.3205],[21.8817,48.255,98.2786],[21.8713,48.2481,97.6166],[21.8567,48.2477,97.3848],[21.8451,48.2437,97.3221],[21.8349,48.2441,97.8235]]]]}}