{"type":"Feature","properties":{"GID_2":"HUN.16.7_1","GID_0":"HUN","country":"Hungary","GID_1":"HUN.16_1","province":"Szabolcs-Szatmár-Bereg","NL_NAME_1":"NA","county":"Nagykálló","VARNAME_2":"Nagykállói","NL_NAME_2":"NA","TYPE_2":"Kistérség","ENGTYPE_2":"Subregion","CC_2":"NA","HASC_2":"NA","name":"Nagykálló.county"},
"geometry":{"type": "MultiPolygon","coordinates": [[[[21.5767,47.7848,121.1428],[21.5869,47.7815,123.2131],[21.6042,47.7724,125.1195],[21.6248,47.7404,131.9404],[21.6327,47.7367,131.8588],[21.6621,47.7308,136.3755],[21.6681,47.732,134.8536],[21.6816,47.7391,131.83],[21.6986,47.7393,131.1889],[21.7051,47.7336,143.8792],[21.709,47.7261,140.7257],[21.7098,47.7194,137.4563],[21.715,47.7138,144.6764],[21.7643,47.7125,144.0482],[21.7658,47.7069,146.5606],[21.7644,47.7006,145.5098],[21.7612,47.6962,145.3902],[21.7624,47.6935,146.9139],[21.7925,47.6927,146.9313],[21.7948,47.6915,145.4799],[21.7994,47.6833,153.6103],[21.8034,47.6815,148.4787],[21.8523,47.6815,159.8175],[21.8585,47.6843,160.6038],[21.866,47.6934,150.7877],[21.8781,47.703,156.6076],[21.8831,47.7126,152.0215],[21.8831,47.731,154.0292],[21.8852,47.7351,145.9529],[21.9071,47.7426,148.1793],[21.9293,47.7432,148.16],[21.9273,47.7591,149.9588],[21.9297,47.7647,148.613],[21.9352,47.768,146.0429],[21.945,47.771,150.392],[21.9586,47.769,150.694],[21.9618,47.7699,156.2168],[21.9619,47.7734,160.0456],[21.9579,47.7795,149.4807],[21.9563,47.79,146.7563],[21.953,47.7948,148.6128],[21.9517,47.8001,148.8718],[21.9531,47.8024,151.2218],[21.9569,47.8033,143.0096],[21.9716,47.8002,150.051],[21.9776,47.8013,148.7733],[21.9787,47.8103,149.3667],[21.9816,47.8166,150.5311],[21.9809,47.8362,143.8789],[21.9767,47.8448,143.0878],[21.9748,47.8545,138.2905],[21.9673,47.8634,135.5629],[21.961,47.8652,136.2867],[21.9498,47.859,138.0246],[21.9407,47.8566,135.9674],[21.937,47.8582,135.7938],[21.9321,47.8645,135.9422],[21.9314,47.8713,135.5435],[21.9389,47.8897,137.5545],[21.9394,47.9049,131.8632],[21.9141,47.9147,126.2765],[21.9054,47.9108,129.4201],[21.9007,47.9059,130.2343],[21.8659,47.9007,128.3025],[21.8497,47.9065,127.9817],[21.8329,47.9172,118.7232],[21.8294,47.9176,123.3321],[21.8225,47.9147,125.4116],[21.8232,47.909,121.0858],[21.8183,47.9034,114.2938],[21.8173,47.8976,116.1077],[21.8153,47.8958,117.4898],[21.8023,47.8979,123.0979],[21.7894,47.8958,120.9393],[21.7787,47.8997,120.6648],[21.7752,47.8988,118.8463],[21.7708,47.895,121.2105],[21.7701,47.8874,121.1878],[21.7723,47.8824,123.9503],[21.7811,47.8764,123.2869],[21.7945,47.8714,124.961],[21.7964,47.8691,125.2983],[21.7955,47.8597,122.4529],[21.7877,47.8486,126.5626],[21.7836,47.8459,126.5112],[21.7672,47.8459,127.6767],[21.7569,47.8562,123.5457],[21.7408,47.8599,124.8573],[21.7256,47.8594,118.7612],[21.7106,47.8542,119.3803],[21.6947,47.8517,117.5715],[21.6838,47.8551,117.8081],[21.6825,47.8643,117.011],[21.68,47.8671,119.7751],[21.6595,47.8736,125.0554],[21.6528,47.8713,118.5699],[21.6511,47.8692,120.288],[21.6577,47.8566,114.0],[21.6563,47.8539,114.0],[21.6287,47.853,118.854],[21.6222,47.8433,120.9767],[21.6195,47.842,120.6182],[21.6158,47.8432,118.0182],[21.6094,47.8496,120.8725],[21.5951,47.8497,117.3261],[21.5771,47.8459,115.3777],[21.5658,47.8389,115.9426],[21.5523,47.8338,120.1025],[21.5442,47.824,117.802],[21.5436,47.8081,117.2102],[21.5538,47.7934,115.8768],[21.5767,47.7848,121.1428]]]]}}