{"type":"Feature","properties":{"GID_2":"HUN.19.8_1","GID_0":"HUN","country":"Hungary","GID_1":"HUN.19_1","province":"Veszprém","NL_NAME_1":"NA","county":"Veszprém","VARNAME_2":"Veszprémi","NL_NAME_2":"NA","TYPE_2":"Kistérség","ENGTYPE_2":"Subregion","CC_2":"NA","HASC_2":"NA","name":"Veszprém.county"},
"geometry":{"type": "MultiPolygon","coordinates": [[[[17.5932,47.0219,301.5459],[17.5938,47.0109,292.0529],[17.612,46.9932,208.5708],[17.6169,46.9913,191.8664],[17.6573,46.9876,252.1458],[17.6603,46.9843,266.0737],[17.6623,46.9697,310.7969],[17.6884,46.9648,306.8579],[17.6937,46.9605,301.5983],[17.6951,46.9539,307.2733],[17.6973,46.9511,316.1439],[17.707,46.9469,332.0997],[17.7156,46.9391,316.9541],[17.7232,46.9383,293.045],[17.7404,46.942,328.0951],[17.746,46.9451,321.3875],[17.7559,46.9589,295.8194],[17.7533,46.965,355.4499],[17.7543,46.968,344.8649],[17.7761,46.9752,302.837],[17.7869,46.9832,356.2751],[17.7912,46.9898,360.8605],[17.8145,46.9909,330.6914],[17.8258,46.9964,340.8112],[17.851,46.9975,401.4697],[17.8641,47.0021,313.5674],[17.8849,47.0067,298.5194],[17.8963,47.0136,296.2898],[17.9092,47.0189,290.7162],[17.9093,47.028,305.1711],[17.9155,47.0407,301.6186],[17.9169,47.0469,316.9751],[17.9284,47.0519,299.9274],[17.9396,47.0602,280.6595],[17.9441,47.0674,306.011],[17.945,47.0791,311.9271],[17.9492,47.0807,303.6613],[17.9799,47.081,286.5679],[17.9868,47.0825,287.0444],[17.9931,47.0907,293.5233],[17.9928,47.1063,244.5951],[17.9957,47.1095,229.2085],[18.0198,47.1095,177.6612],[18.0319,47.1005,187.6636],[18.0364,47.0944,183.3563],[18.0503,47.0927,144.2574],[18.0551,47.0848,140.0172],[18.0497,47.0816,161.0186],[18.0492,47.0795,150.8323],[18.0579,47.0659,141.1844],[18.0617,47.0632,146.1309],[18.0775,47.0583,169.1338],[18.0829,47.0584,164.7914],[18.104,47.0661,180.5109],[18.1244,47.0673,190.5967],[18.1292,47.072,190.3734],[18.1397,47.0743,185.3238],[18.1338,47.0869,160.3406],[18.1297,47.0915,138.3898],[18.113,47.096,139.8095],[18.1061,47.1001,143.9701],[18.1016,47.1063,157.3763],[18.1034,47.1139,153.4053],[18.0993,47.1201,154.5234],[18.0929,47.1273,147.3692],[18.0768,47.1381,200.2322],[18.0725,47.1442,185.1477],[18.0586,47.1452,184.8192],[18.0514,47.1475,179.7418],[18.0493,47.1493,178.0],[18.0471,47.1562,176.587],[18.0417,47.1605,199.0374],[18.032,47.1661,223.14],[18.0156,47.1708,216.2785],[18.0134,47.1804,233.9942],[18.0059,47.1905,247.0348],[18.0063,47.1977,250.9666],[17.9851,47.1972,276.9169],[17.9736,47.1993,300.1698],[17.9545,47.1996,392.3067],[17.9517,47.2014,398.3793],[17.9486,47.209,316.1487],[17.9389,47.2151,375.1602],[17.9129,47.2154,430.6641],[17.9097,47.2142,430.5601],[17.9062,47.2102,411.9658],[17.8963,47.1937,386.4423],[17.8819,47.1911,418.2708],[17.8816,47.1776,478.5715],[17.8755,47.1756,487.6863],[17.8454,47.1816,559.1368],[17.8384,47.1916,549.4243],[17.8321,47.1959,522.1776],[17.8345,47.2022,443.9588],[17.8325,47.2055,431.386],[17.8212,47.2058,439.6165],[17.804,47.2015,433.9996],[17.7953,47.2102,426.8228],[17.7835,47.2119,453.9944],[17.7735,47.2154,406.5625],[17.7631,47.2266,451.9871],[17.7589,47.2251,405.942],[17.757,47.219,424.7777],[17.749,47.207,489.4725],[17.7443,47.205,510.7837],[17.7375,47.2055,540.0209],[17.7337,47.2099,501.145],[17.7364,47.2189,365.3453],[17.7287,47.229,297.8647],[17.7134,47.2226,369.5711],[17.7051,47.2144,398.7856],[17.6916,47.2102,358.2963],[17.6863,47.2029,433.1321],[17.6857,47.2007,440.9792],[17.6995,47.1917,420.9745],[17.7042,47.1911,444.2375],[17.7113,47.1929,403.1598],[17.7162,47.1913,395.4395],[17.7183,47.1876,395.4375],[17.7185,47.1758,446.4562],[17.7136,47.1675,444.5505],[17.7036,47.159,412.844],[17.7021,47.1447,388.545],[17.6846,47.1282,437.2817],[17.6804,47.1219,524.9156],[17.6723,47.0973,437.2975],[17.6776,47.0883,451.9895],[17.6884,47.081,376.2014],[17.7113,47.0793,425.6296],[17.7206,47.0762,398.4504],[17.7315,47.0699,386.4083],[17.7512,47.0634,406.5154],[17.7524,47.0607,386.1966],[17.7493,47.0541,410.3798],[17.7432,47.0523,431.9855],[17.7346,47.0545,340.4539],[17.7215,47.0552,394.0321],[17.7092,47.06,426.6891],[17.6837,47.0603,419.6219],[17.6616,47.0702,438.6644],[17.6427,47.0732,443.9116],[17.6389,47.0688,433.4861],[17.6342,47.0664,454.0601],[17.6127,47.0593,424.3239],[17.6115,47.056,425.7648],[17.6121,47.0465,430.3801],[17.6162,47.0385,415.9945],[17.616,47.0348,397.9357],[17.6025,47.029,324.6324],[17.5932,47.0219,301.5459]]]]}}