{"type": "Feature","bbox": [19.11,47.5644,19.2325,47.7265],"geometry": {"type": "MultiPolygon","coordinates": [[[[19.167,47.5644,126.6211],[19.1761,47.5661,140.8105],[19.2005,47.5766,192.7935],[19.2056,47.5866,185.9823],[19.2075,47.598,157.1556],[19.2208,47.6127,226.0715],[19.2319,47.6221,189.6035],[19.2325,47.6405,199.189],[19.181,47.6578,183.2675],[19.1807,47.6607,178.8968],[19.1919,47.6755,151.8498],[19.1933,47.6854,135.1843],[19.1856,47.6905,131.2761],[19.167,47.699,116.3725],[19.1499,47.7201,111.9466],[19.1313,47.7265,99.7244],[19.13,47.7181,108.6426],[19.1265,47.711,99.0],[19.126,47.6949,99.0],[19.1229,47.6892,101.2498],[19.1219,47.6774,98.5],[19.1184,47.6702,98.5],[19.1182,47.6488,98.5],[19.1104,47.6259,107.6992],[19.11,47.6143,106.6317],[19.1116,47.6117,105.8982],[19.1154,47.6105,104.9015],[19.1387,47.6104,118.0273],[19.1442,47.6087,119.0373],[19.149,47.5995,119.8954],[19.15,47.5814,118.8549],[19.1647,47.5724,127.257],[19.167,47.5644,126.6211]]]]}
,"properties": {"GID_2": "HUN.14.4_1","GID_0": "HUN","country": "Hungary","GID_1": "HUN.14_1","province": "Pest","NL_NAME_1": "NA","county": "Dunakeszi","VARNAME_2": "NA","NL_NAME_2": "NA","TYPE_2": "Kistérség","ENGTYPE_2": "Subregion","CC_2": "NA","HASC_2": "NA","name": "Dunakeszi.county","area_km2": 89.57105,"hist_schema_id": "Elevation0-9000","hist_area_km2": {"100": 10.87958,"125": 35.86945,"150": 22.54851,"175": 10.25803,"200": 6.84353,"225": 1.87161,"250": 0.87166,"275": 0.38581,"300": 0.04287}}}