{"type": "Feature","bbox": [21.9273,47.592,22.3401,47.9286],"geometry": {"type": "MultiPolygon","coordinates": [[[[22.1402,47.5983,139.9528],[22.1478,47.5949,144.4624],[22.1621,47.5927,150.6594],[22.1726,47.592,145.5512],[22.178,47.5947,150.7135],[22.1801,47.5996,142.7],[22.1822,47.5996,139.7567],[22.1846,47.6067,140.1977],[22.1915,47.6122,142.6493],[22.1961,47.6309,144.9434],[22.2007,47.6365,150.1702],[22.205,47.6552,153.0697],[22.2132,47.6542,146.0276],[22.2238,47.6624,148.3918],[22.2217,47.664,156.2951],[22.2248,47.6687,148.298],[22.224,47.6733,146.2299],[22.2268,47.681,147.1966],[22.2244,47.6829,145.0543],[22.2276,47.6883,144.8584],[22.2326,47.6936,145.7808],[22.2432,47.6955,153.7167],[22.2556,47.6954,142.2413],[22.2578,47.6984,146.6803],[22.2606,47.6987,145.9373],[22.2639,47.714,143.5706],[22.2639,47.717,143.3319],[22.2609,47.7177,147.3707],[22.2662,47.7314,143.9964],[22.287,47.7296,141.0879],[22.3005,47.7375,135.6903],[22.3049,47.7374,138.4589],[22.3077,47.7417,133.4939],[22.3191,47.7436,127.6625],[22.3225,47.7553,126.4677],[22.3189,47.7662,129.3692],[22.3259,47.7671,127.6725],[22.3291,47.7706,129.7935],[22.3306,47.7797,123.4262],[22.3274,47.7914,128.7904],[22.3341,47.8038,127.832],[22.3334,47.81,123.0303],[22.34,47.8182,121.7013],[22.3401,47.8221,122.9314],[22.3355,47.826,124.4259],[22.3243,47.83,127.9076],[22.3149,47.8288,127.2918],[22.3105,47.8296,129.9221],[22.2993,47.8443,130.4983],[22.2964,47.8459,133.9694],[22.2824,47.8461,137.0694],[22.2729,47.8418,141.6528],[22.2562,47.8374,141.5951],[22.2446,47.8468,142.7699],[22.2255,47.8541,143.5824],[22.2158,47.8574,143.7203],[22.2049,47.856,159.6927],[22.1971,47.8588,151.5874],[22.1949,47.8647,149.5971],[22.1995,47.8767,147.0002],[22.1994,47.9067,144.7092],[22.197,47.9095,143.4653],[22.187,47.9119,145.7604],[22.1861,47.9245,145.653],[22.1819,47.9279,144.8465],[22.1628,47.9286,145.5477],[22.1506,47.9259,142.5036],[22.1429,47.9229,142.2308],[22.1374,47.9142,142.3229],[22.1336,47.9127,142.2832],[22.1263,47.9145,143.7568],[22.1193,47.9218,154.3813],[22.1128,47.9179,148.7679],[22.1082,47.9169,142.2971],[22.0924,47.9223,142.5759],[22.0874,47.9223,144.0795],[22.0763,47.9187,143.2729],[22.0658,47.9101,146.4791],[22.017,47.9032,133.1054],[22.0131,47.9052,132.4566],[22.0063,47.9211,135.932],[21.9917,47.926,139.2971],[21.9788,47.9193,141.6835],[21.9552,47.9121,138.8757],[21.946,47.9056,130.2312],[21.9394,47.9049,131.8632],[21.9389,47.8897,137.5545],[21.9314,47.8713,135.5435],[21.9321,47.8645,135.9422],[21.937,47.8582,135.7938],[21.9407,47.8566,135.9674],[21.9498,47.859,138.0246],[21.961,47.8652,136.2867],[21.9694,47.8617,136.1439],[21.9748,47.8545,138.2905],[21.9767,47.8448,143.0878],[21.9804,47.8385,144.224],[21.9818,47.8181,148.975],[21.977,47.8008,148.7733],[21.9716,47.8002,150.051],[21.9591,47.8032,144.0002],[21.9525,47.8019,150.218],[21.9521,47.7968,148.2873],[21.9563,47.79,146.7563],[21.9579,47.7795,149.4807],[21.9619,47.7734,160.0456],[21.9621,47.7705,155.8725],[21.9586,47.769,150.694],[21.945,47.771,150.392],[21.9352,47.768,146.0429],[21.9297,47.7647,148.613],[21.9273,47.7591,149.9588],[21.9293,47.7432,148.16],[21.9607,47.7262,153.7575],[21.993,47.7179,162.4234],[21.9952,47.7059,167.3717],[21.9922,47.6985,166.417],[21.9927,47.6946,162.8287],[22.0087,47.6866,158.0832],[22.0157,47.6799,163.7586],[22.0234,47.6472,158.0276],[22.0409,47.6385,153.1043],[22.0513,47.6384,157.8198],[22.0574,47.6412,163.6392],[22.0624,47.6494,159.9776],[22.0801,47.67,156.1522],[22.082,47.676,159.2826],[22.0847,47.6781,159.9725],[22.0901,47.6782,159.064],[22.1137,47.6697,151.0175],[22.1301,47.6457,152.4223],[22.1301,47.6379,146.6399],[22.1325,47.6312,149.2767],[22.1295,47.6008,140.5437],[22.1324,47.6012,145.2276],[22.1402,47.5983,139.9528]]]]}
,"properties": {"GID_2": "HUN.16.8_1","GID_0": "HUN","country": "Hungary","GID_1": "HUN.16_1","province": "Szabolcs-Szatmár-Bereg","NL_NAME_1": "NA","county": "Nyírbátor","VARNAME_2": "Nyírbátori","NL_NAME_2": "NA","TYPE_2": "Kistérség","ENGTYPE_2": "Subregion","CC_2": "NA","HASC_2": "NA","name": "Nyírbátor.county","area_km2": 681.306,"hist_schema_id": "Elevation0-9000","hist_area_km2": {"125": 72.854,"150": 561.6498,"175": 46.8022}}}