{"type":"Feature","properties":{"GID_2":"HUN.2.8_1","GID_0":"HUN","country":"Hungary","GID_1":"HUN.2_1","province":"Baranya","NL_NAME_1":"NA","county":"Szentlőrinci","VARNAME_2":"NA","NL_NAME_2":"NA","TYPE_2":"Kistérség","ENGTYPE_2":"Subregion","CC_2":"NA","HASC_2":"NA","name":"Szentlőrinci.county"},
"geometry":{"type": "MultiPolygon","coordinates": [[[[18.0649,46.1842,217.8352],[18.0564,46.189,230.7662],[18.0487,46.2012,251.1562],[18.0411,46.2046,232.2017],[18.0168,46.1942,296.9531],[17.9982,46.1967,276.6531],[17.9867,46.1921,287.0246],[17.9723,46.1911,233.8658],[17.9682,46.1876,221.0518],[17.9744,46.1749,322.9],[17.9725,46.1616,244.8857],[17.9769,46.1515,241.9613],[17.9771,46.1414,224.4511],[17.9727,46.1395,189.8726],[17.9606,46.141,266.0894],[17.9575,46.1427,266.2686],[17.9549,46.1474,257.1389],[17.9501,46.1477,271.3296],[17.9442,46.1446,238.6893],[17.9423,46.1352,201.9593],[17.9282,46.1257,182.5906],[17.9314,46.1168,228.0981],[17.9321,46.1036,225.6474],[17.9284,46.0882,205.2339],[17.9328,46.0779,170.0749],[17.9294,46.0674,153.4606],[17.9307,46.0652,139.5641],[17.9359,46.0633,127.9332],[17.9367,46.0611,123.3799],[17.9324,46.0534,124.2319],[17.9213,46.0509,129.8306],[17.9177,46.0467,126.6796],[17.9173,46.0432,124.1624],[17.9214,46.0386,121.9423],[17.934,46.0368,119.7868],[17.9409,46.032,115.9895],[17.9477,46.0333,113.6607],[17.9504,46.0305,112.5265],[17.9326,46.0062,110.0041],[17.9231,46.0039,109.3858],[17.9172,45.9999,107.4533],[17.9072,45.9986,105.877],[17.8989,45.9947,103.9147],[17.8907,45.9931,103.872],[17.8867,45.9897,103.7347],[17.8865,45.9749,101.1236],[17.8804,45.9728,99.68],[17.8795,45.9705,98.5],[17.8798,45.9566,100.7804],[17.8836,45.9528,100.6866],[17.8913,45.95,100.8538],[17.8958,45.9411,105.3115],[17.9044,45.9393,99.9517],[17.9067,45.931399999999996,100.2784],[17.9131,45.931399999999996,100.0812],[17.9145,45.9404,100.1645],[17.9254,45.9473,101.8201],[17.9402,45.9528,103.0901],[17.9486,45.9589,104.4867],[17.9501,45.9622,105.5291],[17.95,45.9696,105.888],[17.9461,45.979,105.0596],[17.9518,45.9827,106.2683],[17.9568,45.9827,113.9047],[17.9669,45.9743,106.8162],[17.9794,45.9704,107.0254],[17.9864,45.9637,106.9451],[17.9908,45.9628,110.1705],[17.9939,45.964,117.9262],[17.9991,45.9697,107.7856],[18.0084,45.9739,111.4798],[18.0129,45.9825,116.0235],[18.0168,45.9852,117.2938],[18.0272,45.9849,109.6487],[18.0354,45.9782,120.9448],[18.0465,45.9739,140.073],[18.0617,45.9735,151.5423],[18.0751,45.9807,164.8099],[18.0921,45.9849,212.8609],[18.1032,45.9904,192.429],[18.1124,46.0018,171.4929],[18.1128,46.016,113.4159],[18.1087,46.0251,114.1424],[18.1119,46.0325,114.0029],[18.1128,46.0416,113.682],[18.1181,46.0467,112.6538],[18.1286,46.0522,113.786],[18.1315,46.0573,119.9968],[18.1284,46.0595,128.7657],[18.1215,46.0598,132.2452],[18.1108,46.0523,123.8458],[18.1054,46.0515,125.8083],[18.0912,46.0546,132.5693],[18.0737,46.0535,130.6404],[18.0708,46.0546,130.5629],[18.056,46.0726,188.9231],[18.0561,46.0839,234.7259],[18.0633,46.0923,280.5392],[18.0628,46.1044,316.5199],[18.0562,46.1126,296.0243],[18.0429,46.1184,273.98],[18.0401,46.125,185.0379],[18.0326,46.1299,187.9838],[18.0354,46.1324,235.2415],[18.055,46.1341,198.9511],[18.0654,46.1322,235.2839],[18.0781,46.1355,215.1174],[18.078,46.1379,227.677],[18.0695,46.1488,213.2526],[18.0585,46.1577,186.7188],[18.0529,46.1655,258.1756],[18.0545,46.1706,199.2142],[18.0642,46.1758,251.3202],[18.0649,46.1842,217.8352]]]]}}