{"type":"Feature","properties":{"GID_2":"HUN.4.15_1","GID_0":"HUN","country":"Hungary","GID_1":"HUN.4_1","province":"Borsod-Abaúj-Zemplén","NL_NAME_1":"NA","county":"Tokaji","VARNAME_2":"NA","NL_NAME_2":"NA","TYPE_2":"Kistérség","ENGTYPE_2":"Subregion","CC_2":"NA","HASC_2":"NA","name":"Tokaji.county"},
"geometry":{"type": "MultiPolygon","coordinates": [[[[21.302,48.2713,464.0966],[21.3017,48.2578,372.014],[21.3084,48.2523,409.2639],[21.3143,48.2393,454.5486],[21.3248,48.2365,493.9724],[21.3314,48.2263,376.3365],[21.3444,48.2203,406.1338],[21.3467,48.2152,439.8381],[21.3314,48.1971,316.6914],[21.3416,48.1829,166.9216],[21.3365,48.1676,154.1604],[21.3299,48.1603,127.2013],[21.3125,48.1559,100.4125],[21.3111,48.1424,92.8995],[21.3074,48.1358,92.6988],[21.3057,48.1263,92.2948],[21.3009,48.1174,92.1554],[21.2866,48.102,92.4136],[21.2939,48.0892,95.369],[21.3069,48.0791,93.7613],[21.3082,48.0762,92.0648],[21.2957,48.074,94.021],[21.2897,48.0684,93.3473],[21.2687,48.0574,117.6964],[21.2685,48.0495,110.8692],[21.2715,48.0422,93.2073],[21.2837,48.0376,95.8038],[21.2974,48.0359,104.879],[21.3342,48.0242,94.3887],[21.3518,48.0313,108.2957],[21.3658,48.031,95.3793],[21.3757,48.0288,95.6685],[21.3828,48.0332,102.475],[21.4078,48.0337,103.0776],[21.4308,48.0485,94.9767],[21.4342,48.0643,98.0981],[21.4448,48.07,100.8519],[21.4467,48.0728,102.2418],[21.446,48.0756,98.3199],[21.4402,48.0818,95.5917],[21.4387,48.0928,96.2452],[21.422,48.105,95.6644],[21.4172,48.1122,94.4184],[21.4255,48.1233,100.0214],[21.4283,48.1438,94.8719],[21.4423,48.1628,97.5014],[21.4312,48.1658,94.2567],[21.4283,48.1692,96.0488],[21.4299,48.1715,94.1918],[21.4397,48.1761,95.3228],[21.4435,48.1864,94.2391],[21.4428,48.1957,94.2865],[21.4288,48.209,95.2683],[21.411,48.2129,95.3496],[21.3981,48.2107,95.7695],[21.3883,48.2109,141.3403],[21.3812,48.2145,227.2416],[21.3808,48.2208,156.8784],[21.3846,48.2289,176.9817],[21.3813,48.2365,127.7714],[21.3811,48.2415,113.6215],[21.3892,48.2541,162.074],[21.3897,48.2698,166.441],[21.3851,48.2788,423.2699],[21.3734,48.294,456.3967],[21.3592,48.2929,451.6066],[21.3502,48.2954,434.7531],[21.3419,48.3004,433.7983],[21.3326,48.2982,364.1183],[21.3284,48.2958,337.6611],[21.3189,48.2845,268.5917],[21.3033,48.2798,288.349],[21.3015,48.2768,340.5486],[21.302,48.2713,464.0966]]]]}}