{"type":"Feature","properties":{"GID_2":"HUN.7.3_1","GID_0":"HUN","country":"Hungary","GID_1":"HUN.7_1","province":"Fejér","NL_NAME_1":"NA","county":"Bicske","VARNAME_2":"NA","NL_NAME_2":"NA","TYPE_2":"Kistérség","ENGTYPE_2":"Subregion","CC_2":"NA","HASC_2":"NA","name":"Bicske.county"},
"geometry":{"type": "MultiPolygon","coordinates": [[[[18.7512,47.3959,194.6649],[18.7491,47.4022,212.4647],[18.7504,47.4075,207.5866],[18.7699,47.4156,166.885],[18.7777,47.4247,180.3276],[18.7774,47.4525,155.3159],[18.7722,47.4623,172.0236],[18.7607,47.4762,146.6051],[18.7524,47.4811,170.6082],[18.7235,47.4904,183.8819],[18.7094,47.498,159.9079],[18.6825,47.533,167.9401],[18.6821,47.5482,220.5632],[18.6862,47.5591,204.9316],[18.6788,47.5663,227.1186],[18.6749,47.5735,223.3444],[18.6395,47.5671,293.944],[18.551,47.5695,242.2255],[18.5182,47.5594,249.1767],[18.5001,47.5591,283.7526],[18.4916,47.5566,209.9037],[18.4889,47.5539,214.7945],[18.4879,47.5452,253.4212],[18.4908,47.5337,212.3606],[18.4912,47.5208,232.2996],[18.4989,47.5111,231.9952],[18.5174,47.5006,291.937],[18.527,47.4907,274.3204],[18.5264,47.4858,206.1461],[18.516,47.4854,186.6649],[18.4983,47.4961,226.1745],[18.483,47.4971,342.8689],[18.4774,47.4947,396.2386],[18.4624,47.4783,364.823],[18.4554,47.477,364.7227],[18.4503,47.4785,412.9457],[18.444,47.4885,387.4661],[18.4303,47.4923,400.8442],[18.4213,47.492,387.3384],[18.4171,47.4894,397.8474],[18.4017,47.4693,335.3484],[18.3959,47.4651,359.6396],[18.3783,47.461,330.0269],[18.3588,47.4612,255.7127],[18.3387,47.4464,261.3287],[18.3377,47.4402,275.4241],[18.3478,47.4254,388.9095],[18.3469,47.4205,398.5642],[18.3321,47.4165,371.9037],[18.3165,47.4183,314.702],[18.3119,47.4157,327.3556],[18.304,47.4076,380.9472],[18.2862,47.4069,300.3837],[18.295,47.3966,454.3441],[18.3161,47.3824,445.9761],[18.3239,47.3727,385.5292],[18.335,47.363,311.4188],[18.357,47.3576,251.3945],[18.3791,47.3622,230.2184],[18.3909,47.3618,203.2587],[18.4018,47.3584,173.1216],[18.4228,47.3423,146.2823],[18.4414,47.3251,129.6164],[18.4496,47.3154,133.3529],[18.4645,47.3105,134.3035],[18.4823,47.3138,174.5037],[18.4892,47.3165,187.7771],[18.4968,47.3346,176.402],[18.5242,47.3457,191.8141],[18.5322,47.3537,196.0892],[18.5384,47.3559,203.9935],[18.5434,47.3542,206.9077],[18.5607,47.3383,198.5045],[18.5668,47.3362,197.2279],[18.5761,47.3367,188.0051],[18.6146,47.3499,238.5646],[18.6272,47.3472,238.6096],[18.6441,47.3366,218.9752],[18.6597,47.3147,173.7634],[18.6939,47.337,125.2385],[18.7084,47.3426,141.2298],[18.7126,47.3477,175.632],[18.7121,47.3508,186.5946],[18.6987,47.3672,193.7318],[18.6871,47.3783,205.4029],[18.6877,47.3826,178.243],[18.7199,47.3953,134.658],[18.7512,47.3959,194.6649]]]]}}