{"type": "Feature","bbox": [18.706,46.7905,18.9712,47.053],"geometry": {"type": "MultiPolygon","coordinates": [[[[18.9342,46.8736,98.5808],[18.9441,46.8856,90.5],[18.9543,46.8935,102.0109],[18.9638,46.9072,94.4059],[18.9641,46.926,90.5],[18.9681,46.936,93.1631],[18.9679,46.9626,99.5598],[18.9668,46.9674,104.831],[18.9595,46.9807,96.6094],[18.9588,46.9873,96.4828],[18.9712,47.0195,94.0],[18.9708,47.0376,102.8712],[18.9399,47.0523,94.0],[18.9375,47.053,94.0],[18.9048,47.0419,135.6701],[18.8696,47.0355,157.1266],[18.8636,47.0371,155.8902],[18.8561,47.0455,151.494],[18.8486,47.0459,145.6694],[18.8403,47.0413,151.8406],[18.8403,47.037,158.4629],[18.8443,47.0308,164.7468],[18.8449,47.0257,173.1583],[18.8432,47.0234,184.821],[18.8363,47.0205,176.6701],[18.8094,47.0145,139.501],[18.7917,47.0135,145.8772],[18.7654,47.008,146.287],[18.7399,47.0076,124.9981],[18.7459,46.9978,124.724],[18.7475,46.9861,131.3797],[18.7508,46.9805,136.2688],[18.7523,46.9695,141.5498],[18.7561,46.9626,137.055],[18.7556,46.9598,135.0025],[18.7522,46.9583,133.2517],[18.7092,46.955,156.9339],[18.706,46.953,159.8875],[18.7092,46.946,161.6166],[18.7102,46.9311,161.2283],[18.7142,46.9229,168.6899],[18.715,46.8949,163.8667],[18.7163,46.8908,165.9048],[18.729,46.874,158.7156],[18.74,46.8626,146.763],[18.742,46.8514,146.6076],[18.7465,46.8449,143.2063],[18.7661,46.8276,152.5472],[18.7926,46.7977,168.7125],[18.7972,46.7905,174.0589],[18.8212,46.7996,168.1604],[18.8464,46.8169,124.4643],[18.873,46.8413,101.6308],[18.8735,46.8439,114.9858],[18.8702,46.8497,115.4778],[18.8718,46.8532,120.9384],[18.8918,46.8601,119.2778],[18.8973,46.8659,117.1286],[18.9012,46.8675,119.2102],[18.921,46.8643,97.8496],[18.9297,46.8602,98.3156],[18.9306,46.8668,100.2311],[18.9342,46.8736,98.5808]]]]}
,"properties": {"GID_2": "HUN.7.4_1","GID_0": "HUN","country": "Hungary","GID_1": "HUN.7_1","province": "Fejér","NL_NAME_1": "NA","county": "Dunaújváros","VARNAME_2": "NA","NL_NAME_2": "NA","TYPE_2": "Kistérség","ENGTYPE_2": "Subregion","CC_2": "NA","HASC_2": "NA","name": "Dunaújváros.county","area_km2": 377.1611,"hist_schema_id": "Elevation0-9000","hist_area_km2": {"100": 53.9349,"125": 149.7527,"150": 156.9599,"175": 16.5137}}}