{"type":"Feature","properties":{"ISO3166-1-Alpha-3":"HUN","country":"Hungary","fill":"#F0F","id":"4925","name":"Dunaújváros"},
"geometry":{"type": "Polygon","coordinates": [[[18.95515,46.9947,93.5],[18.89714,47.01586,148.0839],[18.84217,46.97659,145.9597],[18.82842,46.92162,129.5948],[18.84413,46.88824,132.7893],[18.92673,46.84841,90.0],[18.92756,46.86494,90.5],[18.93087,46.87714,92.9763],[18.93893,46.89171,109.1192],[18.94885,46.90391,96.2058],[18.95805,46.90902,90.5],[18.96652,46.91724,93.2939],[18.96694,46.93584,91.0],[18.96053,46.97744,93.3161],[18.95515,46.9947,93.5]]]}}