{"type": "Feature","bbox": [19.776,46.3754,20.1854,46.597],"geometry": {"type": "MultiPolygon","coordinates": [[[[19.776,46.5298,108.6325],[19.7828,46.5206,103.8851],[19.8032,46.5067,99.6474],[19.8088,46.5056,111.0256],[19.8456,46.5059,110.1529],[19.8674,46.4969,101.3338],[19.8858,46.4846,97.796],[19.8894,46.4796,97.1875],[19.889,46.4626,91.6434],[19.8784,46.4531,96.7654],[19.8748,46.4468,97.1294],[19.878,46.4413,96.9063],[19.8887,46.4296,94.8226],[19.8893,46.4153,95.267],[19.9119,46.4001,92.3285],[19.9388,46.3874,92.8989],[19.9553,46.3754,91.6667],[19.9678,46.383,88.7761],[19.9877,46.3917,89.6776],[19.9922,46.3913,87.1766],[19.998,46.3856,86.6221],[20.0026,46.3852,88.07],[20.0158,46.3899,88.7753],[20.0369,46.3944,86.9082],[20.0688,46.406,88.754],[20.0701,46.4092,88.0317],[20.07,46.4312,84.2974],[20.0625,46.4473,83.8493],[20.069,46.4563,85.7038],[20.0976,46.4581,88.8622],[20.1036,46.4659,82.5857],[20.1241,46.4794,78.4096],[20.1463,46.4697,101.0149],[20.1642,46.4694,77.8263],[20.17,46.4747,78.4951],[20.1726,46.4829,78.3577],[20.1854,46.4879,81.9767],[20.1809,46.4945,79.9485],[20.1683,46.5003,80.8266],[20.1639,46.5041,79.2913],[20.165,46.5078,78.228],[20.1734,46.5114,79.0124],[20.1759,46.5155,81.1968],[20.1735,46.5187,82.0559],[20.1596,46.5219,82.5447],[20.1553,46.5253,79.0637],[20.1553,46.5364,81.3105],[20.1596,46.546,84.0717],[20.1587,46.5501,77.1129],[20.1557,46.5525,77.8356],[20.1253,46.5672,82.957],[20.1167,46.57,82.3275],[20.1104,46.5652,84.212],[20.0934,46.5643,83.9982],[20.0852,46.5597,80.0],[20.0654,46.5645,81.9744],[20.0576,46.5647,82.8486],[20.0546,46.5633,82.5801],[20.0487,46.5539,82.2469],[20.0414,46.5535,81.4204],[20.0379,46.5556,81.6796],[20.0287,46.5673,85.122],[19.9852,46.597,88.2075],[19.974,46.5858,86.7152],[19.9494,46.5687,90.5413],[19.9425,46.5587,89.185],[19.9394,46.5567,89.7614],[19.9298,46.5591,97.6165],[19.8934,46.577,90.6532],[19.8759,46.5767,90.8461],[19.8579,46.57,92.1632],[19.829,46.5557,103.4073],[19.8005,46.5448,103.9673],[19.7867,46.5378,105.0004],[19.776,46.5298,108.6325]]]]}
,"properties": {"GID_2": "HUN.6.3_1","GID_0": "HUN","country": "Hungary","GID_1": "HUN.6_1","province": "Csongrád","NL_NAME_1": "NA","county": "Kistelek","VARNAME_2": "NA","NL_NAME_2": "NA","TYPE_2": "Kistérség","ENGTYPE_2": "Subregion","CC_2": "NA","HASC_2": "NA","name": "Kistelek.county","area_km2": 405.7289,"hist_schema_id": "Elevation0-9000","hist_area_km2": {"75": 154.4656,"100": 249.5124,"125": 1.7509}}}