{"type":"Feature","properties":{"GID_2":"HUN.15.10_1","GID_0":"HUN","country":"Hungary","GID_1":"HUN.15_1","province":"Somogy","NL_NAME_1":"NA","county":"Tab","VARNAME_2":"Tabi","NL_NAME_2":"NA","TYPE_2":"Kistérség","ENGTYPE_2":"Subregion","CC_2":"NA","HASC_2":"NA","name":"Tab.county"},
"geometry":{"type": "MultiPolygon","coordinates": [[[[17.8206,46.7315,228.1844],[17.8156,46.7247,256.7654],[17.8158,46.7186,241.2832],[17.8065,46.7125,278.1692],[17.8044,46.7065,260.9526],[17.8051,46.6784,186.1708],[17.8089,46.6698,177.1141],[17.8096,46.6644,173.8757],[17.8091,46.659,188.4661],[17.8057,46.6519,220.2048],[17.8056,46.6419,232.9498],[17.8139,46.6243,245.2383],[17.8133,46.6133,244.0867],[17.8289,46.6141,201.3621],[17.8309,46.6119,178.5778],[17.8321,46.6047,187.1855],[17.8422,46.6005,219.8127],[17.8462,46.5906,241.9511],[17.8608,46.5868,243.9048],[17.8742,46.5858,253.9613],[17.881,46.5807,233.4617],[17.893,46.579,257.695],[17.9021,46.5819,247.1392],[17.9104,46.5791,193.4972],[17.9454,46.5803,229.2373],[17.9718,46.5695,284.7717],[17.9807,46.5731,192.9539],[17.9895,46.586,208.9877],[17.9933,46.588,252.0091],[17.9971,46.5858,243.3634],[17.9978,46.5775,271.5494],[17.9998,46.5753,243.202],[18.0282,46.5744,203.1513],[18.0372,46.5657,273.4873],[18.0551,46.5658,270.8964],[18.059,46.5667,261.3008],[18.0635,46.5718,266.7163],[18.0648,46.5903,229.361],[18.0705,46.5958,158.8505],[18.0781,46.5991,122.3213],[18.0803,46.6026,140.1713],[18.0752,46.6146,145.7251],[18.0684,46.6237,132.3141],[18.0684,46.6291,148.9389],[18.0816,46.6475,197.3305],[18.0991,46.6606,204.5935],[18.1015,46.6728,170.0696],[18.1226,46.6828,164.8298],[18.1319,46.6952,183.1003],[18.1362,46.707,167.576],[18.1251,46.719,214.459],[18.1209,46.7268,241.2517],[18.1384,46.7405,241.5245],[18.148,46.7507,214.9993],[18.1314,46.7668,154.9246],[18.125,46.7707,152.7966],[18.1175,46.7803,183.2059],[18.1059,46.7839,197.905],[18.0989,46.7901,231.1294],[18.0935,46.7902,231.6623],[18.0692,46.7823,238.9068],[18.0487,46.7903,230.0956],[18.0443,46.7951,260.6113],[18.0429,46.8105,171.9989],[18.0305,46.8237,167.7337],[18.0246,46.8247,168.9924],[18.0119,46.8214,172.79],[18.0072,46.8166,163.8438],[18.0074,46.8138,170.3573],[18.0136,46.8065,165.5973],[18.0071,46.8027,188.3644],[18.0089,46.7962,167.9664],[18.008,46.7947,157.6031],[17.9986,46.793,202.4589],[17.9978,46.7825,164.1922],[17.991,46.7719,153.132],[17.9898,46.7616,238.8217],[17.9855,46.7566,255.1535],[17.9712,46.7584,170.9633],[17.9576,46.7577,173.3423],[17.9504,46.7528,240.682],[17.9478,46.7448,249.5265],[17.9421,46.7435,226.6636],[17.9306,46.7443,261.9383],[17.9274,46.7507,254.039],[17.9253,46.752,265.6205],[17.9048,46.7519,254.6098],[17.9002,46.7489,273.9021],[17.9013,46.7425,254.0925],[17.8943,46.7329,189.5179],[17.8816,46.7319,220.2428],[17.8666,46.734,186.002],[17.863,46.7314,176.7784],[17.8616,46.7247,143.5548],[17.8584,46.7232,152.2699],[17.8503,46.7237,199.0674],[17.8418,46.7286,241.698],[17.8249,46.7287,248.1549],[17.8206,46.7315,228.1844]]]]}}