{"type":"Feature","properties":{"GID_2":"HUN.4.4_1","GID_0":"HUN","country":"Hungary","GID_1":"HUN.4_1","province":"Borsod-Abaúj-Zemplén","NL_NAME_1":"NA","county":"Encsi","VARNAME_2":"NA","NL_NAME_2":"NA","TYPE_2":"Kistérség","ENGTYPE_2":"Subregion","CC_2":"NA","HASC_2":"NA","name":"Encsi.county"},
"geometry":{"type": "MultiPolygon","coordinates": [[[[21.1593,48.522,312.8761],[21.1559,48.5193,293.465],[21.1477,48.5042,272.1106],[21.1378,48.497,321.993],[21.1264,48.4927,315.7086],[21.116,48.4925,290.6581],[21.1064,48.4943,304.0587],[21.1013,48.5006,273.2405],[21.1011,48.5126,291.1795],[21.0944,48.5201,266.3979],[21.084,48.5227,256.3708],[21.0757,48.5225,260.9974],[21.0679,48.5266,298.1315],[21.0565,48.5247,302.5687],[21.0533,48.5266,281.0787],[21.0284,48.5306,278.7373],[21.0244,48.5333,291.1134],[21.0181,48.5332,310.4695],[21.0121,48.53,308.3678],[20.9957,48.5304,259.435],[20.987,48.5205,291.8076],[20.9838,48.5262,291.9456],[20.9715,48.5229,289.6592],[20.9635,48.5233,272.752],[20.9598,48.527,237.7941],[20.9592,48.5322,279.6994],[20.9487,48.5363,219.9188],[20.9423,48.5359,226.2438],[20.9423,48.5373,239.3615],[20.9359,48.5323,226.6787],[20.9419,48.5243,248.0051],[20.9388,48.5171,266.0231],[20.9249,48.5147,266.3406],[20.9182,48.5098,237.5975],[20.9164,48.4998,267.8064],[20.9124,48.4925,231.4089],[20.9117,48.482,219.368],[20.9126,48.4773,214.7273],[20.9182,48.4688,200.1584],[20.9161,48.4616,191.7122],[20.9193,48.4548,200.086],[20.9201,48.4479,245.9278],[20.9353,48.4479,255.537],[20.9574,48.4538,249.5318],[20.9781,48.4535,290.7629],[20.9904,48.4513,258.3918],[21.0029,48.4558,278.0064],[21.0114,48.4534,274.7718],[21.0135,48.4514,254.6362],[21.0134,48.4482,255.2144],[21.0096,48.4422,264.1863],[21.0078,48.4274,229.7523],[20.9928,48.4149,246.1329],[20.985,48.4117,277.1687],[20.9834,48.409,296.5208],[21.0057,48.3949,284.0034],[21.0028,48.3852,203.4367],[21.0048,48.3747,231.5861],[20.998,48.3659,217.6878],[21.0016,48.357,226.4535],[21.0019,48.3399,221.0653],[21.007,48.3369,195.1928],[21.0326,48.3359,223.52],[21.0468,48.331,221.595],[21.0493,48.3284,214.3072],[21.048,48.312,178.5278],[21.0273,48.3091,181.629],[21.0195,48.3016,188.047],[21.0238,48.2925,160.1041],[21.0146,48.287,158.9298],[21.0199,48.2804,136.6352],[21.0176,48.2753,124.1995],[21.0179,48.2721,123.3364],[21.033,48.2618,123.5048],[21.0606,48.2537,126.8727],[21.07,48.259,125.4158],[21.0805,48.2713,125.8055],[21.088,48.2731,126.3388],[21.0945,48.272,129.0547],[21.1046,48.2649,265.2345],[21.1347,48.2601,182.0674],[21.1467,48.2639,179.2624],[21.1557,48.2754,225.2818],[21.1584,48.2827,202.5189],[21.1644,48.2853,182.4621],[21.1667,48.2906,173.1275],[21.1694,48.2924,164.1417],[21.1982,48.2917,134.7612],[21.2333,48.2825,332.6234],[21.2418,48.2853,361.9554],[21.2501,48.2925,277.3693],[21.2908,48.2912,253.7542],[21.2975,48.2947,295.1962],[21.2978,48.298,290.3341],[21.2947,48.3015,329.029],[21.2783,48.3038,477.415],[21.2687,48.3092,410.554],[21.245,48.3103,178.4826],[21.2325,48.3081,156.5817],[21.2253,48.3085,144.5634],[21.221,48.3132,146.6809],[21.2162,48.3157,141.6333],[21.2004,48.319,140.9469],[21.1935,48.3285,160.1295],[21.1782,48.3304,163.8414],[21.1727,48.336,135.7967],[21.173,48.3492,139.6685],[21.1941,48.3821,138.8117],[21.1957,48.3995,140.8284],[21.2021,48.4022,148.859],[21.2035,48.4044,151.4125],[21.2028,48.4087,144.128],[21.1958,48.4122,142.76],[21.1953,48.4187,144.4157],[21.2102,48.4382,146.6767],[21.2061,48.4482,147.7796],[21.2124,48.4568,149.0667],[21.2094,48.4605,151.1793],[21.1956,48.464,197.1732],[21.1887,48.4681,238.4782],[21.1903,48.4711,253.584],[21.206,48.4824,181.867],[21.2069,48.4849,171.6737],[21.204,48.4902,192.8805],[21.1948,48.5008,234.2886],[21.1891,48.5033,231.5865],[21.1813,48.5031,236.1993],[21.1726,48.495,220.9422],[21.168,48.4953,215.3866],[21.1588,48.5023,224.8526],[21.158,48.5122,293.1343],[21.1593,48.522,312.8761]]]]}}