{"type":"Feature","properties":{"GID_2":"HUN.9.6_1","GID_0":"HUN","country":"Hungary","GID_1":"HUN.9_1","province":"Hajdú-Bihar","NL_NAME_1":"NA","county":"Hajdúhadház","VARNAME_2":"NA","NL_NAME_2":"NA","TYPE_2":"Kistérség","ENGTYPE_2":"Subregion","CC_2":"NA","HASC_2":"NA","name":"Hajdúhadház.county"},
"geometry":{"type": "MultiPolygon","coordinates": [[[[21.8233,47.4714,121.7719],[21.8245,47.4514,123.4999],[21.8339,47.4472,117.5852],[21.8445,47.4493,116.9285],[21.8557,47.4485,115.9605],[21.8627,47.4528,118.0006],[21.8698,47.4601,118.0469],[21.8806,47.464,126.0661],[21.8943,47.4619,119.6185],[21.906,47.4641,124.7575],[21.9183,47.4626,125.6822],[21.9291,47.4655,123.0947],[21.9358,47.4723,124.6399],[21.9475,47.4735,126.5471],[21.9511,47.4754,129.181],[21.9524,47.4847,132.3835],[21.9633,47.5009,136.6839],[21.9557,47.5133,129.4994],[21.9551,47.5291,131.437],[21.9561,47.5326,132.9223],[21.9587,47.5343,140.2481],[21.9767,47.5392,132.2141],[21.9841,47.5378,137.2896],[21.9909,47.533,131.032],[22.0175,47.5077,133.5969],[22.0155,47.5031,134.8146],[22.0257,47.5202,139.1022],[22.0375,47.5294,133.1307],[22.0471,47.5401,147.1413],[22.0631,47.5293,138.0141],[22.073,47.5383,138.9194],[22.0563,47.5472,138.7959],[22.0597,47.5514,143.2454],[22.0808,47.5627,137.1944],[22.0883,47.5614,141.167],[22.0923,47.5577,144.5173],[22.0953,47.5584,134.871],[22.1024,47.5649,136.1626],[22.1067,47.5731,138.6052],[22.1159,47.5755,136.8578],[22.1219,47.5808,148.2799],[22.1267,47.5878,146.0045],[22.1307,47.5896,144.9569],[22.1312,47.5955,143.9524],[22.1298,47.5984,142.9504],[22.1402,47.5983,139.9528],[22.1324,47.6012,145.2276],[22.1295,47.6008,140.5437],[22.1325,47.6312,149.2767],[22.1301,47.6379,146.6399],[22.1296,47.6469,148.1697],[22.1137,47.6697,151.0175],[22.0874,47.6786,157.9714],[22.0824,47.6765,159.2826],[22.0801,47.67,156.1522],[22.0548,47.6394,159.0054],[22.0428,47.6381,151.4114],[22.0266,47.6447,150.9255],[22.0226,47.6492,156.8773],[22.0161,47.6793,163.7586],[22.0087,47.6866,158.0832],[21.9958,47.692,162.732],[21.9923,47.6952,162.8287],[21.9922,47.6985,166.417],[21.9952,47.7059,167.3717],[21.993,47.7179,162.4234],[21.9607,47.7262,153.7575],[21.9293,47.7432,148.16],[21.9071,47.7426,148.1793],[21.8852,47.7351,145.9529],[21.8831,47.731,154.0292],[21.8831,47.7126,152.0215],[21.8781,47.703,156.6076],[21.8554,47.6824,152.8727],[21.8474,47.6811,152.8828],[21.8057,47.6813,149.0659],[21.7994,47.6833,153.6103],[21.7948,47.6915,145.4799],[21.7925,47.6927,146.9313],[21.7616,47.6939,145.9609],[21.7612,47.6962,145.3902],[21.7644,47.7006,145.5098],[21.7658,47.7069,146.5606],[21.7656,47.7106,143.1654],[21.7635,47.7129,143.7109],[21.7141,47.7142,146.7295],[21.7098,47.7194,137.4563],[21.7083,47.7282,138.4349],[21.6996,47.739,131.1889],[21.6816,47.7391,131.83],[21.6681,47.732,134.8536],[21.6621,47.7308,136.3755],[21.6412,47.7341,140.5765],[21.6267,47.7392,131.5993],[21.6216,47.7445,128.6781],[21.6042,47.7724,125.1195],[21.5853,47.7821,120.4925],[21.5767,47.7848,121.1428],[21.5494,47.7738,113.2999],[21.549,47.7719,115.1189],[21.5519,47.7693,114.4364],[21.5668,47.763,118.4005],[21.5751,47.7572,118.8537],[21.5844,47.7361,126.5576],[21.5829,47.734,128.4133],[21.5752,47.7317,123.8772],[21.5697,47.7255,122.7581],[21.5593,47.723,129.3047],[21.5544,47.7142,120.3024],[21.5547,47.708,125.36],[21.5589,47.7047,128.8844],[21.6051,47.6897,152.1705],[21.6089,47.687,160.0966],[21.6099,47.6601,165.5342],[21.606,47.6485,160.2678],[21.6096,47.6448,157.5586],[21.6226,47.641,160.963],[21.627,47.6362,155.9921],[21.6188,47.616,150.2173],[21.6201,47.6104,141.9772],[21.6279,47.6092,140.8922],[21.6346,47.6105,140.3026],[21.6412,47.6233,139.9188],[21.6507,47.627,139.7445],[21.6609,47.6266,149.2726],[21.6816,47.6187,139.8939],[21.6907,47.6192,135.2122],[21.706,47.6244,139.6083],[21.7136,47.6234,137.7853],[21.719,47.616,132.642],[21.7135,47.6099,131.0072],[21.7085,47.5998,131.8536],[21.7086,47.5923,133.1718],[21.7117,47.5851,139.026],[21.7094,47.5825,129.7142],[21.7018,47.5792,134.7723],[21.6998,47.576,131.9551],[21.6998,47.5695,126.7147],[21.7038,47.5669,124.4271],[21.7188,47.5667,129.6623],[21.7301,47.5642,137.8808],[21.7396,47.5646,126.4984],[21.7472,47.5693,128.8407],[21.7642,47.571,130.2604],[21.793,47.5824,131.8315],[21.8037,47.5929,136.7548],[21.8184,47.5915,142.2981],[21.8274,47.5981,135.3252],[21.840699999999998,47.5934,135.2243],[21.852,47.583,150.7945],[21.8686,47.5712,133.4393],[21.8702,47.5662,137.4695],[21.8698,47.5199,134.3804],[21.8524,47.4955,132.435],[21.8233,47.4714,121.7719]]]]}}