{"type": "Feature","bbox": [19.6515,47.9239,20.0343,48.0822],"geometry": {"type": "MultiPolygon","coordinates": [[[[19.9424,47.9356,528.7956],[19.948,47.9541,371.0526],[19.9717,47.964,348.5644],[19.9735,47.9817,284.0693],[19.9941,47.9901,326.4427],[19.9946,47.9995,235.6111],[19.9902,48.0084,266.8604],[19.9952,48.0169,288.5061],[20.0023,48.0203,264.7314],[20.029,48.0242,229.7958],[20.0343,48.0284,230.6059],[20.0195,48.0414,304.0822],[20.0143,48.061,301.4382],[20.0072,48.0665,326.9338],[19.9823,48.0776,416.3906],[19.9545,48.0822,343.6281],[19.9311,48.0813,369.8378],[19.9292,48.0787,370.4334],[19.9337,48.0707,348.7484],[19.9349,48.05,248.6421],[19.9241,48.0446,247.6699],[19.9072,48.0405,264.7056],[19.8866,48.0396,226.4672],[19.8727,48.0417,227.2373],[19.8555,48.0415,264.7],[19.8352,48.0331,225.075],[19.8147,48.0356,204.6997],[19.8067,48.0437,218.1053],[19.8021,48.046,276.5659],[19.7839,48.0463,224.7922],[19.7666,48.044,259.3342],[19.7386,48.0548,334.6207],[19.7307,48.0554,299.1205],[19.7158,48.0526,290.6128],[19.6669,48.0511,294.4142],[19.6515,48.0314,351.4717],[19.6552,48.0247,325.0274],[19.6753,48.008,319.5836],[19.6763,47.9931,478.4371],[19.6819,47.9864,442.8335],[19.6906,47.983,415.941],[19.7019,47.9822,272.9125],[19.7118,47.9793,238.0059],[19.7293,47.9692,176.5198],[19.7469,47.9703,214.6782],[19.758,47.9624,173.1859],[19.7968,47.961,280.4549],[19.8172,47.9425,359.5522],[19.819,47.9239,617.5278],[19.8277,47.9282,695.3965],[19.8477,47.9327,558.3469],[19.8894,47.9357,526.9896],[19.8949,47.9355,547.9735],[19.9127,47.9293,621.0386],[19.924,47.9274,680.6425],[19.9424,47.9356,528.7956]]]]}
,"properties": {"GID_2": "HUN.13.2_1","GID_0": "HUN","country": "Hungary","GID_1": "HUN.13_1","province": "Nógrád","NL_NAME_1": "NA","county": "Bátonyterenye","VARNAME_2": "Bátonyterenyei","NL_NAME_2": "NA","TYPE_2": "Kistérség","ENGTYPE_2": "Subregion","CC_2": "NA","HASC_2": "NA","name": "Bátonyterenye.county","area_km2": 271.7603,"hist_schema_id": "Elevation0-9000","hist_area_km2": {"175": 6.6708,"200": 25.8906,"225": 39.9299,"250": 47.4997,"275": 40.9178,"300": 31.2317,"325": 23.9729,"350": 16.2295,"375": 10.7965,"400": 7.5775,"425": 5.8049,"450": 4.1168,"475": 2.1729,"500": 1.9032,"525": 2.2584,"550": 1.5483,"575": 1.2074,"600": 0.966,"625": 0.5966,"650": 0.3409,"675": 0.1137,"700": 0.0142}}}