{"type":"Feature","properties":{"ISO3166-1-Alpha-3":"HUN","country":"Hungary","fill":"#F0F","id":"4903","name":"Szombathely"},
"geometry":{"type": "Polygon","coordinates": [[[16.65908,47.28662,220.9022],[16.63343,47.2909,228.5995],[16.56902,47.27512,241.6401],[16.55726,47.28153,274.5804],[16.5316,47.28153,287.5794],[16.52733,47.26977,262.0164],[16.53828,47.24493,230.3669],[16.55004,47.20965,275.1847],[16.57142,47.16475,222.4608],[16.60136,47.14765,203.9408],[16.62915,47.16582,195.3262],[16.65267,47.16368,194.0945],[16.68047,47.15941,191.0244],[16.6826,47.19041,194.4357],[16.69009,47.21286,196.1129],[16.6965,47.23959,199.1105],[16.67512,47.28769,218.691],[16.65908,47.28662,220.9022]]]}}