{"type":"Feature","properties":{"GID_2":"HUN.18.8_1","GID_0":"HUN","country":"Hungary","GID_1":"HUN.18_1","province":"Vas","NL_NAME_1":"NA","county":"Szombathely","VARNAME_2":"Szombathelyi","NL_NAME_2":"NA","TYPE_2":"Kistérség","ENGTYPE_2":"Subregion","CC_2":"NA","HASC_2":"NA","name":"Szombathely.county"},
"geometry":{"type": "MultiPolygon","coordinates": [[[[16.7939,47.2978,195.1895],[16.7898,47.3043,200.1606],[16.795,47.3153,213.1905],[16.7876,47.3223,205.5625],[16.7871,47.3306,203.7587],[16.7567,47.3369,220.768],[16.748,47.3445,216.2324],[16.7216,47.3475,230.3071],[16.7084,47.3537,235.697],[16.7001,47.3544,240.6656],[16.6845,47.3501,244.7641],[16.6745,47.3394,241.2983],[16.6734,47.3317,235.9815],[16.6757,47.3236,232.6022],[16.6746,47.3198,230.7262],[16.6513,47.3177,235.9101],[16.642,47.3144,236.7193],[16.6384,47.3108,233.269],[16.6379,47.3035,231.6704],[16.6338,47.3002,230.8592],[16.6255,47.2975,231.4993],[16.6094,47.2993,234.3452],[16.5722,47.2967,250.9582],[16.5661,47.2989,255.7097],[16.5575,47.3073,276.4185],[16.5489,47.3111,288.6537],[16.5445,47.3194,292.2888],[16.5344,47.3199,319.4993],[16.5195,47.3122,303.785],[16.515,47.3055,329.2507],[16.5173,47.2998,307.0478],[16.5159,47.2941,319.3203],[16.5236,47.2848,294.01],[16.5229,47.2819,286.9329],[16.5121,47.2784,299.4702],[16.4808,47.2786,283.5118],[16.4785,47.2727,307.058],[16.4794,47.2635,282.0618],[16.4811,47.263,277.4114],[16.4683,47.2533,267.6388],[16.4622,47.2564,274.1434],[16.456,47.2541,298.0849],[16.4477,47.2538,300.1555],[16.4498,47.2509,302.5352],[16.4329,47.2533,266.9223],[16.4316,47.2507,261.928],[16.4429,47.249,297.2438],[16.4439,47.2341,278.0013],[16.4422,47.2334,272.1031],[16.4424,47.2308,264.2935],[16.4393,47.2304,302.3154],[16.439,47.224,285.3137],[16.4378,47.2235,297.0829],[16.4405,47.2183,244.4904],[16.4362,47.216,280.759],[16.4377,47.2103,251.1561],[16.4296,47.2105,266.0269],[16.4232,47.2082,254.5593],[16.4222,47.2111,300.2652],[16.4206,47.2114,272.5433],[16.418,47.2057,279.4169],[16.4224,47.1977,350.2314],[16.4206,47.1953,297.637],[16.4293,47.1854,249.804],[16.4424,47.1855,230.6693],[16.4519,47.1887,231.8857],[16.4561,47.1877,231.208],[16.4542,47.1866,231.6577],[16.4585,47.1772,229.5631],[16.4605,47.1769,227.6958],[16.4655,47.1686,230.3912],[16.4618,47.1672,226.6076],[16.4635,47.1618,230.8381],[16.4614,47.1614,227.0746],[16.4618,47.1595,224.5175],[16.4594,47.1576,224.3197],[16.4543,47.1581,224.0238],[16.4531,47.1538,223.4503],[16.4502,47.1523,222.8658],[16.451,47.1458,221.2188],[16.4537,47.1456,221.3224],[16.4554,47.1427,220.5369],[16.462,47.1424,222.2492],[16.4724,47.1436,230.4104],[16.4916,47.1492,269.106],[16.5179,47.1497,244.5804],[16.5238,47.1404,240.4511],[16.5277,47.1373,240.3853],[16.5299,47.1377,234.2395],[16.5305,47.1276,250.7877],[16.501,47.1238,258.8091],[16.5019,47.1106,239.9074],[16.484,47.1091,227.0379],[16.4859,47.103,229.788],[16.4788,47.1018,217.7788],[16.4759,47.1056,216.9341],[16.4729,47.1024,213.2538],[16.4738,47.1009,213.4161],[16.4657,47.0993,212.0328],[16.4675,47.0961,211.1888],[16.4645,47.0953,211.896],[16.4676,47.0915,210.1148],[16.4671,47.0897,210.2486],[16.4696,47.0901,210.0683],[16.4702,47.0881,210.2013],[16.4759,47.0857,210.7714],[16.4751,47.0821,209.7831],[16.4732,47.0818,210.4072],[16.472,47.0786,207.991],[16.474,47.0739,206.9656],[16.4836,47.0754,211.0242],[16.4839,47.0724,210.4588],[16.4882,47.0693,210.0851],[16.4927,47.071,211.9607],[16.5013,47.0701,215.6588],[16.5216,47.0619,221.0782],[16.5221,47.0573,219.1906],[16.5191,47.0556,213.3552],[16.5202,47.0534,216.9816],[16.5376,47.05,216.4928],[16.5427,47.0505,204.9939],[16.5474,47.0537,205.4309],[16.544,47.0703,222.0308],[16.5469,47.0803,230.3938],[16.5591,47.0911,242.6366],[16.5645,47.0984,223.8957],[16.5693,47.101,222.8225],[16.5815,47.1,224.4602],[16.5908,47.1031,221.7987],[16.6218,47.1157,213.1198],[16.6279,47.1232,220.4394],[16.6319,47.1246,210.5302],[16.6368,47.1241,209.9483],[16.6502,47.1178,210.3151],[16.6626,47.1165,193.3157],[16.6705,47.103,191.7563],[16.6756,47.1007,191.7581],[16.6812,47.1014,192.6111],[16.6893,47.1064,189.9365],[16.6981,47.1023,189.8869],[16.7116,47.1051,188.8318],[16.7264,47.1019,195.0791],[16.7339,47.1079,193.4033],[16.7453,47.1115,189.8273],[16.747,47.1138,184.9634],[16.7472,47.1198,184.9204],[16.7502,47.1209,185.2628],[16.7596,47.1147,184.4312],[16.768,47.1126,186.2765],[16.7722,47.1088,186.789],[16.7987,47.1042,175.2404],[16.8039,47.1092,173.5287],[16.8049,47.1184,173.6024],[16.8093,47.1201,173.5255],[16.822,47.1113,171.5506],[16.8425,47.1069,175.8],[16.8489,47.1009,187.4088],[16.848,47.0977,171.4896],[16.8388,47.0965,182.2927],[16.8343,47.0941,186.2651],[16.8301,47.0879,181.3058],[16.8322,47.084,172.0488],[16.8481,47.0844,171.1712],[16.8614,47.0922,168.137],[16.8634,47.0948,168.6579],[16.8641,47.1006,168.2874],[16.8675,47.1042,170.1773],[16.8841,47.1093,169.943],[16.8982,47.1278,171.83],[16.899,47.1352,165.7114],[16.8805,47.1408,168.2645],[16.8671,47.1418,171.9025],[16.8595,47.1458,168.1355],[16.8454,47.1462,169.0552],[16.8393,47.1481,170.4609],[16.8315,47.1537,170.8382],[16.8335,47.1561,171.2428],[16.8405,47.1589,170.6822],[16.8418,47.1605,170.2299],[16.8409,47.1621,169.8861],[16.8292,47.1644,172.5587],[16.8196,47.1715,191.6386],[16.8106,47.175,194.8457],[16.8062,47.1839,175.8084],[16.7992,47.1908,173.4532],[16.7945,47.192,174.3929],[16.7765,47.1916,178.2122],[16.7714,47.1938,178.3577],[16.7697,47.1963,177.8513],[16.7684,47.2036,176.6742],[16.7695,47.2075,178.8602],[16.7791,47.2124,183.8951],[16.7829,47.219,210.0876],[16.7997,47.2247,193.4326],[16.8029,47.2291,175.2683],[16.7969,47.239,178.617],[16.7877,47.2441,180.6477],[16.7782,47.247,188.569],[16.777,47.2486,190.3385],[16.7777,47.2502,196.1991],[16.7907,47.2522,190.5556],[16.8102,47.2507,184.6974],[16.8345,47.2608,187.2098],[16.8285,47.2734,186.1028],[16.8176,47.2851,195.1415],[16.7988,47.2933,192.9563],[16.7939,47.2978,195.1895]]]]}}