{"type":"Feature","properties":{"GID_2":"HUN.16.4_1","GID_0":"HUN","country":"Hungary","GID_1":"HUN.16_1","province":"Szabolcs-Szatmár-Bereg","NL_NAME_1":"NA","county":"Ibrány-Nagyhalász","VARNAME_2":"Ibrány-Nagyhalászi","NL_NAME_2":"NA","TYPE_2":"Kistérség","ENGTYPE_2":"Subregion","CC_2":"NA","HASC_2":"NA","name":"Ibrány-Nagyhalász.county"},
"geometry":{"type": "MultiPolygon","coordinates": [[[[21.6885,48.1987,93.8389],[21.6144,48.1993,97.1572],[21.5969,48.2028,95.9803],[21.587,48.207,95.0832],[21.5702,48.2085,97.5859],[21.5632,48.2068,96.914],[21.5451,48.1956,95.575],[21.5267,48.1919,95.0307],[21.5224,48.1855,97.8415],[21.5292,48.1762,100.7447],[21.5299,48.1681,107.2049],[21.5224,48.1493,104.0831],[21.5223,48.1453,105.698],[21.5286,48.1361,107.2036],[21.5303,48.1284,108.3513],[21.5406,48.1222,107.5252],[21.5406,48.1182,105.2515],[21.5374,48.113,104.9935],[21.5378,48.11,108.9367],[21.5516,48.1042,109.4488],[21.5537,48.0929,108.7898],[21.5635,48.0814,104.401],[21.5635,48.0788,105.3463],[21.5572,48.0696,108.9144],[21.5562,48.0657,107.5749],[21.5622,48.0622,105.9553],[21.5672,48.056,105.5731],[21.5717,48.0541,104.5276],[21.5793,48.056399999999996,108.8333],[21.5901,48.0636,115.788],[21.5946,48.0649,109.3039],[21.6115,48.0624,100.9676],[21.6396,48.0629,112.0283],[21.643,48.0639,99.4871],[21.6563,48.0742,97.3246],[21.6843,48.076,96.5644],[21.6971,48.0797,95.3482],[21.7021,48.0851,95.0968],[21.7058,48.0862,96.1894],[21.7161,48.0795,95.9501],[21.7185,48.0684,95.1943],[21.7219,48.0647,95.3165],[21.7507,48.0534,99.2424],[21.7522,48.0499,103.0011],[21.7533,48.0336,103.5829],[21.7583,48.0264,101.7031],[21.7649,48.0238,103.3315],[21.7699,48.0243,104.3874],[21.7747,48.0269,104.0778],[21.7774,48.03,105.8877],[21.7788,48.037,104.4418],[21.7827,48.0385,100.6231],[21.8104,48.0381,102.047],[21.8204,48.0366,108.5973],[21.8337,48.0378,100.6227],[21.8367,48.0364,102.773],[21.841,48.0303,102.6738],[21.8519,48.0264,105.6928],[21.8571,48.0276,102.9856],[21.8639,48.0338,107.7806],[21.8764,48.0331,109.2578],[21.8762,48.0404,104.735],[21.879,48.0427,105.0307],[21.8942,48.0424,103.7662],[21.9212,48.0376,103.8211],[21.9312,48.0469,103.4629],[21.9396,48.0583,108.633],[21.9407,48.0709,102.76],[21.9432,48.0788,102.1039],[21.9356,48.0918,100.8059],[21.9338,48.0988,98.0202],[21.926,48.1134,101.8019],[21.933,48.1165,101.9255],[21.9508,48.1199,97.7426],[21.9619,48.1252,97.5061],[21.9561,48.1311,97.4122],[21.9488,48.1483,99.4792],[21.9317,48.1699,94.5084],[21.9264,48.1825,95.1727],[21.9259,48.1897,94.9244],[21.924,48.1933,96.1206],[21.9207,48.1955,96.3661],[21.9091,48.1953,95.9961],[21.9015,48.1924,95.5805],[21.893,48.1856,95.1455],[21.8814,48.1852,95.4905],[21.8652,48.189,96.31],[21.8551,48.1961,95.4711],[21.828,48.2004,97.3804],[21.8267,48.2031,98.2887],[21.8288,48.2123,96.4176],[21.8276,48.2199,97.9401],[21.8349,48.2441,97.8235],[21.8218,48.2454,98.2362],[21.8161,48.243899999999996,96.7594],[21.7603,48.2085,97.1092],[21.734,48.21,95.7593],[21.6885,48.1987,93.8389]]]]}}