{"type":"Feature","properties":{"GID_2":"HUN.7.5_1","GID_0":"HUN","country":"Hungary","GID_1":"HUN.7_1","province":"Fejér","NL_NAME_1":"NA","county":"Enying","VARNAME_2":"NA","NL_NAME_2":"NA","TYPE_2":"Kistérség","ENGTYPE_2":"Subregion","CC_2":"NA","HASC_2":"NA","name":"Enying.county"},
"geometry":{"type": "MultiPolygon","coordinates": [[[[18.3593,46.9965,147.4027],[18.3416,46.9961,141.7025],[18.3089,47.0045,134.3128],[18.3064,47.0062,132.3932],[18.2998,47.0176,129.1782],[18.289,47.0194,128.574],[18.2795,47.0238,135.6459],[18.2655,47.0271,149.3884],[18.2379,47.0272,150.2184],[18.2217,47.0123,113.0283],[18.2024,47.0038,112.4848],[18.2011,46.9831,127.9135],[18.1928,46.9709,147.5936],[18.177,46.9591,161.2172],[18.1819,46.9542,161.4736],[18.1884,46.9374,160.5415],[18.2004,46.9163,160.8467],[18.2005,46.8987,135.7462],[18.1931,46.8865,110.6593],[18.1925,46.8763,100.7561],[18.1937,46.8702,100.6952],[18.2013,46.8588,106.4394],[18.2011,46.8542,108.5851],[18.1974,46.8447,135.3832],[18.1978,46.8375,145.8186],[18.2012,46.8311,148.0601],[18.202,46.8259,148.3475],[18.1982,46.8151,151.3589],[18.1979,46.8056,158.8418],[18.199,46.8003,167.7706],[18.2048,46.7914,178.8008],[18.2236,46.7855,159.6088],[18.2484,46.7891,156.512],[18.2548,46.7928,161.2371],[18.2604,46.7994,146.122],[18.281,46.8136,135.1638],[18.2996,46.8204,100.6257],[18.3056,46.8208,126.9714],[18.3156,46.8168,128.559],[18.3166,46.8028,128.8068],[18.3191,46.7992,124.2342],[18.334,46.7924,114.9639],[18.3609,46.7847,139.8641],[18.3892,46.7932,155.4897],[18.4004,46.8033,155.4619],[18.4099,46.807,161.8517],[18.4041,46.8178,149.8972],[18.389,46.8246,149.3428],[18.3806,46.8352,146.3174],[18.3817,46.8385,143.4067],[18.4162,46.8395,138.3032],[18.4264,46.8472,132.2871],[18.4432,46.849,126.3759],[18.4524,46.8575,131.0293],[18.4633,46.8619,130.4936],[18.493,46.8628,146.3544],[18.4972,46.8643,156.7074],[18.4974,46.8681,158.6055],[18.492,46.8778,152.9247],[18.4835,46.8888,148.5877],[18.4765,46.8951,152.0573],[18.4622,46.9151,153.9153],[18.4434,46.9093,131.9447],[18.437,46.9112,126.8248],[18.4358,46.9375,137.8661],[18.4313,46.9476,143.547],[18.4351,46.9624,137.9515],[18.4342,46.9714,142.1012],[18.4301,46.9789,148.565],[18.4303,46.9831,143.4192],[18.4331,46.9883,135.8825],[18.4319,46.9915,140.2939],[18.4178,47.0008,147.1686],[18.4085,47.0036,149.6448],[18.3996,47.0014,148.1025],[18.367,46.9883,146.9071],[18.3621,46.9903,146.69],[18.3593,46.9965,147.4027]]]]}}