{"type":"Feature","properties":{"GID_2":"HUN.8.1_1","GID_0":"HUN","country":"Hungary","GID_1":"HUN.8_1","province":"Gyor-Moson-Sopron","NL_NAME_1":"NA","county":"Csorna","VARNAME_2":"NA","NL_NAME_2":"NA","TYPE_2":"Kistérség","ENGTYPE_2":"Subregion","CC_2":"NA","HASC_2":"NA","name":"Csorna.county"},
"geometry":{"type": "MultiPolygon","coordinates": [[[[17.4238,47.701,116.2568],[17.4163,47.7031,115.2486],[17.4146,47.708,112.8073],[17.4218,47.7088,122.9487],[17.4229,47.7121,111.2528],[17.4198,47.7136,116.9487],[17.4144,47.711,119.2723],[17.4116,47.7119,112.3344],[17.4103,47.7154,118.6384],[17.4119,47.7195,111.1165],[17.4087,47.7221,111.6559],[17.3924,47.7217,112.3069],[17.3853,47.714,111.519],[17.3577,47.7105,112.1171],[17.3546,47.7117,111.4735],[17.3519,47.7162,112.0174],[17.3471,47.7193,112.6605],[17.3441,47.7139,114.6799],[17.3369,47.7132,112.3247],[17.334,47.7154,111.8764],[17.3362,47.7188,111.7315],[17.3352,47.7204,115.9492],[17.3252,47.7279,117.931],[17.3089,47.7302,112.429],[17.2781,47.7295,112.3744],[17.2739,47.7248,104.9012],[17.2677,47.7219,117.2742],[17.2464,47.7179,114.0852],[17.212,47.7172,114.4832],[17.2004,47.7146,113.2772],[17.1876,47.714,116.1566],[17.1723,47.7141,123.0549],[17.1592,47.7166,139.3247],[17.1389,47.7163,127.4673],[17.1272,47.7136,124.8132],[17.111,47.7128,116.4418],[17.1055,47.7103,117.2025],[17.1014,47.7025,119.719],[17.101,47.6941,119.5712],[17.1023,47.6874,122.337],[17.1063,47.6804,115.2297],[17.1088,47.654,114.0707],[17.1164,47.6482,127.5306],[17.1241,47.6314,117.5156],[17.1362,47.6193,117.8592],[17.1432,47.6082,118.3137],[17.1502,47.6019,117.316],[17.1516,47.5981,117.0558],[17.1516,47.5859,118.1581],[17.1367,47.5793,119.7355],[17.132,47.5746,119.1315],[17.133,47.5699,119.8636],[17.1407,47.5648,120.2547],[17.1412,47.5596,120.3052],[17.136,47.5589,120.4858],[17.1255,47.5653,121.05],[17.1206,47.5661,120.6087],[17.1156,47.5633,120.5587],[17.1117,47.5554,134.8418],[17.1126,47.5519,131.7002],[17.1233,47.5363,125.3897],[17.1275,47.5324,124.6188],[17.1345,47.5296,123.8946],[17.1392,47.5218,124.4905],[17.1416,47.5126,125.4097],[17.1529,47.5094,124.2349],[17.1496,47.5005,125.3332],[17.1435,47.4944,125.6603],[17.1434,47.4921,125.8556],[17.1476,47.4906,126.4159],[17.1642,47.4913,128.8825],[17.1678,47.4893,133.4519],[17.1671,47.4871,135.899],[17.1547,47.4757,127.164],[17.1451,47.4703,128.5011],[17.1457,47.467,128.5718],[17.1568,47.4594,129.4205],[17.1588,47.4547,138.6129],[17.1585,47.4477,133.8352],[17.1497,47.4358,133.8721],[17.1633,47.4356,133.8435],[17.1766,47.4321,135.3664],[17.1856,47.4385,129.6335],[17.1947,47.4412,129.9694],[17.2152,47.4343,126.806],[17.2567,47.4346,134.5556],[17.291,47.4296,128.4052],[17.2985,47.4317,121.1629],[17.317,47.4439,120.1335],[17.3644,47.445,122.0388],[17.3755,47.4494,124.5282],[17.3773,47.4514,125.2623],[17.3614,47.4542,117.5958],[17.3572,47.4585,118.7193],[17.3582,47.4615,117.3981],[17.3682,47.4658,116.6375],[17.3695,47.4688,117.2561],[17.3682,47.4725,117.6714],[17.3563,47.4744,118.5527],[17.3493,47.4777,118.0303],[17.3347,47.487,119.013],[17.3325,47.4938,118.4861],[17.3354,47.4965,117.9395],[17.3552,47.5021,117.0317],[17.3669,47.5005,115.8027],[17.3704,47.502,116.0495],[17.3682,47.5266,116.0261],[17.3601,47.5371,115.0785],[17.3597,47.5403,115.6648],[17.3706,47.5455,115.1353],[17.3705,47.55,115.1709],[17.3668,47.5559,117.748],[17.3677,47.5589,118.0335],[17.3761,47.5633,114.9923],[17.3882,47.5745,113.4838],[17.4016,47.5821,112.3907],[17.4014,47.5918,113.0711],[17.3943,47.6026,116.2559],[17.403199999999998,47.6079,112.8215],[17.4054,47.6173,115.6198],[17.4149,47.6229,112.1069],[17.416,47.6266,113.3931],[17.415,47.6314,112.8353],[17.4039,47.645,113.6387],[17.4044,47.648,112.0313],[17.4116,47.6534,112.0409],[17.4163,47.655,118.7417],[17.4257,47.6549,114.6941],[17.4363,47.6501,111.1419],[17.4414,47.6494,111.8308],[17.4479,47.6504,111.9203],[17.4519,47.6548,112.8357],[17.4504,47.6581,112.2234],[17.4356,47.6588,114.3083],[17.4287,47.6629,113.7452],[17.4283,47.6648,113.3126],[17.4323,47.67,112.9531],[17.4256,47.6782,111.1705],[17.4238,47.701,116.2568]]]]}}