{"type":"Feature","properties":{"GID_2":"HUN.4.5_1","GID_0":"HUN","country":"Hungary","GID_1":"HUN.4_1","province":"Borsod-Abaúj-Zemplén","NL_NAME_1":"NA","county":"Kazincbarcikai","VARNAME_2":"NA","NL_NAME_2":"NA","TYPE_2":"Kistérség","ENGTYPE_2":"Subregion","CC_2":"NA","HASC_2":"NA","name":"Kazincbarcikai.county"},
"geometry":{"type": "MultiPolygon","coordinates": [[[[20.5024,48.5199,445.2238],[20.5019,48.518,476.9427],[20.5074,48.5143,475.8261],[20.5097,48.5089,476.4285],[20.5056,48.5049,512.197],[20.5018,48.4896,352.4824],[20.4955,48.4856,439.2813],[20.4852,48.4714,340.1136],[20.4651,48.4632,387.1515],[20.468,48.4542,385.4828],[20.4534,48.4503,375.676],[20.445,48.4448,372.8622],[20.4415,48.4366,358.254],[20.4162,48.4187,327.3038],[20.4133,48.4113,342.8595],[20.4205,48.4066,329.1146],[20.4148,48.3913,346.5107],[20.408,48.3856,360.0571],[20.4081,48.3817,300.3601],[20.4123,48.3795,309.0251],[20.4398,48.3719,281.519],[20.4473,48.3596,244.067],[20.4584,48.3574,322.8174],[20.4664,48.3511,296.3421],[20.4667,48.3488,320.7109],[20.4626,48.3434,395.4069],[20.4472,48.3365,413.0722],[20.4467,48.3294,281.1596],[20.4501,48.3253,410.2589],[20.459,48.3245,397.132],[20.4901,48.333,276.8802],[20.4962,48.3325,241.0281],[20.5045,48.328,325.331],[20.504,48.3236,336.8736],[20.4966,48.3181,262.0107],[20.4978,48.315,293.0307],[20.5039,48.3095,321.9843],[20.5042,48.3061,293.1192],[20.501,48.3009,337.8242],[20.5007,48.2975,296.6619],[20.509,48.2845,156.6822],[20.5008,48.2645,201.6107],[20.5026,48.2618,270.3561],[20.513,48.2573,367.9623],[20.5135,48.249,216.572],[20.4976,48.2424,229.0286],[20.4836,48.2406,242.5059],[20.4767,48.236,321.7421],[20.4617,48.2307,441.4474],[20.4444,48.2286,287.3472],[20.4443,48.2243,275.129],[20.4592,48.2107,202.5067],[20.4604,48.2075,208.3218],[20.4549,48.1942,385.9797],[20.4382,48.186,332.0957],[20.4348,48.1803,288.6028],[20.436,48.1755,352.0884],[20.4432,48.1683,294.1382],[20.444,48.1601,354.8962],[20.4429,48.155,322.5902],[20.4327,48.137,324.5333],[20.455,48.1289,369.0069],[20.478,48.0971,886.6698],[20.5296,48.1117,550.37],[20.532,48.121,734.0991],[20.5441,48.128,719.6673],[20.544,48.1327,673.2825],[20.54,48.1393,520.9031],[20.5408,48.1444,439.9312],[20.5636,48.1503,443.4891],[20.5749,48.1587,359.5431],[20.5745,48.1653,333.9826],[20.5625,48.1712,394.5427],[20.5618,48.1769,312.4377],[20.5635,48.1813,329.3007],[20.5863,48.1968,250.1134],[20.6094,48.2054,254.6669],[20.6114,48.2152,355.5825],[20.6141,48.218,342.4439],[20.6373,48.2269,214.6978],[20.6518,48.217,170.413],[20.6609,48.2145,185.1694],[20.6857,48.2124,155.1337],[20.6899,48.2149,150.2114],[20.6985,48.2266,136.131],[20.7004,48.2394,126.9781],[20.7161,48.2421,126.1524],[20.7237,48.2508,126.4264],[20.7105,48.2548,127.0761],[20.7072,48.2644,158.7337],[20.6968,48.2695,163.045],[20.6782,48.2916,204.6906],[20.6781,48.3106,240.9027],[20.686,48.3248,232.0182],[20.6854,48.328,268.0198],[20.6724,48.3338,193.7454],[20.6619,48.3428,229.8037],[20.6507,48.3475,242.8844],[20.6398,48.355,205.3069],[20.6406,48.3574,236.4611],[20.6497,48.3641,230.0238],[20.6512,48.3675,212.7277],[20.6507,48.3746,179.3993],[20.6446,48.3805,227.8706],[20.6445,48.383,240.1679],[20.6503,48.3869,318.2953],[20.6664,48.3926,223.3102],[20.6726,48.4,215.2627],[20.6736,48.4161,333.3011],[20.6725,48.4198,332.2684],[20.6676,48.4228,223.5017],[20.6598,48.4243,241.1411],[20.6547,48.422,229.6663],[20.6469,48.415,271.5236],[20.6363,48.4157,256.86],[20.6183,48.4128,268.9601],[20.5972,48.4156,266.6552],[20.5727,48.4225,279.384],[20.5453,48.4224,271.9867],[20.5317,48.4262,282.6923],[20.5302,48.4277,319.2867],[20.5303,48.4309,318.1317],[20.5375,48.4398,337.9194],[20.5399,48.4453,370.3744],[20.5244,48.4586,340.9068],[20.5104,48.475,359.3597],[20.509,48.4808,447.899],[20.5094,48.4931,386.6521],[20.5197,48.4973,414.4211],[20.5404,48.4981,301.4182],[20.5533,48.501,317.4763],[20.5892,48.5022,433.1385],[20.5926,48.5049,442.3002],[20.5884,48.5083,465.0605],[20.5768,48.5119,502.9027],[20.5708,48.5159,540.2759],[20.5693,48.5305,521.577],[20.5451,48.5265,528.135],[20.5245,48.5195,507.6918],[20.5024,48.5199,445.2238]]]]}}