{"type": "Feature","bbox": [21.3542,48.1628,21.6975,48.414],"geometry": {"type": "MultiPolygon","coordinates": [[[[21.3734,48.294,456.3967],[21.3851,48.2788,423.2699],[21.3897,48.2698,166.441],[21.3892,48.2541,162.074],[21.3811,48.2415,113.6215],[21.3813,48.2365,127.7714],[21.3846,48.2289,176.9817],[21.3808,48.2208,156.8784],[21.3812,48.2145,227.2416],[21.3883,48.2109,141.3403],[21.3981,48.2107,95.7695],[21.411,48.2129,95.3496],[21.4272,48.2095,95.6067],[21.4412,48.1983,95.4137],[21.4432,48.1942,94.0596],[21.4435,48.1864,94.2391],[21.4403,48.1774,95.1495],[21.4285,48.1699,95.4358],[21.4294,48.167,94.1507],[21.4332,48.1651,97.2929],[21.4423,48.1628,97.5014],[21.4741,48.1682,100.7377],[21.4917,48.1755,98.4885],[21.5096,48.1749,96.6548],[21.5194,48.182,98.8128],[21.528,48.1928,96.2037],[21.5451,48.1956,95.575],[21.5675,48.2083,96.6517],[21.587,48.207,95.0832],[21.5969,48.2028,95.9803],[21.6144,48.1993,97.1572],[21.6885,48.1987,93.8389],[21.6832,48.2051,94.6042],[21.6829,48.2116,94.6525],[21.6769,48.2287,94.2932],[21.6785,48.237,93.9927],[21.687,48.2427,94.4167],[21.6881,48.2452,93.9535],[21.6738,48.2648,94.9618],[21.6729,48.2689,95.1926],[21.6742,48.2729,95.1494],[21.6792,48.2794,95.4172],[21.682,48.3005,95.259],[21.6851,48.3032,94.7579],[21.6963,48.3073,95.5855],[21.6967,48.3099,95.5433],[21.6938,48.3159,95.5518],[21.6975,48.3215,95.9987],[21.6974,48.3248,96.4905],[21.6887,48.3293,97.0985],[21.6783,48.326,96.6471],[21.6722,48.3267,97.3107],[21.6705,48.3286,97.3951],[21.6708,48.3324,100.2608],[21.6617,48.3408,105.6502],[21.6505,48.3394,105.461],[21.6463,48.3354,102.1629],[21.643,48.3291,100.441],[21.6365,48.325,99.1513],[21.624,48.3214,100.2759],[21.6159,48.323,98.9586],[21.6127,48.3272,96.7944],[21.6121,48.3368,104.7514],[21.6091,48.3424,97.4447],[21.6087,48.3475,97.3874],[21.6102,48.3515,98.8097],[21.6184,48.3554,99.4056],[21.6175,48.3607,96.7166],[21.604,48.3614,96.8919],[21.6012,48.3595,98.4874],[21.5988,48.354,113.3798],[21.5903,48.3527,111.964],[21.5793,48.3539,197.8897],[21.5742,48.3605,239.9931],[21.5752,48.3695,164.0089],[21.5806,48.3788,160.4103],[21.5935,48.385,163.1119],[21.6016,48.3907,201.5491],[21.6022,48.3955,188.9697],[21.5978,48.3988,179.8679],[21.5778,48.4019,352.9309],[21.56,48.3955,193.0418],[21.5562,48.3886,241.2176],[21.5421,48.393,224.5916],[21.5324,48.39,355.7106],[21.5247,48.385,432.9816],[21.5074,48.3844,407.7076],[21.5004,48.3857,387.246],[21.4873,48.3933,264.1883],[21.4865,48.3954,269.5013],[21.489,48.4015,343.4832],[21.4835,48.4046,313.992],[21.4753,48.4044,468.9563],[21.461,48.4,449.2346],[21.4454,48.4038,436.1405],[21.4137,48.399,559.9823],[21.4075,48.4009,520.0009],[21.4013,48.407,528.7881],[21.3881,48.4104,599.8229],[21.3791,48.41,617.9995],[21.3684,48.414,669.197],[21.3605,48.4114,684.7375],[21.3542,48.3958,434.1831],[21.3551,48.3926,405.4889],[21.3602,48.3886,401.1689],[21.3595,48.3822,426.1961],[21.3648,48.3794,396.4973],[21.3849,48.3789,305.1714],[21.3876,48.3764,392.3152],[21.3868,48.3732,532.4126],[21.3806,48.3694,473.3213],[21.3791,48.3669,554.2422],[21.3794,48.3624,646.1524],[21.3863,48.3523,567.2694],[21.3871,48.3477,430.2567],[21.3832,48.3391,298.2895],[21.3818,48.3301,290.011],[21.3787,48.3244,282.4191],[21.3773,48.3136,435.4987],[21.3699,48.3072,426.9583],[21.3734,48.294,456.3967]]]]}
,"properties": {"GID_2": "HUN.4.10_1","GID_0": "HUN","country": "Hungary","GID_1": "HUN.4_1","province": "Borsod-Abaúj-Zemplén","NL_NAME_1": "NA","county": "Sárospatak","VARNAME_2": "NA","NL_NAME_2": "NA","TYPE_2": "Kistérség","ENGTYPE_2": "Subregion","CC_2": "NA","HASC_2": "NA","name": "Sárospatak.county","area_km2": 462.2646,"hist_schema_id": "Elevation0-9000","hist_area_km2": {"100": 252.3226,"125": 32.3312,"150": 20.5769,"175": 17.6666,"200": 14.9836,"225": 14.4731,"250": 12.5987,"275": 11.9785,"300": 11.654,"325": 10.2865,"350": 10.709,"375": 10.4547,"400": 10.9199,"425": 8.6353,"450": 6.254,"475": 4.9156,"500": 3.2252,"525": 2.4645,"550": 1.7884,"575": 1.1968,"600": 1.0841,"625": 0.7461,"650": 0.6616,"675": 0.2534,"700": 0.0844}}}