{"type":"Feature","properties":{"GID_2":"HUN.9.3_1","GID_0":"HUN","country":"Hungary","GID_1":"HUN.9_1","province":"Hajdú-Bihar","NL_NAME_1":"NA","county":"Debrecen","VARNAME_2":"NA","NL_NAME_2":"NA","TYPE_2":"Kistérség","ENGTYPE_2":"Subregion","CC_2":"NA","HASC_2":"NA","name":"Debrecen.county"},
"geometry":{"type": "MultiPolygon","coordinates": [[[[21.4413,47.5665,118.9636],[21.4282,47.5424,110.4838],[21.4285,47.5344,101.3935],[21.4336,47.5285,112.5828],[21.4712,47.5278,117.8629],[21.4904,47.5225,115.9066],[21.524,47.5227,115.0056],[21.5295,47.5211,115.3908],[21.5314,47.4941,109.162],[21.5497,47.484,104.2692],[21.5559,47.4778,107.4574],[21.5559,47.4391,100.3709],[21.5806,47.4397,102.7334],[21.596,47.4465,102.2231],[21.612,47.4562,104.749],[21.6257,47.4594,104.2617],[21.6431,47.4602,107.3327],[21.6556,47.4629,108.7693],[21.6632,47.4622,120.7063],[21.6735,47.458,119.6958],[21.6752,47.4548,120.5438],[21.6755,47.4455,106.9818],[21.6794,47.4429,108.9866],[21.7208,47.4435,113.5589],[21.7498,47.4543,120.5915],[21.7799,47.4471,117.6545],[21.7849,47.4517,122.1723],[21.7867,47.4634,119.69],[21.7958,47.4761,121.0547],[21.8035,47.4774,118.5231],[21.8233,47.4714,121.7719],[21.8524,47.4955,132.435],[21.8692,47.5186,135.2308],[21.8703,47.5221,135.116],[21.8695,47.5699,140.3406],[21.8382,47.5949,141.4809],[21.8274,47.5981,135.3252],[21.8184,47.5915,142.2981],[21.8037,47.5929,136.7548],[21.793,47.5824,131.8315],[21.7642,47.571,130.2604],[21.7472,47.5693,128.8407],[21.7396,47.5646,126.4984],[21.7301,47.5642,137.8808],[21.7188,47.5667,129.6623],[21.7029,47.5671,124.2634],[21.6998,47.5695,126.7147],[21.6998,47.576,131.9551],[21.7018,47.5792,134.7723],[21.7094,47.5825,129.7142],[21.7117,47.5851,139.026],[21.7086,47.5923,133.1718],[21.7083,47.5984,132.4873],[21.7135,47.6099,131.0072],[21.7189,47.6154,132.5784],[21.7156,47.6221,139.8641],[21.712,47.6241,133.1613],[21.706,47.6244,139.6083],[21.6907,47.6192,135.2122],[21.6816,47.6187,139.8939],[21.6609,47.6266,149.2726],[21.6507,47.627,139.7445],[21.6412,47.6233,139.9188],[21.6346,47.6105,140.3026],[21.6218,47.6096,149.3906],[21.6191,47.6115,144.8542],[21.6188,47.616,150.2173],[21.627,47.6362,155.9921],[21.6247,47.6398,152.4845],[21.6179,47.6428,153.3049],[21.6078,47.6285,145.3755],[21.5801,47.6186,137.3859],[21.5311,47.6114,150.5095],[21.5186,47.6034,145.3977],[21.4949,47.6028,129.1378],[21.4813,47.6001,125.8317],[21.4574,47.5999,122.3477],[21.457,47.5928,121.2422],[21.4523,47.5799,120.7835],[21.4413,47.5665,118.9636]]]]}}