{"type":"Feature","properties":{"ISO3166-1-Alpha-3":"HUN","country":"Hungary","fill":"#F0F","id":"4924","name":"Debrecen"},
"geometry":{"type": "Polygon","coordinates": [[[21.54637,47.67154,140.6256],[21.53119,47.67913,130.9692],[21.54384,47.73228,116.3089],[21.52359,47.72216,114.5232],[21.48056,47.69179,109.0507],[21.43889,47.60986,115.1462],[21.41611,47.55164,113.4016],[21.41864,47.50102,109.9243],[21.48698,47.50102,109.1403],[21.50723,47.45293,100.6852],[21.53878,47.44373,99.3156],[21.56409,47.43108,101.4057],[21.57675,47.39058,97.681],[21.63749,47.39058,103.513],[21.69318,47.43867,115.9581],[21.73114,47.44373,117.6466],[21.77164,47.41589,111.6557],[21.83998,47.46905,119.3304],[21.86023,47.50701,131.719],[21.86276,47.57029,132.0102],[21.82986,47.61079,137.6465],[21.79189,47.64369,142.4477],[21.75646,47.6361,151.359],[21.72355,47.60826,137.8804],[21.67799,47.59054,131.6568],[21.65015,47.61585,139.2702],[21.62737,47.66141,164.6575],[21.60965,47.70697,139.7857],[21.55903,47.70191,130.7183],[21.54637,47.67154,140.6256]]]}}