{"type": "Feature","bbox": [20.5482,46.3632,20.9125,46.7686],"geometry": {"type": "MultiPolygon","coordinates": [[[[20.8232,46.7066,86.6035],[20.8159,46.7035,86.5909],[20.8023,46.7009,86.481],[20.7894,46.7006,86.1682],[20.7785,46.6984,86.2188],[20.7712,46.6995,86.6162],[20.7668,46.7048,87.318],[20.7613,46.7219,85.6846],[20.7528,46.7344,85.108],[20.7382,46.7486,85.0455],[20.7237,46.7548,83.9432],[20.6991,46.756,82.9261],[20.6611,46.7625,81.5691],[20.6265,46.7633,82.6612],[20.6079,46.7686,81.9797],[20.5875,46.7592,82.1304],[20.577,46.7435,82.9387],[20.5758,46.7391,83.5268],[20.5764,46.7114,82.8867],[20.584,46.6997,83.1644],[20.5705,46.6929,84.0187],[20.5679,46.6875,85.6519],[20.5686,46.6712,86.2661],[20.5727,46.6623,87.2],[20.5732,46.6412,85.8103],[20.5775,46.6301,85.8044],[20.5768,46.5832,85.9443],[20.5917,46.5618,87.0243],[20.6105,46.5529,87.779],[20.6168,46.5456,87.19],[20.6194,46.5397,88.1478],[20.6084,46.5295,86.469],[20.606,46.5079,86.0655],[20.5972,46.4952,86.0989],[20.603,46.474,86.0421],[20.5967,46.4706,85.766],[20.5859,46.4684,85.452],[20.5779,46.4641,85.3067],[20.5778,46.4608,85.5664],[20.5811,46.453,84.9435],[20.5793,46.4308,85.6831],[20.5688,46.4224,85.0286],[20.5536,46.4168,85.1794],[20.5492,46.4132,86.7448],[20.5482,46.4038,84.8165],[20.5588,46.3881,85.4766],[20.58,46.3786,86.1581],[20.589,46.3658,86.6855],[20.5934,46.3633,86.6217],[20.6503,46.3632,90.5127],[20.6766,46.3673,91.0147],[20.6847,46.3878,91.8305],[20.6921,46.3954,91.6245],[20.7287,46.3953,91.4266],[20.7347,46.394,93.3437],[20.7377,46.3915,92.8723],[20.7433,46.3824,93.6944],[20.7587,46.3657,94.2997],[20.7633,46.3728,95.1209],[20.773,46.3821,95.1327],[20.7874,46.3878,94.5149],[20.805,46.4079,95.6036],[20.8051,46.42,93.6919],[20.7996,46.4295,93.9818],[20.7997,46.4339,93.3916],[20.7867,46.4577,92.6463],[20.7914,46.4659,92.6474],[20.8006,46.472,92.8335],[20.8267,46.4839,93.0821],[20.8281,46.4872,93.3461],[20.8288,46.5007,93.9378],[20.8337,46.5064,93.9763],[20.839,46.5068,93.4372],[20.8641,46.5002,94.439],[20.8745,46.4996,94.713],[20.878,46.5015,94.1529],[20.8788,46.5084,93.7075],[20.8805,46.5106,93.1346],[20.8949,46.5139,93.435],[20.8994,46.5169,93.7202],[20.9034,46.5226,93.9361],[20.9046,46.5398,94.2958],[20.9084,46.5473,92.7905],[20.9092,46.5702,93.0409],[20.9108,46.5763,94.6747],[20.906,46.5868,93.7072],[20.9051,46.596,91.427],[20.9017,46.6036,91.2574],[20.9036,46.6073,91.168],[20.9115,46.6105,90.8743],[20.9125,46.6127,91.1168],[20.8986,46.6215,90.4554],[20.8926,46.6306,91.4934],[20.8783,46.6455,88.9272],[20.8689,46.663,88.6409],[20.8557,46.6791,88.0362],[20.8416,46.6928,87.344],[20.8232,46.7066,86.6035]]]]}
,"properties": {"GID_2": "HUN.3.5_1","GID_0": "HUN","country": "Hungary","GID_1": "HUN.3_1","province": "Békés","NL_NAME_1": "NA","county": "Orosház","VARNAME_2": "NA","NL_NAME_2": "NA","TYPE_2": "Kistérség","ENGTYPE_2": "Subregion","CC_2": "NA","HASC_2": "NA","name": "Orosház.county","area_km2": 842.5309,"hist_schema_id": "Elevation0-9000","hist_area_km2": {"75": 266.529,"100": 576.0018}}}