{"type":"Feature","properties":{"GID_2":"HUN.15.4_1","GID_0":"HUN","country":"Hungary","GID_1":"HUN.15_1","province":"Somogy","NL_NAME_1":"NA","county":"Fonyód","VARNAME_2":"Fonyódi","NL_NAME_2":"NA","TYPE_2":"Kistérség","ENGTYPE_2":"Subregion","CC_2":"NA","HASC_2":"NA","name":"Fonyód.county"},
"geometry":{"type": "MultiPolygon","coordinates": [[[[17.7105,46.8387,103.5],[17.6809,46.8245,103.5],[17.6443,46.8173,103.5],[17.6361,46.8143,103.5],[17.6241,46.8071,103.5],[17.5921,46.7957,103.5],[17.5829,46.7939,103.5],[17.5543,46.7837,103.5],[17.5296,46.7791,103.5],[17.4929,46.766,103.5],[17.4412,46.7648,103.5],[17.4195,46.7611,103.5],[17.4025,46.755,103.5],[17.3938,46.744,103.5],[17.3884,46.7415,103.5],[17.3614,46.7412,103.5],[17.3337,46.746,103.5],[17.3051,46.7403,103.5],[17.286,46.7422,103.5],[17.2839,46.7399,103.5],[17.2841,46.7266,103.5],[17.2826,46.7217,103.5],[17.2881,46.7134,103.5],[17.2895,46.6982,106.1451],[17.297,46.6871,110.0997],[17.2976,46.6714,117.8314],[17.2997,46.6693,120.0674],[17.3126,46.6684,162.3801],[17.3253,46.6639,205.3294],[17.3296,46.6661,209.6312],[17.3375,46.677,203.9259],[17.3407,46.6781,197.3748],[17.3498,46.6763,177.6663],[17.3594,46.6862,144.3661],[17.375,46.6877,122.3682],[17.3929,46.6954,103.6888],[17.41,46.6936,103.0497],[17.4464,46.702,105.482],[17.4557,46.7027,105.893],[17.4592,46.7021,104.7303],[17.4608,46.7,103.5452],[17.4537,46.6856,103.9083],[17.4534,46.678,104.2248],[17.455,46.6748,102.7318],[17.4903,46.6742,104.1742],[17.5026,46.6717,105.8754],[17.5127,46.6718,102.8267],[17.5154,46.6755,102.0148],[17.5122,46.6812,102.728],[17.5068,46.7007,103.8436],[17.5067,46.7141,103.1396],[17.5108,46.7239,105.8977],[17.5173,46.726,107.8789],[17.5628,46.726,104.2561],[17.5754,46.7228,103.2913],[17.5828,46.7129,109.3776],[17.5906,46.7133,113.0082],[17.5961,46.7161,112.083],[17.6048,46.7277,110.5773],[17.605,46.7407,103.6903],[17.6011,46.749,103.5522],[17.6003,46.7598,103.4458],[17.6014,46.764,103.5],[17.6063,46.7661,103.5],[17.6085,46.7652,108.617],[17.6122,46.7579,102.9384],[17.617,46.7451,106.1571],[17.6186,46.7357,114.7145],[17.6306,46.7247,132.6566],[17.6373,46.7245,143.7799],[17.6586,46.7308,136.8904],[17.6682,46.7395,115.0835],[17.6764,46.7416,138.5425],[17.6967,46.734,173.6424],[17.709,46.7324,253.9409],[17.7156,46.7267,267.9839],[17.7242,46.7224,207.7575],[17.7291,46.7164,289.7104],[17.7336,46.7093,266.4415],[17.7311,46.6996,240.5314],[17.7383,46.6886,208.5834],[17.7391,46.6665,262.748],[17.7376,46.6634,250.757],[17.722,46.6589,240.9799],[17.7192,46.6555,199.1083],[17.7319,46.6499,270.726],[17.7349,46.6465,269.3624],[17.7375,46.634,276.5422],[17.7321,46.6262,237.9553],[17.7375,46.6203,218.941],[17.7361,46.6128,205.0789],[17.7394,46.6069,229.591],[17.7405,46.5979,213.9205],[17.7437,46.5927,211.5922],[17.7539,46.5967,246.2093],[17.7904,46.6023,204.242],[17.7939,46.6011,197.6704],[17.8026,46.5922,180.0789],[17.8122,46.5928,200.1516],[17.8177,46.5969,221.2959],[17.8188,46.6024,196.0821],[17.8133,46.6133,244.0867],[17.8139,46.6243,245.2383],[17.8059,46.6396,235.0292],[17.8057,46.6519,220.2048],[17.8091,46.659,188.4661],[17.8096,46.6644,173.8757],[17.8089,46.6698,177.1141],[17.8051,46.6784,186.1708],[17.8044,46.7065,260.9526],[17.8065,46.7125,278.1692],[17.8158,46.7186,241.2832],[17.8156,46.7247,256.7654],[17.8206,46.7315,228.1844],[17.8202,46.7331,223.0278],[17.8151,46.7403,174.4367],[17.8055,46.7476,196.3472],[17.8003,46.7544,225.9764],[17.7957,46.7635,268.2116],[17.7945,46.7725,230.6309],[17.7914,46.7778,176.737],[17.79,46.7845,139.7862],[17.7851,46.7913,143.2706],[17.7631,46.7992,121.5807],[17.7573,46.7988,119.2397],[17.7448,46.7941,103.6243],[17.7408,46.7948,103.877],[17.737,46.7993,108.5514],[17.7262,46.825,103.5],[17.7214,46.8312,103.5],[17.7105,46.8387,103.5]]]]}}