{"type":"Feature","properties":{"ISO3166-1-Alpha-3":"HUN","country":"Hungary","fill":"#FF0","id":"4919","name":"Békéscsaba"},
"geometry":{"type": "Polygon","coordinates": [[[21.16772,46.67012,86.9534],[21.20698,46.7035,96.2271],[21.18931,46.73687,84.5346],[21.20109,46.77614,84.9757],[21.15594,46.82129,84.1997],[21.05972,46.85219,83.8692],[21.0185,46.80114,85.0765],[20.9753,46.76973,87.9498],[20.99101,46.71868,87.4013],[21.00279,46.66567,94.8096],[21.05777,46.66619,89.4926],[21.10489,46.67208,87.6441],[21.16772,46.67012,86.9534]]]}}