{"type":"Feature","properties":{"GID_2":"HUN.20.5_1","GID_0":"HUN","country":"Hungary","GID_1":"HUN.20_1","province":"Zala","NL_NAME_1":"NA","county":"Pacsa/Zalaegerszeg","VARNAME_2":"Pacsai/Zalaegerszegi","NL_NAME_2":"NA","TYPE_2":"Kistérség","ENGTYPE_2":"Subregion","CC_2":"NA","HASC_2":"NA","name":"Pacsa_Zalaegerszeg.county"},
"geometry":{"type": "MultiPolygon","coordinates": [[[[16.6186,46.9052,243.776],[16.608,46.902,249.3041],[16.6011,46.8965,254.0978],[16.5972,46.8899,243.4811],[16.5921,46.8708,227.6205],[16.5722,46.8446,187.8494],[16.5671,46.8437,188.6658],[16.5588,46.8456,205.0016],[16.551,46.8453,194.6266],[16.5365,46.8397,198.8296],[16.5196,46.836,207.4202],[16.532,46.8272,252.0233],[16.5336,46.8089,267.8981],[16.5572,46.7981,245.5187],[16.5604,46.7985,246.7676],[16.5697,46.806,243.1378],[16.5773,46.8055,233.7622],[16.5817,46.7958,255.6391],[16.5738,46.7872,229.1115],[16.5735,46.7785,237.4088],[16.5757,46.7758,233.092],[16.5911,46.7761,229.3011],[16.6026,46.7799,240.4836],[16.6068,46.7833,239.9846],[16.6128,46.795,248.2675],[16.6205,46.7974,249.1658],[16.6299,46.7928,248.0159],[16.6433,46.7924,241.3468],[16.6502,46.7895,251.0451],[16.6531,46.7858,220.7162],[16.6533,46.7735,221.4125],[16.6555,46.7708,230.4855],[16.6741,46.7742,256.4911],[16.6852,46.7729,205.0271],[16.6874,46.7701,223.6057],[16.687,46.7661,244.8891],[16.6816,46.7592,247.6589],[16.6677,46.7512,248.0132],[16.6662,46.7461,234.1969],[16.6672,46.7405,217.6142],[16.6744,46.738,210.2964],[16.6849,46.7387,241.3277],[16.6933,46.7286,208.087],[16.6967,46.7269,216.669],[16.7001,46.7273,221.7874],[16.7056,46.7315,239.9665],[16.718,46.7351,190.7472],[16.7248,46.7337,182.2406],[16.7282,46.7284,211.7906],[16.7343,46.7245,234.2871],[16.7354,46.7212,250.0523],[16.7345,46.7164,254.3122],[16.7279,46.7072,243.9508],[16.7281,46.7046,249.4202],[16.7345,46.6986,226.3265],[16.7366,46.6906,206.9144],[16.7402,46.6865,203.292],[16.7521,46.6838,201.4255],[16.7527,46.6809,198.4623],[16.75,46.6754,200.9913],[16.762,46.6654,199.9603],[16.7587,46.6627,189.2545],[16.7589,46.6603,188.516],[16.7654,46.6607,197.4551],[16.7663,46.6656,198.7692],[16.7722,46.6713,192.2856],[16.7811,46.6747,207.7524],[16.7864,46.6741,196.3384],[16.7889,46.6668,185.72],[16.7982,46.6623,230.6171],[16.8002,46.6596,217.5608],[16.7928,46.6476,183.6439],[16.7932,46.6368,212.7102],[16.8044,46.6299,211.174],[16.8099,46.6223,267.2943],[16.8192,46.6265,251.0426],[16.8427,46.6305,217.4745],[16.8574,46.6292,268.8308],[16.8699,46.6369,262.7706],[16.8817,46.6419,249.1069],[16.8881,46.6583,248.1126],[16.899,46.6708,224.1586],[16.9032,46.6775,207.1059],[16.9047,46.685,187.2453],[16.9117,46.6923,174.6468],[16.9174,46.7034,164.0674],[16.9208,46.7057,144.4849],[16.9446,46.7072,155.4785],[16.9633,46.7051,173.3566],[16.9744,46.7081,152.7795],[16.9904,46.7095,146.4761],[16.9999,46.7151,160.2709],[17.0154,46.716,182.3139],[17.0216,46.7141,179.0181],[17.0253,46.7093,182.928],[17.0237,46.702,185.716],[17.0254,46.6992,193.8047],[17.0314,46.6976,191.1874],[17.0403,46.6987,202.5237],[17.045,46.6969,216.9813],[17.0524,46.7062,182.1879],[17.0546,46.7166,175.386],[17.0636,46.7188,183.5138],[17.0698,46.723,171.3824],[17.085,46.728,171.6154],[17.0906,46.7375,140.1943],[17.091,46.7421,183.4272],[17.0895,46.7455,179.4788],[17.0762,46.7518,168.1677],[17.0734,46.7572,176.9778],[17.0735,46.7682,193.4749],[17.0774,46.7783,252.4985],[17.0757,46.7891,229.8225],[17.08,46.7934,248.5527],[17.0802,46.7958,265.7399],[17.0693,46.8007,183.3449],[17.0672,46.8105,176.2282],[17.0566,46.8186,189.9325],[17.0551,46.8221,215.9745],[17.0554,46.8318,231.9421],[17.0582,46.8379,228.7321],[17.0552,46.8436,244.041],[17.0553,46.847,207.5445],[17.0602,46.852,253.9706],[17.0704,46.858,214.5096],[17.0719,46.862,170.1752],[17.0712,46.8679,138.3096],[17.0669,46.8736,152.3785],[17.0567,46.8783,162.4656],[17.0548,46.8818,166.3548],[17.0657,46.889,170.2556],[17.0626,46.9009,204.9458],[17.0703,46.9104,184.4876],[17.0706,46.9132,153.0745],[17.0647,46.9164,228.4416],[17.0591,46.917,190.3408],[17.0535,46.9143,243.5877],[17.0464,46.9069,253.6667],[17.0285,46.9059,252.0504],[17.0278,46.9137,236.8565],[17.0358,46.9295,163.0002],[17.0356,46.9385,184.387],[17.0269,46.9443,267.2194],[17.0081,46.9441,144.1952],[17.0023,46.9463,138.6963],[16.9884,46.9611,148.9322],[16.994,46.9723,147.5472],[16.9579,46.9709,152.0213],[16.9429,46.9738,174.2176],[16.9356,46.9794,223.1419],[16.9303,46.9807,194.5528],[16.878,46.9784,201.6274],[16.8572,46.9829,162.0756],[16.8389,46.9824,156.4486],[16.834,46.9794,155.3102],[16.8342,46.9606,204.345],[16.8219,46.9564,199.8025],[16.8067,46.9541,200.6346],[16.8052,46.9509,202.0243],[16.8056,46.9387,223.0966],[16.8,46.9322,201.5498],[16.7832,46.9312,250.5001],[16.7661,46.9355,208.72],[16.7444,46.9352,252.3527],[16.7356,46.9374,264.2283],[16.6916,46.9354,217.7752],[16.6879,46.9342,211.8281],[16.6822,46.9278,207.4009],[16.6789,46.9264,203.267],[16.6362,46.9232,247.0588],[16.6186,46.9052,243.776]]]]}}