{"type":"Feature","properties":{"ISO3166-1-Alpha-3":"HUN","country":"Hungary","fill":"#00F","id":"3169","name":"Szabolcs-Szatmár-Bereg"},
"geometry":{"type": "Polygon","coordinates": [[[22.25676,48.35728,110.2877],[22.25697,48.37322,97.5],[22.27185,48.40345,105.2402],[22.23609,48.41529,105.5048],[22.20198,48.41816,105.2867],[22.16922,48.40953,106.0603],[22.1593,48.40232,107.4325],[22.15832,48.40223,105.2315],[22.15826,48.40222,105.2315],[22.13718,48.38692,105.7726],[22.09997,48.33447,104.2227],[22.0792,48.31152,103.0713],[22.0515,48.3,102.2129],[22.0422,48.30132,100.1237],[22.02277,48.30832,102.2264],[22.01119,48.30744,106.729],[22.0053,48.30315,102.2814],[21.97151,48.26977,101.346],[21.94319,48.2478,97.4058],[21.92862,48.23979,100.4009],[21.90919,48.23504,98.6381],[21.84604,48.23235,99.5294],[21.83136,48.22465,97.3112],[21.81307,48.2121,96.023],[21.79446,48.20197,97.0254],[21.77844,48.20161,99.3125],[21.76625,48.19944,99.0806],[21.69018,48.16745,97.7589],[21.67116,48.16548,107.1417],[21.65215,48.16776,122.1414],[21.61277,48.18032,108.7147],[21.59582,48.18068,102.1247],[21.55872,48.17711,99.569],[21.49464,48.17913,100.274],[21.47614,48.17711,111.2657],[21.46125,48.17008,95.0],[21.44689,48.15789,98.0806],[21.43531,48.14352,96.9697],[21.42839,48.12993,98.1772],[21.42632,48.11239,96.1149],[21.43169,48.10327,99.743],[21.43903,48.09546,99.7584],[21.44265,48.08182,95.7989],[21.43242,48.05056,95.1303],[21.40689,48.03371,115.4666],[21.3733,48.02704,95.8026],[21.33899,48.02627,94.2907],[21.34643,48.02627,93.0],[21.29858,48.02399,96.225],[21.28431,48.02627,95.7963],[21.27232,48.03322,97.2767],[21.26333,48.04167,90.0],[21.25289,48.04753,105.826],[21.23656,48.04676,97.3246],[21.22964,48.04198,112.1322],[21.22664,48.0351,118.6204],[21.22261,48.02895,107.6722],[21.21269,48.02627,111.3955],[21.1882,48.02715,114.6327],[21.18127,48.02627,108.5057],[21.13776,48.00676,111.5234],[21.1267,47.99896,92.2385],[21.11998,47.98674,91.8935],[21.11368,47.96054,92.3669],[21.18675,47.95402,91.6391],[21.26943,47.90971,91.6067],[21.31418,47.92167,92.8704],[21.47614,47.92997,102.5616],[21.51458,47.9455,108.1294],[21.54611,47.93806,109.7755],[21.55613,47.91689,113.5364],[21.54383,47.86364,113.0469],[21.5397,47.80747,112.8408],[21.63334,47.75771,126.1935],[21.64977,47.74241,134.5154],[21.69866,47.73538,134.6725],[21.71819,47.72282,139.256],[21.76036,47.71244,143.8143],[21.78154,47.71236,149.1974],[21.8019,47.70642,156.0029],[21.81968,47.69143,151.9747],[21.84087,47.68314,148.2198],[21.85947,47.69585,155.9472],[21.87146,47.71667,149.5958],[21.89565,47.74494,146.4872],[21.92986,47.74618,145.9823],[21.99941,47.71985,161.0601],[22.02835,47.68505,159.56],[22.02256,47.6589,155.6044],[22.04871,47.64151,153.0897],[22.09512,47.67634,153.2534],[22.11248,47.6589,152.2104],[22.13243,47.60113,145.2276],[22.15382,47.58252,139.5409],[22.15418,47.58221,139.5409],[22.16209,47.58624,145.1707],[22.16736,47.59379,140.4237],[22.16761,47.59486,140.4237],[22.16912,47.60138,140.5967],[22.16984,47.60877,148.7775],[22.17284,47.61539,144.2565],[22.19764,47.63932,152.5475],[22.20074,47.64795,154.3436],[22.20415,47.66629,158.2057],[22.20787,47.67373,151.1414],[22.21521,47.67993,148.0155],[22.23216,47.68825,145.9924],[22.23981,47.69347,143.3645],[22.26172,47.71585,147.3067],[22.27309,47.72375,144.3837],[22.29159,47.73071,143.7051],[22.30937,47.73505,134.462],[22.32208,47.73587,133.6282],[22.36828,47.73117,120.8891],[22.38264,47.73202,120.0169],[22.39587,47.73569,118.3536],[22.40735,47.74308,117.8451],[22.42367,47.78256,112.9497],[22.45437,47.78739,111.6251],[22.52847,47.76104,113.1875],[22.56299,47.75722,113.5805],[22.60123,47.76094,113.4676],[22.63772,47.77156,114.9318],[22.66697,47.78879,115.9759],[22.69167,47.8107,118.7447],[22.70386,47.81719,119.7951],[22.72422,47.82349,121.3223],[22.74583,47.82499,120.0078],[22.75182,47.82768,119.3812],[22.7603,47.83892,119.0701],[22.75833,47.84623,119.5342],[22.75327,47.85269,119.9326],[22.75285,47.86124,118.7336],[22.7636,47.87475,118.1709],[22.77962,47.8823,119.0295],[22.81972,47.89232,119.773],[22.83605,47.90245,120.9839],[22.86117,47.93382,131.2054],[22.8776,47.94674,121.4453],[22.84081,47.96679,120.626],[22.83244,47.97893,118.4209],[22.84949,47.99314,118.5258],[22.85135,48.0088,119.156],[22.85796,48.01803,119.4669],[22.86158,48.02839,119.6056],[22.85476,48.0473,119.0828],[22.84432,48.06105,118.8406],[22.83099,48.07244,119.2294],[22.80143,48.09097,117.3076],[22.76557,48.10453,116.5663],[22.76205,48.10926,117.461],[22.74572,48.11629,116.4646],[22.72857,48.11314,115.8303],[22.71162,48.10582,116.6487],[22.69322,48.10177,108.9158],[22.62118,48.10177,115.219],[22.60806,48.09683,116.5235],[22.60547,48.09704,112.8693],[22.6001,48.10112,112.6553],[22.58304,48.12482,115.8047],[22.56889,48.15652,111.8628],[22.55576,48.17716,111.7623],[22.48145,48.24259,108.3444],[22.47742,48.24393,138.3125],[22.47328,48.2445,141.8661],[22.46905,48.24414,174.8568],[22.44972,48.23768,107.5421],[22.43422,48.23675,108.4605],[22.4184,48.23897,106.2025],[22.39877,48.24434,106.5557],[22.39453,48.24476,106.225],[22.3905,48.24434,105.9824],[22.38647,48.24305,105.857],[22.37861,48.23887,106.471],[22.37086,48.23739,106.5588],[22.36363,48.23871,107.1244],[22.35712,48.2431,107.1011],[22.30813,48.29369,113.9841],[22.29738,48.314,103.9837],[22.29645,48.3278,104.4646],[22.29872,48.33932,104.278],[22.29872,48.34914,104.0039],[22.29128,48.35757,103.5586],[22.28436,48.35839,104.1274],[22.25676,48.35728,110.2877]],
[[21.7302,48.01909,104.1306],[21.76814,48.03679,100.1814],[21.79691,48.0232,107.2994],[21.79691,47.99285,104.6889],[21.85003,47.99032,108.8491],[21.87532,48.00297,106.0633],[21.89556,47.98779,107.6401],[21.89809,47.95238,117.5523],[21.89556,47.91444,131.0278],[21.86268,47.90938,139.617],[21.86015,47.87397,120.9417],[21.83738,47.84109,127.584],[21.78174,47.8335,127.2026],[21.74886,47.84868,127.6394],[21.68056,47.86132,118.9264],[21.61986,47.87397,117.3697],[21.62745,47.93467,133.0591],[21.63504,47.98526,105.2997],[21.6442,48.00644,105.6422],[21.66191,48.02921,103.6914],[21.7125,48.03174,98.5916],[21.7302,48.01909,104.1306]]]}}