{"type": "Feature","bbox": [21.0834,47.592,22.9056,48.4273],"geometry": {"type": "MultiPolygon","coordinates": [[[[22.1296,47.6038,140.6398],[22.1295,47.6008,140.5437],[22.1324,47.6012,145.2276],[22.1478,47.5949,144.4624],[22.1717,47.592,145.5512],[22.178,47.5947,150.7135],[22.1801,47.5996,142.7],[22.1822,47.5996,139.7567],[22.1846,47.6067,140.1977],[22.1915,47.6122,142.6493],[22.1961,47.6309,144.9434],[22.2007,47.6365,150.1702],[22.205,47.6552,153.0697],[22.2132,47.6542,146.0276],[22.2238,47.6624,148.3918],[22.2217,47.664,156.2951],[22.2248,47.6687,148.298],[22.224,47.6733,146.2299],[22.2268,47.681,147.1966],[22.2244,47.6829,145.0543],[22.2276,47.6883,144.8584],[22.2326,47.6936,145.7808],[22.2432,47.6955,153.7167],[22.2556,47.6954,142.2413],[22.2578,47.6984,146.6803],[22.2606,47.6987,145.9373],[22.2639,47.714,143.5706],[22.2639,47.717,143.3319],[22.2609,47.7177,147.3707],[22.2662,47.7314,143.9964],[22.287,47.7296,141.0879],[22.3005,47.7375,135.6903],[22.3049,47.7374,138.4589],[22.3077,47.7417,133.4939],[22.3191,47.7436,127.6625],[22.3225,47.7553,126.4677],[22.3189,47.7662,129.3692],[22.3259,47.7671,127.6725],[22.332,47.7654,130.5757],[22.347,47.7553,124.4061],[22.3479,47.7532,125.669],[22.3587,47.7493,124.2982],[22.3883,47.7456,117.1037],[22.398,47.748,116.1544],[22.412,47.747,116.7985],[22.4131,47.7427,118.2139],[22.4318,47.7413,118.6852],[22.4315,47.7455,118.2613],[22.4288,47.7472,118.1554],[22.4296,47.7499,118.1402],[22.4274,47.7504,117.972],[22.4287,47.7548,117.1567],[22.4342,47.7623,115.0704],[22.4426,47.7921,112.0882],[22.4496,47.8034,112.9955],[22.4687,47.8054,113.7648],[22.4832,47.8112,111.9826],[22.4901,47.8062,111.8245],[22.5416,47.7823,113.1317],[22.5512,47.773,114.0019],[22.6132,47.7723,114.078],[22.6171,47.7776,114.4925],[22.6286,47.7764,115.5631],[22.6384,47.781,115.6604],[22.6483,47.7793,116.1319],[22.6617,47.7822,115.8884],[22.6653,47.7838,116.412],[22.6678,47.7872,116.5357],[22.6723,47.7885,117.1369],[22.6819,47.788,117.8527],[22.6866,47.7919,118.2244],[22.6969,47.8087,118.7508],[22.7031,47.8153,120.0494],[22.7013,47.8186,119.8762],[22.7055,47.8207,120.2879],[22.7073,47.8239,120.0304],[22.711,47.8242,120.4383],[22.7126,47.8347,118.9607],[22.7174,47.8373,119.2029],[22.7253,47.8386,119.101],[22.7329,47.836,119.1302],[22.7535,47.8346,119.4792],[22.7577,47.835,119.1058],[22.7677,47.8422,119.8623],[22.7784,47.8437,119.5189],[22.7791,47.8524,121.8609],[22.7761,47.8564,120.6125],[22.7765,47.8591,119.6646],[22.7742,47.8598,119.7267],[22.7747,47.8634,119.5626],[22.7678,47.8644,119.6002],[22.7637,47.8673,119.0627],[22.7701,47.8789,119.1518],[22.7599,47.8863,118.7706],[22.7614,47.8876,119.4023],[22.7586,47.8906,118.2851],[22.7598,47.8937,118.4106],[22.762,47.8951,118.6921],[22.7649,47.893,118.6693],[22.7678,47.8951,118.3004],[22.7713,47.8931,119.0415],[22.7848,47.8941,122.3938],[22.7946,47.8912,119.8212],[22.8076,47.8985,119.9508],[22.8162,47.9008,119.4467],[22.8273,47.908,120.7296],[22.8341,47.9096,121.5042],[22.8486,47.9084,121.0956],[22.8586,47.9171,119.4818],[22.8595,47.9205,121.7354],[22.8679,47.9253,122.177],[22.8681,47.9293,122.0537],[22.8741,47.9327,121.9794],[22.8743,47.9367,122.0052],[22.8816,47.9438,121.9252],[22.8868,47.945,121.2329],[22.8888,47.9519,121.1683],[22.8933,47.9536,121.2672],[22.8965,47.9522,121.991],[22.898,47.9543,126.8604],[22.903199999999998,47.955,123.0069],[22.9026,47.9581,122.8973],[22.9045,47.9574,122.6017],[22.9056,47.9615,121.1122],[22.8947,47.9636,123.9583],[22.896,47.966,120.3931],[22.8853,47.9687,120.847],[22.8864,47.9705,120.0123],[22.8757,47.9738,119.6402],[22.8767,47.975,119.6402],[22.8719,47.9766,119.5936],[22.8693,47.9801,119.0594],[22.8667,47.9793,118.9349],[22.8605,47.9819,118.8455],[22.86,47.9841,118.8144],[22.8461,47.9884,118.592],[22.8455,47.9922,118.5614],[22.847,47.9952,118.5531],[22.8511,47.9955,118.8026],[22.8486,48.0013,119.3399],[22.8558,48.0018,119.1581],[22.8547,48.0057,120.8643],[22.857,48.0079,120.9103],[22.8617,48.0082,119.329],[22.8608,48.0121,119.3232],[22.865,48.0135,121.7035],[22.8671,48.0181,119.94],[22.8665,48.0245,119.4723],[22.8734,48.0263,123.6421],[22.8773,48.0332,121.3863],[22.8815,48.0335,120.1077],[22.8804,48.0411,122.0501],[22.8816,48.0539,123.199],[22.8749,48.0555,121.3261],[22.8747,48.0527,120.3712],[22.8673,48.0565,120.0533],[22.8652,48.0604,121.1453],[22.8633,48.0727,121.1237],[22.8575,48.0799,120.3746],[22.8509,48.0845,119.6183],[22.8402,48.0839,119.5499],[22.8402,48.0823,118.9448],[22.8373,48.085,122.0521],[22.840699999999998,48.0869,121.2724],[22.8355,48.0904,119.9579],[22.8351,48.0929,122.9704],[22.8382,48.0956,115.3023],[22.8297,48.0959,113.3352],[22.8284,48.1038,120.3941],[22.8311,48.1144,118.8275],[22.826,48.1198,119.3761],[22.8174,48.1216,118.8762],[22.8128,48.1197,119.138],[22.8126,48.1174,121.4718],[22.809,48.1171,118.4867],[22.808,48.123,118.9883],[22.8013,48.124,117.4259],[22.7954,48.1219,118.3091],[22.7878,48.1217,115.4997],[22.7797,48.1242,116.1631],[22.7744,48.1218,110.0353],[22.7764,48.1133,109.8736],[22.7697,48.1115,120.4145],[22.767,48.1123,114.8585],[22.7656,48.1196,116.644],[22.7449,48.1233,116.4636],[22.7345,48.1172,118.323],[22.7251,48.1194,116.4879],[22.708,48.1132,117.7766],[22.6849,48.0983,109.7438],[22.6761,48.0945,116.0726],[22.6519,48.0963,114.1125],[22.6474,48.0987,112.5365],[22.6392,48.0983,113.7488],[22.6279,48.1043,114.4174],[22.6276,48.1091,113.2556],[22.6181,48.1086,112.7314],[22.6183,48.1056,114.0825],[22.6087,48.1055,113.5108],[22.6085,48.1081,113.3052],[22.5902,48.1084,117.9523],[22.5985,48.1133,112.0397],[22.5993,48.1203,110.9871],[22.5976,48.1238,111.0074],[22.5949,48.1475,110.7861],[22.6049,48.1424,111.1802],[22.6036,48.1482,111.2454],[22.5936,48.1534,112.2731],[22.5923,48.1592,111.0362],[22.5853,48.1586,112.1229],[22.583,48.1611,111.2404],[22.5811,48.1702,112.5067],[22.5722,48.17,111.3886],[22.5686,48.1871,113.7188],[22.5773,48.1879,120.9603],[22.5758,48.1992,110.8384],[22.5628,48.1986,113.3661],[22.556,48.201,110.7703],[22.546,48.2092,109.1518],[22.5365,48.2116,108.9995],[22.536,48.2144,109.9368],[22.5302,48.2139,109.324],[22.5269,48.216,109.6898],[22.5247,48.2254,108.6956],[22.5157,48.2252,108.9106],[22.5146,48.2306,118.1495],[22.5224,48.2373,124.5021],[22.5034,48.2417,107.106],[22.5027,48.2455,108.0122],[22.5043,48.2466,108.0122],[22.5024,48.25,107.3733],[22.4914,48.2578,111.8021],[22.4858,48.2571,137.7008],[22.4806,48.2518,189.4382],[22.4739,48.2512,213.0766],[22.4736,48.2466,165.9317],[22.4634,48.2459,120.7795],[22.4536,48.2468,107.0606],[22.4504,48.2501,108.1827],[22.4428,48.2533,106.254],[22.4262,48.2528,106.3517],[22.434,48.2482,107.2873],[22.4232,48.2495,106.4866],[22.418,48.2529,105.697],[22.3964,48.2514,105.3171],[22.3919,48.2477,105.6341],[22.3833,48.2457,106.1247],[22.3732,48.2389,106.1389],[22.3654,48.2475,106.1224],[22.3557,48.2525,106.315],[22.3558,48.2646,117.0712],[22.348,48.2686,119.357],[22.3393,48.2793,111.0291],[22.3398,48.2844,114.0729],[22.3369,48.2903,110.6474],[22.340699999999998,48.2997,105.2274],[22.3394,48.3054,105.8753],[22.3339,48.3091,104.7599],[22.3336,48.3113,105.0837],[22.3277,48.3106,104.6405],[22.3248,48.312,104.7491],[22.3242,48.3165,104.656],[22.3192,48.3159,105.2506],[22.3147,48.3221,104.8806],[22.3131,48.3338,103.7834],[22.3206,48.341,103.827],[22.3179,48.3594,103.854],[22.3167,48.3593,103.0415],[22.3176,48.3632,103.5488],[22.3146,48.3641,103.4196],[22.3087,48.3602,103.3888],[22.3022,48.3609,103.3289],[22.298,48.3578,103.4472],[22.2923,48.3586,103.5586],[22.2916,48.3631,103.2383],[22.283,48.362,103.7746],[22.2639,48.3717,105.5836],[22.2631,48.3781,104.8755],[22.2535,48.3829,104.4369],[22.2527,48.3893,109.7588],[22.2439,48.3878,111.1887],[22.2431,48.3941,106.7866],[22.2607,48.3971,98.3741],[22.2599,48.4034,105.45],[22.2687,48.4049,104.4794],[22.2669,48.4171,103.338],[22.2405,48.4129,105.1287],[22.2395,48.4186,103.6985],[22.2308,48.4172,104.1832],[22.2198,48.4273,105.4491],[22.2023,48.4245,101.1103],[22.1947,48.4173,105.675],[22.1612,48.4119,100.3317],[22.16,48.4102,105.7869],[22.1608,48.4059,103.3953],[22.1573,48.4054,103.6124],[22.1568,48.401,105.2983],[22.136,48.3934,96.0],[22.1422,48.3842,103.6577],[22.1274,48.3826,102.9563],[22.122,48.3797,97.9762],[22.1306,48.3756,103.2974],[22.1349,48.3717,102.3294],[22.1372,48.3669,101.8653],[22.135,48.3622,102.7073],[22.1059,48.3498,106.8297],[22.0899,48.3353,104.4264],[22.0641,48.3251,100.1217],[22.0518,48.315,100.4851],[22.04,48.3092,103.2971],[22.0332,48.3085,102.1557],[22.0184,48.3118,104.6258],[21.9941,48.3126,98.0514],[21.9686,48.3043,97.4093],[21.9573,48.2978,96.824],[21.9403,48.2786,98.3606],[21.9228,48.2685,97.3525],[21.9142,48.2575,97.6553],[21.9049,48.2512,98.2577],[21.8825,48.2551,98.2786],[21.8713,48.2481,97.6166],[21.8567,48.2477,97.3848],[21.8451,48.2437,97.3221],[21.8189,48.245,97.2231],[21.7854,48.2256,95.4144],[21.7753,48.2171,95.3481],[21.7612,48.2088,95.2112],[21.7553,48.208,96.4997],[21.7454,48.2103,96.5776],[21.734,48.21,95.7593],[21.6885,48.1987,93.8389],[21.6144,48.1993,97.1572],[21.5969,48.2028,95.9803],[21.587,48.207,95.0832],[21.5675,48.2083,96.6517],[21.5451,48.1956,95.575],[21.528,48.1928,96.2037],[21.5194,48.182,98.8128],[21.5104,48.1751,96.6548],[21.4917,48.1755,98.4885],[21.4741,48.1682,100.7377],[21.4423,48.1628,97.5014],[21.4283,48.1438,94.8719],[21.4255,48.1233,100.0214],[21.4172,48.1122,94.4184],[21.422,48.105,95.6644],[21.4387,48.0928,96.2452],[21.4402,48.0818,95.5917],[21.446,48.0756,98.3199],[21.4467,48.0728,102.2418],[21.4448,48.07,100.8519],[21.4342,48.0643,98.0981],[21.4308,48.0485,94.9767],[21.4078,48.0337,103.0776],[21.3828,48.0332,102.475],[21.3757,48.0288,95.6685],[21.3658,48.031,95.3793],[21.3518,48.0313,108.2957],[21.3379,48.0249,98.5752],[21.3324,48.0244,94.6657],[21.2974,48.0359,104.879],[21.2837,48.0376,95.8038],[21.2729,48.0408,96.508],[21.2685,48.0495,110.8692],[21.2687,48.0574,117.6964],[21.2422,48.0529,101.3357],[21.2324,48.0484,95.6563],[21.2289,48.044,93.6465],[21.2341,48.0349,100.3524],[21.234,48.0326,98.7491],[21.2226,48.0292,107.6722],[21.2069,48.0303,97.1201],[21.1916,48.0367,91.6944],[21.1794,48.0384,117.792],[21.1735,48.0431,92.2948],[21.1708,48.0484,91.9119],[21.1671,48.0499,92.1155],[21.1303,48.0474,91.4267],[21.1225,48.0439,91.7132],[21.1063,48.025,92.4025],[21.0982,48.0198,91.622],[21.0834,48.0013,92.3667],[21.0835,47.9965,92.376],[21.0872,47.9902,91.7116],[21.107,47.9742,91.1986],[21.1153,47.9587,92.5366],[21.1296,47.9591,98.1837],[21.1561,47.9662,89.8809],[21.1826,47.9661,90.6231],[21.1992,47.9603,97.1323],[21.2188,47.9499,98.231],[21.2285,47.9428,100.7222],[21.2353,47.935,100.2381],[21.2487,47.9291,93.4214],[21.2559,47.921,91.0707],[21.2692,47.9178,91.6949],[21.2808,47.9117,91.7479],[21.2935,47.9135,91.9439],[21.3088,47.9198,92.3812],[21.3295,47.9239,97.6354],[21.3888,47.9219,93.7785],[21.4235,47.9302,98.0483],[21.4395,47.9304,98.3121],[21.4548,47.9278,103.5431],[21.4714,47.9284,101.4897],[21.5043,47.9353,103.7447],[21.5192,47.9443,106.143],[21.5289,47.9435,107.992],[21.5531,47.9378,112.2817],[21.5565,47.9357,115.6251],[21.5581,47.9319,112.2668],[21.555,47.9245,116.7137],[21.5544,47.9082,113.0594],[21.5511,47.8992,114.3077],[21.5526,47.8958,109.5409],[21.5616,47.8878,113.0847],[21.5626,47.8791,113.2309],[21.554,47.856,116.0463],[21.5523,47.8338,120.1025],[21.5442,47.824,117.802],[21.5436,47.8081,117.2102],[21.5506,47.7965,117.133],[21.5559,47.7921,117.3248],[21.5869,47.7815,123.2131],[21.6042,47.7724,125.1195],[21.6254,47.7399,131.9404],[21.6412,47.7341,140.5765],[21.6621,47.7308,136.3755],[21.6681,47.732,134.8536],[21.6816,47.7391,131.83],[21.6986,47.7393,131.1889],[21.7051,47.7336,143.8792],[21.709,47.7261,140.7257],[21.7098,47.7194,137.4563],[21.715,47.7138,144.6764],[21.7643,47.7125,144.0482],[21.7658,47.7069,146.5606],[21.7644,47.7006,145.5098],[21.7612,47.6962,145.3902],[21.7624,47.6935,146.9139],[21.7925,47.6927,146.9313],[21.7948,47.6915,145.4799],[21.7994,47.6833,153.6103],[21.8034,47.6815,148.4787],[21.8474,47.6811,152.8828],[21.8535,47.6818,159.8175],[21.8585,47.6843,160.6038],[21.866,47.6934,150.7877],[21.8781,47.703,156.6076],[21.8831,47.7126,152.0215],[21.8831,47.731,154.0292],[21.8852,47.7351,145.9529],[21.9071,47.7426,148.1793],[21.9293,47.7432,148.16],[21.9607,47.7262,153.7575],[21.993,47.7179,162.4234],[21.9952,47.7059,167.3717],[21.9922,47.6985,166.417],[21.9927,47.6946,162.8287],[22.0087,47.6866,158.0832],[22.0157,47.6799,163.7586],[22.0234,47.6472,158.0276],[22.0409,47.6385,153.1043],[22.0513,47.6384,157.8198],[22.0574,47.6412,163.6392],[22.0624,47.6494,159.9776],[22.0801,47.67,156.1522],[22.082,47.676,159.2826],[22.0847,47.6781,159.9725],[22.0901,47.6782,159.064],[22.1137,47.6697,151.0175],[22.1301,47.6457,152.4223],[22.1301,47.6379,146.6399],[22.1325,47.6312,149.2767],[22.1296,47.6038,140.6398]]]]}
,"properties": {"GID_1": "HUN.16_1","GID_0": "HUN","country": "Hungary","province": "Szabolcs-Szatmár-Bereg","VARNAME_1": "Szabolcs-Szatmár","NL_NAME_1": "NA","TYPE_1": "Megye","ENGTYPE_1": "County","CC_1": "NA","HASC_1": "HU.SZ","ISO_1": "NA","name": "Szabolcs-Szatmár-Bereg.province","area_km2": 5931.47,"hist_schema_id": "Elevation0-9000","hist_area_km2": {"75": 0.341,"100": 2745.602,"125": 2200.265,"150": 936.773,"175": 47.953,"200": 0.409,"225": 0.127}}}