{"type":"Feature","properties":{"GID_2":"HUN.15.6_1","GID_0":"HUN","country":"Hungary","GID_1":"HUN.15_1","province":"Somogy","NL_NAME_1":"NA","county":"Lengyeltóti","VARNAME_2":"NA","NL_NAME_2":"NA","TYPE_2":"Kistérség","ENGTYPE_2":"Subregion","CC_2":"NA","HASC_2":"NA","name":"Lengyeltóti.county"},
"geometry":{"type": "MultiPolygon","coordinates": [[[[17.5269,46.7256,110.4013],[17.5274,46.7072,102.6557],[17.5315,46.6972,103.3052],[17.5324,46.6765,108.1956],[17.5378,46.6631,114.0838],[17.5525,46.6513,115.6173],[17.5539,46.6202,131.9941],[17.5586,46.618,137.6129],[17.58,46.6183,156.0885],[17.5853,46.6159,144.5977],[17.5876,46.6052,151.4239],[17.595,46.5961,153.6115],[17.5956,46.5819,151.5421],[17.5994,46.5734,158.8675],[17.6002,46.5577,168.3696],[17.611,46.5422,171.354],[17.614,46.5343,163.8722],[17.6271,46.5304,156.3679],[17.6358,46.5344,155.5396],[17.6346,46.5407,134.3578],[17.6402,46.5437,151.0536],[17.6436,46.5519,157.1089],[17.6485,46.5531,157.6121],[17.6616,46.5516,152.931],[17.6757,46.5592,151.4192],[17.6993,46.5596,188.3883],[17.7019,46.5588,199.515],[17.7064,46.5526,211.4779],[17.7122,46.5512,191.764],[17.7232,46.5513,180.3735],[17.7275,46.5529,205.4966],[17.7293,46.5689,213.4679],[17.7349,46.5729,192.9668],[17.743,46.5752,176.1512],[17.7446,46.582,180.9146],[17.7437,46.5927,211.5922],[17.7405,46.5979,213.9205],[17.7394,46.6069,229.591],[17.7361,46.6128,205.0789],[17.7377,46.6198,218.941],[17.7321,46.6262,237.9553],[17.7375,46.634,276.5422],[17.7349,46.6465,269.3624],[17.7319,46.6499,270.726],[17.7192,46.6555,199.1083],[17.722,46.6589,240.9799],[17.7376,46.6634,250.757],[17.7391,46.6665,262.748],[17.7383,46.6886,208.5834],[17.731,46.7002,240.5314],[17.7336,46.7093,266.4415],[17.7242,46.7224,207.7575],[17.7156,46.7267,267.9839],[17.709,46.7324,253.9409],[17.6967,46.734,173.6424],[17.6764,46.7416,138.5425],[17.6682,46.7395,115.0835],[17.6586,46.7308,136.8904],[17.6373,46.7245,143.7799],[17.6306,46.7247,132.6566],[17.6186,46.7357,114.7145],[17.617,46.7451,106.1571],[17.6122,46.7579,102.9384],[17.6085,46.7652,108.617],[17.6054,46.7661,103.5],[17.6014,46.764,103.5],[17.6003,46.7598,103.4458],[17.6011,46.749,103.5522],[17.605,46.7407,103.6903],[17.6052,46.7292,109.7605],[17.5949,46.7153,112.7334],[17.5881,46.7126,110.827],[17.5828,46.7129,109.3776],[17.5754,46.7228,103.2913],[17.5628,46.726,104.2561],[17.5269,46.7256,110.4013]]]]}}