{"type": "Feature","bbox": [18.8681,47.0376,19.1826,47.4015],"geometry": {"type": "MultiPolygon","coordinates": [[[[19.1826,47.0866,94.8164],[19.1801,47.1097,94.9054],[19.174,47.117,94.9966],[19.1632,47.125,95.4848],[19.1568,47.1337,94.5086],[19.1561,47.1445,95.1459],[19.1628,47.1583,95.0907],[19.1621,47.1632,94.9173],[19.1537,47.1722,94.9421],[19.1408,47.1781,95.0924],[19.1289,47.1858,95.0898],[19.118,47.2009,95.675299999999993],[19.0943,47.2168,96.4668],[19.0938,47.2192,100.4922],[19.0961,47.2229,96.213],[19.1072,47.2353,99.1097],[19.1074,47.2435,95.6553],[19.1042,47.2484,97.4917],[19.0871,47.2593,101.3082],[19.0835,47.2638,98.3105],[19.0849,47.2683,98.6901],[19.0981,47.2735,99.6715],[19.1036,47.2807,96.4861],[19.1253,47.2848,97.9137],[19.1333,47.2884,97.6039],[19.1335,47.2915,98.3147],[19.1293,47.2977,98.3903],[19.1282,47.3038,97.4628],[19.1288,47.3075,99.2698],[19.1355,47.3189,100.1858],[19.1338,47.3478,105.8003],[19.1071,47.3655,108.3307],[19.0943,47.3716,101.2597],[19.0896,47.3781,100.6159],[19.0882,47.386,101.2429],[19.0838,47.3928,97.9147],[19.0761,47.3991,101.1149],[19.0705,47.4015,101.4919],[19.0346,47.3895,102.7278],[19.0146,47.3858,107.3407],[18.9944,47.3849,104.0774],[18.9745,47.381,97.0],[18.9449,47.3695,97.4384],[18.9363,47.3561,110.2865],[18.9379,47.3277,106.1666],[18.928,47.3187,100.3802],[18.9205,47.3075,101.0274],[18.9116,47.2849,129.3191],[18.9055,47.2754,150.3713],[18.9018,47.2618,135.5802],[18.9029,47.2421,101.6641],[18.899,47.2286,100.3055],[18.894,47.2214,99.7045],[18.8697,47.204,97.273],[18.8681,47.1999,97.2621],[18.8694,47.1661,101.9851],[18.875,47.1568,95.5],[18.8768,47.148,95.5],[18.8809,47.1412,125.525],[18.8846,47.0978,96.8718],[18.8953,47.0808,94.5],[18.9007,47.076,98.1019],[18.9126,47.0719,105.2569],[18.9213,47.0671,112.707],[18.9375,47.053,94.0],[18.9708,47.0376,102.8712],[18.9691,47.0585,104.8196],[18.9704,47.0609,96.7185],[18.9742,47.0619,96.4857],[19.0073,47.06,96.9965],[19.0286,47.0511,96.5385],[19.0775,47.0396,96.5418],[19.1101,47.0443,94.3048],[19.1115,47.0468,94.2291],[19.1101,47.0595,94.7793],[19.1115,47.0628,94.3081],[19.1472,47.063,95.4763],[19.1531,47.0659,94.8859],[19.1547,47.0751,94.9761],[19.1693,47.0763,94.8239],[19.1826,47.0866,94.8164]]]]}
,"properties": {"GID_2": "HUN.14.11_1","GID_0": "HUN","country": "Hungary","GID_1": "HUN.14_1","province": "Pest","NL_NAME_1": "NA","county": "Ráckeve","VARNAME_2": "Ráckevei","NL_NAME_2": "NA","TYPE_2": "Kistérség","ENGTYPE_2": "Subregion","CC_2": "NA","HASC_2": "NA","name": "Ráckeve.county","area_km2": 647.4391,"hist_schema_id": "Elevation0-9000","hist_area_km2": {"100": 633.8532,"125": 10.7677,"150": 2.6027,"175": 0.2155}}}