{"type":"Feature","properties":{"ISO3166-1-Alpha-3":"HUN","country":"Hungary","fill":"#F0F","id":"4918","name":"Szolnok"},
"geometry":{"type": "Polygon","coordinates": [[[20.22085,47.09845,88.3841],[20.27147,47.10351,88.2488],[20.30185,47.11869,87.6025],[20.30438,47.1516,88.0526],[20.26894,47.16172,83.1405],[20.24871,47.19054,83.0761],[20.27971,47.20637,84.4299],[20.28736,47.21902,84.2649],[20.26135,47.25284,86.6136],[20.19301,47.29081,85.7171],[20.13226,47.34143,86.0891],[20.06139,47.28575,87.8498],[20.02238,47.24913,88.3727],[20.04749,47.23717,89.2874],[20.08294,47.19746,87.6151],[20.05638,47.15195,88.646],[20.11454,47.14401,87.4289],[20.16448,47.11835,84.5195],[20.17799,47.11518,88.7998],[20.19353,47.10932,78.5],[20.22085,47.09845,88.3841]]]}}