{"type": "Feature","bbox": [19.994,46.959,20.5239,47.4422],"geometry": {"type": "MultiPolygon","coordinates": [[[[20.1281,46.9593,87.5957],[20.1431,46.959,81.5058],[20.1482,46.9606,83.219],[20.1501,46.9829,82.9361],[20.1559,46.996,81.3549],[20.1893,47.005,82.7214],[20.2126,47.0057,89.4866],[20.2166,47.0083,86.8568],[20.2227,47.0169,83.0669],[20.2263,47.0188,84.0112],[20.2309,47.0186,87.2786],[20.2513,47.011,84.2301],[20.2914,47.0036,87.732],[20.2991,46.9973,85.7814],[20.3021,46.9966,87.3908],[20.3182,47.001,86.1958],[20.3331,46.9984,85.8234],[20.3381,47.0036,86.3166],[20.3439,47.0136,85.4626],[20.3467,47.0147,86.2623],[20.3554,47.0137,89.3613],[20.3625,47.0231,85.2201],[20.3498,47.0278,85.8052],[20.338,47.0458,86.549],[20.3292,47.0518,87.077],[20.3165,47.0569,88.6844],[20.31,47.0638,86.2371],[20.2905,47.0655,82.0],[20.279,47.0733,87.7616],[20.2737,47.0872,89.6842],[20.2746,47.0931,88.113],[20.2778,47.0986,84.7205],[20.2786,47.1081,98.8002],[20.2809,47.1108,93.5559],[20.2897,47.1121,83.0323],[20.2911,47.1143,82.9309],[20.2875,47.1231,86.0937],[20.2872,47.1422,85.7262],[20.2772,47.1548,84.782],[20.27,47.1575,83.6636],[20.2541,47.1591,83.736],[20.2443,47.1618,84.1138],[20.2426,47.1639,91.6384],[20.246,47.1717,84.3699],[20.2476,47.181399999999996,85.3059],[20.2552,47.1875,84.9622],[20.2606,47.1894,85.1896],[20.2758,47.1873,88.4128],[20.2883,47.1912,90.108],[20.2925,47.1988,92.2046],[20.2936,47.21,80.5488],[20.2966,47.2166,85.9356],[20.2894,47.2293,84.3925],[20.2891,47.2424,86.9379],[20.2907,47.2462,85.3931],[20.2983,47.2468,84.5196],[20.3076,47.2412,86.9289],[20.3169,47.2412,86.6856],[20.3279,47.2494,89.7866],[20.3382,47.254,89.8467],[20.3467,47.2645,87.9311],[20.352,47.2659,87.8643],[20.3638,47.2633,97.7725],[20.3822,47.2622,85.4191],[20.386,47.2594,82.2352],[20.3874,47.2526,85.7327],[20.3913,47.2512,86.4661],[20.3972,47.2527,82.4818],[20.4056,47.2609,90.0212],[20.4132,47.2616,93.8987],[20.4255,47.2545,88.4088],[20.4408,47.2529,89.7484],[20.4423,47.2499,85.4076],[20.4422,47.2386,89.3864],[20.4479,47.2363,85.7222],[20.4577,47.2375,84.7875],[20.4608,47.2432,82.6898],[20.4654,47.2475,84.4078],[20.4795,47.2462,85.3586],[20.4897,47.256,82.8768],[20.5146,47.2535,84.3746],[20.5208,47.2539,89.1299],[20.5236,47.2557,87.8766],[20.5239,47.2608,88.6232],[20.5192,47.2648,89.0291],[20.5001,47.2707,85.7911],[20.4811,47.2687,84.5522],[20.4708,47.2747,89.1602],[20.4711,47.2781,90.2728],[20.4775,47.2804,84.6384],[20.479,47.2828,85.7582],[20.4665,47.2867,80.0],[20.464,47.2916,86.8975],[20.4763,47.3082,80.0],[20.4765,47.3135,81.9016],[20.4709,47.3189,83.9436],[20.4499,47.3206,85.8971],[20.443,47.3267,86.2374],[20.4436,47.3307,89.8009],[20.4492,47.335,84.4786],[20.4689,47.3377,85.7863],[20.4685,47.3481,90.7998],[20.461,47.3529,88.7254],[20.4603,47.3639,87.2819],[20.458,47.3662,89.5071],[20.4549,47.3664,87.3884],[20.4465,47.3599,89.4717],[20.4425,47.3603,80.5],[20.4396,47.3625,93.7458],[20.4394,47.3858,86.2681],[20.4369,47.3903,89.6198],[20.4238,47.3935,84.4654],[20.3811,47.3946,83.7922],[20.3747,47.3966,87.3551],[20.3708,47.4017,87.6657],[20.3701,47.4088,86.7631],[20.3708,47.4143,92.0626],[20.3751,47.4234,86.8039],[20.374,47.4322,87.6915],[20.3722,47.4366,87.0008],[20.3673,47.4408,88.108],[20.3313,47.4422,85.4736],[20.325,47.4308,85.458],[20.3202,47.4272,86.5589],[20.3046,47.4251,85.333],[20.2929,47.4158,85.9749],[20.276,47.414,85.3407],[20.2752,47.399,86.1732],[20.2682,47.3923,85.9581],[20.2651,47.3868,85.6966],[20.276,47.371,87.0409],[20.2771,47.3598,86.3953],[20.28,47.3517,86.4571],[20.2734,47.3393,93.1167],[20.2719,47.3318,86.4446],[20.268,47.3261,86.1921],[20.2619,47.3187,86.3514],[20.2501,47.3109,85.8033],[20.2459,47.3106,85.997],[20.2347,47.3148,86.5822],[20.2276,47.3156,86.6832],[20.195,47.3117,86.4087],[20.1905,47.3183,86.1712],[20.1843,47.3224,86.6924],[20.1673,47.3287,85.5465],[20.1555,47.3304,85.2761],[20.1337,47.3372,86.7183],[20.1207,47.3539,86.9381],[20.1158,47.356,88.0983],[20.1134,47.3547,86.7555],[20.107,47.3453,87.7349],[20.0944,47.3387,87.5986],[20.0881,47.3296,87.9114],[20.0845,47.327,87.4388],[20.0756,47.3245,88.0585],[20.0661,47.3269,87.8756],[20.0551,47.3274,88.1289],[20.0455,47.3253,87.7618],[20.0286,47.3251,88.1247],[20.0243,47.3234,87.729],[20.0154,47.3156,87.7498],[20.0145,47.3111,87.9562],[19.9988,47.2885,89.5589],[20.0007,47.2845,89.6265],[20.0009,47.2789,94.4263],[19.994,47.2671,88.1476],[19.9988,47.2597,88.0923],[20.0033,47.2575,93.0523],[20.0306,47.2523,89.0913],[20.0564,47.2386,88.4033],[20.0842,47.2173,88.3645],[20.0941,47.2027,88.9168],[20.0942,47.1876,88.0578],[20.0855,47.1747,87.8682],[20.0618,47.1606,88.6281],[20.0539,47.1513,88.9705],[20.0529,47.1272,88.1924],[20.0561,47.1202,86.4503],[20.057,47.1109,87.2702],[20.0611,47.1012,87.709],[20.0988,47.0428,88.4233],[20.0979,47.0241,86.1825],[20.0816,47.0138,86.4901],[20.1145,47.0023,85.4482],[20.1273,46.993,86.2681],[20.1278,46.9902,84.434],[20.1222,46.9824,83.5162],[20.1215,46.979,83.1405],[20.1284,46.9671,84.284],[20.1281,46.9593,87.5957]]]]}
,"properties": {"GID_2": "HUN.11.5_1","GID_0": "HUN","country": "Hungary","GID_1": "HUN.11_1","province": "Jász-Nagykun-Szolnok","NL_NAME_1": "NA","county": "Szolnok","VARNAME_2": "Szolnoki","NL_NAME_2": "NA","TYPE_2": "Kistérség","ENGTYPE_2": "Subregion","CC_2": "NA","HASC_2": "NA","name": "Szolnok.county","area_km2": 889.9512,"hist_schema_id": "Elevation0-9000","hist_area_km2": {"75": 669.5035,"100": 220.419,"125": 0.0288}}}