{"type":"Feature","properties":{"GID_2":"HUN.2.6_1","GID_0":"HUN","country":"Hungary","GID_1":"HUN.2_1","province":"Baranya","NL_NAME_1":"NA","county":"Sellyei","VARNAME_2":"NA","NL_NAME_2":"NA","TYPE_2":"Kistérség","ENGTYPE_2":"Subregion","CC_2":"NA","HASC_2":"NA","name":"Sellyei.county"},
"geometry":{"type": "MultiPolygon","coordinates": [[[[18.0159,45.7802,94.5605],[18.0345,45.7754,95.6038],[18.0588,45.7729,98.3883],[18.0471,45.7869,95.3481],[18.045,45.7987,93.5178],[18.0406,45.8044,104.2236],[18.0341,45.8092,98.01],[18.0338,45.8197,94.5992],[18.0351,45.8242,95.0106],[18.0415,45.8306,96.2393],[18.0449,45.8383,96.3128],[18.0583,45.8366,97.2677],[18.0667,45.8396,94.2723],[18.0749,45.852,112.2547],[18.0927,45.8632,96.7742],[18.0934,45.8681,96.9365],[18.0896,45.8757,106.3004],[18.0916,45.8814,101.9423],[18.0946,45.8843,109.855],[18.0985,45.8851,103.9079],[18.1135,45.8831,103.1261],[18.1189,45.8964,151.6257],[18.1177,45.8997,105.5178],[18.1142,45.9018,109.1278],[18.0965,45.9037,101.6009],[18.0941,45.9057,102.057],[18.093,45.9095,105.9485],[18.0937,45.9132,104.0648],[18.0966,45.9159,106.4326],[18.1134,45.9206,115.6494],[18.117,45.9272,120.9444],[18.1161,45.9299,121.9332],[18.1101,45.9316,123.0296],[18.1022,45.9304,116.7218],[18.0867,45.934,126.3267],[18.0848,45.9321,128.3426],[18.0844,45.9235,115.3318],[18.0806,45.9214,115.528],[18.0558,45.9297,111.3399],[18.0377,45.9487,115.4844],[18.0276,45.955,114.4498],[18.024,45.9623,126.959],[18.0156,45.9711,106.5125],[18.0112,45.9734,110.4054],[18.0084,45.9739,111.4798],[18.0005,45.9705,108.1459],[17.9939,45.964,117.9262],[17.9889,45.9628,105.7644],[17.9794,45.9704,107.0254],[17.9669,45.9743,106.8162],[17.9568,45.9827,113.9047],[17.9484,45.9813,104.9384],[17.9461,45.979,105.0596],[17.95,45.9696,105.888],[17.9501,45.9622,105.5291],[17.9486,45.9589,104.4867],[17.9402,45.9528,103.0901],[17.9254,45.9473,101.8201],[17.9145,45.9404,100.1645],[17.914,45.9326,99.9909],[17.9104,45.9305,100.2615],[17.9061,45.932,100.2784],[17.9044,45.9393,99.9517],[17.8958,45.9411,105.3115],[17.8907,45.9505,100.8549],[17.8806,45.9551,100.728],[17.879,45.9639,98.5],[17.8804,45.9728,99.68],[17.872,45.9758,101.2473],[17.8581,45.9758,102.2264],[17.8543,45.9716,112.8069],[17.8582,45.9639,100.9171],[17.8584,45.954,100.9998],[17.8526,45.9492,101.3052],[17.85,45.9439,100.2204],[17.843,45.9405,116.6132],[17.8322,45.9404,119.2655],[17.8091,45.949,101.6057],[17.8018,45.9497,100.4796],[17.7973,45.9474,101.0875],[17.7983,45.9346,100.8138],[17.7955,45.9312,101.1645],[17.7792,45.9305,101.6017],[17.7651,45.926,100.1811],[17.7493,45.9315,100.2266],[17.7425,45.9362,102.4689],[17.7262,45.9319,101.2074],[17.7202,45.9284,119.971],[17.7303,45.9146,119.2101],[17.7345,45.8866,101.9245],[17.7316,45.881,106.4065],[17.7123,45.8698,107.7878],[17.6981,45.8713,120.2405],[17.688,45.8707,100.1809],[17.6644,45.8602,101.5028],[17.6471,45.8561,99.1074],[17.6493,45.8525,98.3728],[17.6664,45.8425,115.9144],[17.6874,45.8432,99.6973],[17.7288,45.8365,98.6038],[17.7398,45.8278,108.1096],[17.7526,45.8224,100.7825],[17.7603,45.8235,104.3611],[17.7733,45.8218,108.3328],[17.7889,45.8144,96.0],[17.8173,45.812,110.86279999999999],[17.8426,45.7872,109.6414],[17.8585,45.7741,98.1342],[17.8718,45.7761,94.5],[17.8756,45.7846,100.0701],[17.8944,45.795,94.9872],[17.9089,45.7921,102.5809],[17.9487,45.7965,107.6769],[17.9605,45.7954,106.0184],[17.9888,45.8019,97.1077],[18.0051,45.784,94.4518],[18.0159,45.7802,94.5605]]]]}}