{"type":"Feature","properties":{"ISO3166-1-Alpha-3":"HUN","country":"Hungary","fill":"#F0F","id":"4913","name":"Pécs"},
"geometry":{"type": "Polygon","coordinates": [[[18.36151,46.05661,151.7695],[18.37049,46.06858,152.1923],[18.35553,46.10748,221.1317],[18.31961,46.17033,443.2886],[18.27772,46.15237,388.5892],[18.23882,46.15836,251.2829],[18.19692,46.16135,320.0476],[18.15644,46.14144,186.5341],[18.13549,46.12349,361.7507],[18.1251,46.08354,248.1583],[18.14305,46.06259,138.4682],[18.12809,46.03865,131.3461],[18.16101,46.02369,142.8307],[18.19991,45.99676,197.305],[18.23582,45.98479,192.2961],[18.26276,45.99676,176.1517],[18.28071,46.0177,183.3464],[18.29268,46.04164,163.8139],[18.31064,46.06259,194.8409],[18.32859,46.06259,204.1688],[18.36151,46.05661,151.7695]]]}}