{"type": "Feature","bbox": [18.0084,45.9199,18.4006,46.2071],"geometry": {"type": "MultiPolygon","coordinates": [[[[18.0812,46.2071,165.316],[18.0805,46.2015,144.1466],[18.0766,46.1958,234.2968],[18.0649,46.1842,217.8352],[18.0642,46.1758,251.3202],[18.0545,46.1706,199.2142],[18.0528,46.1669,258.1756],[18.0585,46.1577,186.7188],[18.0695,46.1488,213.2526],[18.078,46.1379,227.677],[18.0781,46.1355,215.1174],[18.0654,46.1322,235.2839],[18.055,46.1341,198.9511],[18.0354,46.1324,235.2415],[18.0326,46.1299,187.9838],[18.0401,46.125,185.0379],[18.0429,46.1184,273.98],[18.0562,46.1126,296.0243],[18.0628,46.1044,316.5199],[18.0633,46.0923,280.5392],[18.0561,46.0839,234.7259],[18.056,46.0726,188.9231],[18.0708,46.0546,130.5629],[18.0737,46.0535,130.6404],[18.089,46.0548,134.0745],[18.1083,46.0516,124.6573],[18.1181,46.0585,127.9085],[18.1235,46.06,131.0495],[18.1293,46.0592,128.7657],[18.1317,46.056,118.2674],[18.1286,46.0522,113.786],[18.1181,46.0467,112.6538],[18.1128,46.0416,113.682],[18.1119,46.0325,114.0029],[18.1087,46.0251,114.1424],[18.1128,46.016,113.4159],[18.113,46.0039,147.6626],[18.1039,45.9908,191.1019],[18.0921,45.9849,212.8609],[18.0751,45.9807,164.8099],[18.0617,45.9735,151.5423],[18.0456,45.9742,140.073],[18.0354,45.9782,120.9448],[18.028,45.9846,109.6487],[18.0236,45.9857,112.6581],[18.0152,45.9845,116.5396],[18.0095,45.9772,111.9651],[18.0084,45.9739,111.4798],[18.0156,45.9711,106.5125],[18.024,45.9623,126.959],[18.0276,45.955,114.4498],[18.0444,45.9426,121.7116],[18.0543,45.9305,112.832],[18.0806,45.9214,115.528],[18.0844,45.9235,115.3318],[18.0848,45.9321,128.3426],[18.0867,45.934,126.3267],[18.1022,45.9304,116.7218],[18.1022,45.9423,127.854],[18.1099,45.9519,132.838],[18.1037,45.9522,131.2885],[18.1019,45.9545,132.922],[18.1042,45.9569,136.8014],[18.1078,45.9575,137.5753],[18.1255,45.9508,132.5151],[18.128,45.9403,127.4457],[18.1368,45.9278,120.4291],[18.1412,45.9231,118.575],[18.1502,45.9199,122.9013],[18.1554,45.9208,127.9822],[18.1737,45.9323,151.3716],[18.1859,45.931399999999996,145.8268],[18.1883,45.942,147.8271],[18.196,45.9447,149.9874],[18.2144,45.9432,166.8957],[18.2211,45.94,179.6087],[18.2274,45.9304,162.7943],[18.2421,45.9276,173.8815],[18.2457,45.9287,171.208],[18.2553,45.9369,150.4344],[18.2756,45.9404,167.3498],[18.2792,45.938,158.665],[18.2778,45.9335,162.0152],[18.2794,45.9306,153.4597],[18.2888,45.9268,153.2877],[18.2944,45.9263,148.7866],[18.3048,45.9327,139.885],[18.3064,45.9407,137.6262],[18.3083,45.9428,129.5634],[18.3299,45.9444,161.3521],[18.3328,45.9522,164.8906],[18.3427,45.9603,154.1179],[18.3433,45.9656,164.732],[18.3333,45.9824,184.3821],[18.3341,45.9851,186.088],[18.3418,45.9867,170.9646],[18.3551,45.9841,139.6996],[18.3592,45.9864,163.0474],[18.361,45.9908,174.0615],[18.363,45.9917,175.7473],[18.3674,45.9903,176.5193],[18.3729,45.9838,163.1778],[18.377,45.9838,145.9668],[18.3885,45.9881,168.7817],[18.3973,46.0049,189.1257],[18.3975,46.0118,156.6962],[18.3926,46.0175,169.9572],[18.3809,46.0192,182.0759],[18.3749,46.023,200.8369],[18.3731,46.0271,209.5213],[18.3732,46.0353,180.2625],[18.3757,46.0401,138.0821],[18.3811,46.0433,144.1145],[18.3959,46.0438,167.0841],[18.4006,46.0506,181.7036],[18.3941,46.0581,177.6848],[18.3934,46.0623,181.4088],[18.3866,46.0692,191.0719],[18.38,46.0698,186.2064],[18.3709,46.0672,163.1886],[18.3661,46.0684,175.9866],[18.3645,46.0754,170.2981],[18.3592,46.0843,188.5312],[18.3635,46.0895,169.1996],[18.3629,46.0955,188.6169],[18.368,46.1019,167.6625],[18.3585,46.1076,215.1041],[18.3565,46.1156,203.9701],[18.3511,46.1209,231.2433],[18.3476,46.1337,241.9994],[18.3267,46.1579,322.0292],[18.3228,46.1592,301.6623],[18.3013,46.1571,337.6252],[18.2881,46.1511,371.4338],[18.2797,46.144,396.5614],[18.2462,46.1391,435.5673],[18.228,46.1394,380.6216],[18.2102,46.1449,313.9441],[18.1993,46.1405,345.5514],[18.1936,46.1403,369.0834],[18.1903,46.1442,366.7582],[18.1896,46.1648,317.9997],[18.1842,46.1704,342.0875],[18.1794,46.1723,317.2171],[18.1639,46.1737,241.4908],[18.157,46.1786,235.1426],[18.1247,46.1935,144.5338],[18.1098,46.1973,216.4011],[18.0962,46.1987,237.7403],[18.0877,46.2051,157.5634],[18.0812,46.2071,165.316]]]]}
,"properties": {"GID_2": "HUN.2.3_1","GID_0": "HUN","country": "Hungary","GID_1": "HUN.2_1","province": "Baranya","NL_NAME_1": "NA","county": "Pécs","VARNAME_2": "NA","NL_NAME_2": "NA","TYPE_2": "Kistérség","ENGTYPE_2": "Subregion","CC_2": "NA","HASC_2": "NA","name": "Pécs.county","area_km2": 578.2302,"hist_schema_id": "Elevation0-9000","hist_area_km2": {"100": 5.8302,"125": 70.6511,"150": 99.8777,"175": 121.8009,"200": 102.0334,"225": 42.9383,"250": 24.0674,"275": 19.8672,"300": 16.7682,"325": 15.7104,"350": 12.6679,"375": 11.3014,"400": 9.92,"425": 6.8637,"450": 5.6732,"475": 4.2624,"500": 3.3073,"525": 2.2491,"550": 1.3672,"575": 0.9556,"600": 0.1176}}}