{"type":"Feature","properties":{"ISO3166-1-Alpha-3":"HUN","country":"Hungary","fill":"#F0F","id":"4916","name":"Szeged"},
"geometry":{"type": "Polygon","coordinates": [[[20.1865,46.31582,80.1923],[20.16687,46.34134,79.2815],[20.14724,46.35508,81.1632],[20.1119,46.3276,79.0],[20.053,46.33545,87.0025],[20.01373,46.31778,86.4856],[20.0098,46.26477,86.3432],[20.0687,46.25299,88.767],[20.07852,46.22747,80.9922],[20.0687,46.21569,78.1729],[20.06341,46.1453,72.0],[20.08862,46.15413,81.1108],[20.09844,46.15496,81.5626],[20.11477,46.15222,82.102],[20.1276,46.1882,76.7329],[20.14135,46.19998,79.6076],[20.16491,46.19802,77.3516],[20.18847,46.17838,79.2767],[20.20614,46.15286,79.7097],[20.2297,46.15679,80.0494],[20.23166,46.17838,79.4157],[20.21203,46.19016,77.029],[20.19828,46.20783,82.6679],[20.19632,46.22354,80.8226],[20.20851,46.23884,78.3694],[20.24317,46.23399,81.1312],[20.27093,46.23532,86.2709],[20.26896,46.25888,77.5118],[20.24737,46.26281,77.0402],[20.22185,46.27566,78.7072],[20.22975,46.2899,78.0055],[20.22527,46.30305,77.6528],[20.21673,46.31684,78.5728],[20.1865,46.31582,80.1923]]]}}