{"type": "Feature","bbox": [19.9238,46.119,20.3566,46.4879],"geometry": {"type": "MultiPolygon","coordinates": [[[[20.1854,46.4879,81.9767],[20.1726,46.4829,78.3577],[20.17,46.4747,78.4951],[20.1642,46.4694,77.8263],[20.1463,46.4697,101.0149],[20.1241,46.4794,78.4096],[20.1036,46.4659,82.5857],[20.0976,46.4581,88.8622],[20.069,46.4563,85.7038],[20.0625,46.4473,83.8493],[20.07,46.4312,84.2974],[20.0701,46.4092,88.0317],[20.0688,46.406,88.754],[20.0369,46.3944,86.9082],[20.0158,46.3899,88.7753],[20.0026,46.3852,88.07],[19.9966,46.3863,86.6221],[19.9908,46.3918,87.7658],[19.9829,46.3901,88.2931],[19.9553,46.3754,91.6667],[19.9406,46.3589,97.7612],[19.9244,46.3526,92.4906],[19.9238,46.3482,92.7904],[19.9328,46.3391,91.5738],[19.9664,46.3128,88.6488],[19.9754,46.3028,91.064],[19.9624,46.2901,91.9044],[19.9519,46.2838,90.6975],[19.9513,46.2723,91.5468],[19.9575,46.2625,93.1421],[19.9572,46.2603,93.4235],[19.9361,46.2505,93.8377],[19.9296,46.2395,93.6759],[19.9293,46.2361,96.8783],[19.9314,46.2331,89.6979],[19.9488,46.2261,89.5849],[19.9504,46.2156,87.5905],[19.9538,46.2081,88.8631],[19.9528,46.2047,88.6295],[19.9485,46.1999,89.0318],[19.929,46.1901,90.3194],[19.9281,46.1821,88.6854],[19.9304,46.1748,90.101],[19.9344,46.1773,88.4143],[20.0199,46.1788,82.7709],[20.0251,46.1754,79.8467],[20.0267,46.1626,76.7234],[20.0297,46.1538,76.955],[20.0361,46.1481,79.0212],[20.0424,46.147,78.9263],[20.057,46.1512,77.1588],[20.0626,46.1506,78.0613],[20.0653,46.1483,77.0165],[20.086,46.1715,81.459],[20.0941,46.1781,91.1387],[20.1025,46.1803,81.1762],[20.1077,46.1763,80.0425],[20.1059,46.1741,79.4991],[20.1064,46.1674,76.6018],[20.1197,46.1582,76.4886],[20.1312,46.1541,77.2126],[20.1344,46.1499,79.5081],[20.1415,46.1468,77.4485],[20.1738,46.1565,78.545],[20.1813,46.1625,76.3207],[20.2089,46.146,80.0853],[20.2106,46.1377,79.3716],[20.2312,46.132,79.2753],[20.234,46.1261,78.6006],[20.2488,46.1328,79.4569],[20.2511,46.13,79.7269],[20.25,46.1229,78.7878],[20.2542,46.119,80.5178],[20.2608,46.1267,79.8231],[20.2655,46.1247,79.0656],[20.2669,46.1254,79.6039],[20.2659,46.1267,78.5133],[20.2718,46.1275,78.8942],[20.2733,46.1331,79.0182],[20.2771,46.1339,79.4085],[20.2847,46.1421,78.4785],[20.2985,46.1525,77.9793],[20.3008,46.1522,78.0602],[20.3109,46.1568,77.8502],[20.3142,46.1506,78.4151],[20.3566,46.1697,78.69],[20.3538,46.1732,78.5228],[20.3493,46.171,77.8943],[20.3427,46.1738,77.7873],[20.347,46.1823,78.2477],[20.3511,46.197,78.4947],[20.3507,46.2089,79.1751],[20.3463,46.2192,80.2018],[20.3416,46.2222,84.5708],[20.3284,46.2239,79.5129],[20.3263,46.2351,94.2301],[20.3201,46.2429,93.6093],[20.3137,46.2436,96.7627],[20.2986,46.241,96.4714],[20.294,46.2423,95.8848],[20.2914,46.2451,93.6604],[20.2918,46.2543,79.2855],[20.2982,46.2653,78.4382],[20.285,46.2827,77.1798],[20.2845,46.3019,76.8358],[20.2869,46.3054,77.7161],[20.3039,46.3096,77.5569],[20.3045,46.3124,77.6447],[20.3014,46.3187,77.3014],[20.2922,46.3232,78.1613],[20.2742,46.324,77.6368],[20.2601,46.3288,78.6308],[20.2451,46.3305,77.6025],[20.2266,46.3533,78.1445],[20.2099,46.3659,77.5456],[20.2041,46.3736,81.3107],[20.2031,46.4097,78.748],[20.1988,46.4112,88.048],[20.1845,46.4114,79.0856],[20.1795,46.4144,80.4798],[20.1791,46.4261,77.5829],[20.1869,46.4441,78.2628],[20.1881,46.4559,77.4285],[20.1963,46.4696,78.9577],[20.1952,46.4755,80.6308],[20.1854,46.4879,81.9767]]]]}
,"properties": {"GID_2": "HUN.6.6_1","GID_0": "HUN","country": "Hungary","GID_1": "HUN.6_1","province": "Csongrád","NL_NAME_1": "NA","county": "Szeged","VARNAME_2": "NA","NL_NAME_2": "NA","TYPE_2": "Kistérség","ENGTYPE_2": "Subregion","CC_2": "NA","HASC_2": "NA","name": "Szeged.county","area_km2": 774.911,"hist_schema_id": "Elevation0-9000","hist_area_km2": {"75": 643.271,"100": 131.6254,"125": 0.0146}}}