{"type":"Feature","properties":{"ISO3166-1-Alpha-3":"HUN","country":"Hungary","fill":"#F00","id":"3165","name":"Tolna"},
"geometry":{"type": "Polygon","coordinates": [[[18.83495,46.20261,110.0303],[18.82328,46.20633,108.9114],[18.82048,46.21219,87.4795],[18.8241,46.2171,88.215],[18.84167,46.22565,108.0272],[18.89841,46.23403,97.836],[18.91443,46.2457,83.75],[18.9133,46.33056,90.9984],[18.91009,46.34291,89.1656],[18.89552,46.36286,85.0],[18.89221,46.37836,85.0],[18.89893,46.4143,91.9755],[18.9227,46.46861,85.5],[18.92012,46.49876,92.0459],[18.90761,46.53173,92.5564],[18.87723,46.59116,97.4185],[18.85811,46.61483,89.7412],[18.88529,46.63524,86.5],[18.95288,46.65612,92.4254],[18.98161,46.67627,94.4279],[18.99639,46.69488,94.8777],[19.00177,46.70847,97.6213],[18.99887,46.72314,100.405],[18.98905,46.74516,93.8821],[18.9875,46.75389,90.0],[18.98688,46.76549,103.868],[18.98471,46.77559,93.8548],[18.97851,46.77994,93.8854],[18.97541,46.78397,93.9959],[18.95836,46.80081,94.8414],[18.95433,46.8035,99.3533],[18.95061,46.80707,104.0881],[18.93314,46.8205,106.368],[18.92756,46.82712,90.0],[18.92601,46.83523,90.0],[18.92673,46.84841,90.0],[18.88074,46.83838,98.6187],[18.83723,46.81792,139.5659],[18.73956,46.73265,128.6078],[18.69698,46.71351,155.5572],[18.67827,46.70919,155.5925],[18.66018,46.70206,132.8423],[18.63032,46.70743,95.148],[18.55973,46.78446,134.8877],[18.53988,46.78304,148.7134],[18.51921,46.77265,112.3005],[18.50691,46.75694,106.8061],[18.49492,46.7466,96.8355],[18.4819,46.74516,96.825],[18.44025,46.75043,101.401],[18.3986,46.76386,116.7524],[18.32946,46.80309,155.183],[18.32098,46.8004,124.2342],[18.26992,46.80066,145.8806],[18.21804,46.79068,154.6223],[18.17205,46.77689,214.7638],[18.16047,46.77554,215.9359],[18.15148,46.76996,133.9618],[18.14022,46.75343,191.0438],[18.12616,46.73958,237.5728],[18.11944,46.72568,247.5975],[18.11727,46.70873,176.9968],[18.09763,46.67844,181.6378],[18.08937,46.64108,177.3121],[18.08689,46.60207,138.8993],[18.05702,46.56212,272.6509],[18.0379,46.51566,151.1735],[18.04741,46.47463,138.9436],[18.06901,46.46616,138.2463],[18.09763,46.37118,114.2124],[18.12337,46.3657,113.2863],[18.1491,46.36459,112.7782],[18.16853,46.38247,116.5864],[18.18548,46.40409,110.0312],[18.30341,46.41161,256.1591],[18.3338,46.40787,268.9218],[18.33814,46.395,214.7074],[18.33524,46.37882,218.0245],[18.37348,46.34833,180.802],[18.3926,46.31281,187.1894],[18.4079,46.2272,426.2753],[18.44707,46.24663,215.9886],[18.46433,46.26033,239.1952],[18.48872,46.26343,155.9788],[18.53874,46.23005,193.6675],[18.55838,46.22989,203.2167],[18.57843,46.23873,126.636],[18.59487,46.22599,200.2087],[18.6205,46.18788,241.3237],[18.65088,46.1555,195.0969],[18.68303,46.1299,161.5933],[18.73274,46.11078,137.2811],[18.78576,46.09967,82.0],[18.80891,46.10814,95.5292],[18.82917,46.1229,88.4935],[18.80715,46.1314,86.6954],[18.79506,46.15119,98.3773],[18.8026,46.16139,105.934],[18.8178,46.15566,95.8988],[18.83351,46.16178,103.8937],[18.85387,46.19323,91.417],[18.84705,46.20555,109.9587],[18.83495,46.20261,110.0303]],
[[18.73622,46.34215,87.7578],[18.72652,46.33193,89.0154],[18.71732,46.31558,88.624],[18.70045,46.29872,89.8487],[18.68104,46.30332,200.6779],[18.66826,46.31098,248.8797],[18.66417,46.3258,183.9088],[18.66162,46.33909,142.6285],[18.65651,46.33909,196.3069],[18.65191,46.33091,245.0023],[18.62994,46.32171,268.1989],[18.62023,46.3304,177.2334],[18.6146,46.34113,193.6544],[18.61703,46.35465,109.6684],[18.6271,46.36903,96.1236],[18.64867,46.38198,130.5101],[18.6635,46.39643,89.8396],[18.68175,46.39204,91.8558],[18.70763,46.39492,93.3569],[18.71626,46.41361,93.4246],[18.73927,46.41649,93.041],[18.75797,46.39636,89.5218],[18.76228,46.38054,90.9241],[18.7693,46.36103,102.0197],[18.80348,46.36103,96.0292],[18.80348,46.35924,103.0281],[18.80738,46.35493,96.7589],[18.81292,46.35045,103.4696],[18.81764,46.34797,95.9273],[18.81764,46.35045,114.101],[18.82244,46.35493,94.8639],[18.83147,46.36103,99.0994],[18.84051,46.35895,89.8813],[18.8471,46.35631,89.2028],[18.851,46.35114,89.0215],[18.85198,46.34113,106.8458],[18.86451,46.34577,88.7239],[18.87794,46.34772,88.8126],[18.88595,46.34062,96.8851],[18.88748,46.33091,118.983],[18.87828,46.31916,109.2311],[18.85478,46.31865,100.5108],[18.83178,46.32325,89.3018],[18.80572,46.32785,89.4283],[18.78324,46.32989,88.3153],[18.75871,46.33551,88.5705],[18.73622,46.34215,87.7578]]]}}