{"type":"Feature","properties":{"GID_1":"HUN.17_1","GID_0":"HUN","country":"Hungary","province":"Tolna","VARNAME_1":"NA","NL_NAME_1":"NA","TYPE_1":"Megye","ENGTYPE_1":"County","CC_1":"NA","HASC_1":"HU.TO","ISO_1":"HU-TO","name":"Tolna.province"},
"geometry":{"type": "MultiPolygon","coordinates": [[[[18.9124,46.2944,98.0151],[18.9126,46.3135,102.6762],[18.9053,46.3205,110.2499],[18.8964,46.3362,85.0],[18.8956,46.3562,85.0],[18.8922,46.363,91.6714],[18.8911,46.3749,89.3508],[18.884,46.3883,102.2873],[18.8834,46.4008,85.125],[18.8851,46.4057,85.5],[18.9076,46.4364,85.5],[18.9164,46.4544,98.7271],[18.9175,46.4936,85.5],[18.9162,46.498,93.3362],[18.904,46.5148,98.197],[18.8885,46.5306,94.5786],[18.8876,46.5714,86.0],[18.8823,46.5822,86.3141],[18.8674,46.5974,96.6499],[18.8669,46.6202,86.5],[18.8717,46.6283,86.5],[18.8757,46.6318,86.5],[18.8917,46.6392,92.6403],[18.9376,46.6402,88.7093],[18.9556,46.6504,90.1265],[18.9792,46.6558,94.0717],[18.9979,46.6804,104.8412],[19.0076,46.7055,89.0],[19.0069,46.7111,89.25],[19.0037,46.7165,89.75],[19.0026,46.7257,93.9692],[18.9938,46.743899999999996,94.7621],[18.9742,46.7709,109.7653],[18.9634,46.7944,97.7252],[18.9535,46.8075,108.2289],[18.9455,46.8129,110.161],[18.9349,46.8175,105.4457],[18.9306,46.8217,100.8672],[18.9303,46.8273,110.2131],[18.934,46.8341,114.9572],[18.9346,46.8432,94.8379],[18.9297,46.8602,98.3156],[18.921,46.8643,97.8496],[18.9041,46.8674,129.9132],[18.8986,46.8667,117.1286],[18.8918,46.8601,119.2778],[18.8712,46.8528,120.9384],[18.8702,46.8497,115.4778],[18.8735,46.8439,114.9858],[18.873,46.8413,101.6308],[18.8444,46.8153,131.0794],[18.8212,46.7996,168.1604],[18.7972,46.7905,174.0589],[18.7939,46.7846,177.7233],[18.7938,46.772,187.3905],[18.7924,46.7696,189.7401],[18.7871,46.7685,189.4511],[18.7731,46.7714,192.477],[18.7492,46.7714,145.6818],[18.7195,46.7611,136.0211],[18.717,46.7574,131.355],[18.7172,46.7505,118.2238],[18.7192,46.7471,118.0223],[18.7295,46.7384,132.8781],[18.7304,46.7287,127.7563],[18.7283,46.7251,135.0713],[18.6923,46.7154,153.5002],[18.6855,46.7109,161.4459],[18.6777,46.7015,154.2191],[18.6476,46.6924,96.725],[18.6331,46.6953,95.2127],[18.6247,46.6998,94.2601],[18.6243,46.7091,95.2585],[18.628,46.7171,95.1672],[18.6283,46.7259,95.9431],[18.6244,46.7347,95.3902],[18.6231,46.7435,95.694],[18.6178,46.7517,95.7982],[18.5985,46.7536,95.777],[18.5796,46.76,95.8707],[18.5689,46.7675,118.0914],[18.5626,46.7793,133.9697],[18.559,46.7835,130.1658],[18.5556,46.7847,131.8503],[18.542,46.7838,140.5152],[18.5279,46.7705,131.4312],[18.5099,46.7688,128.7351],[18.5048,46.7582,105.1636],[18.5061,46.756,102.4707],[18.5127,46.7535,97.4662],[18.5129,46.7512,97.2412],[18.5112,46.7497,97.7232],[18.4679,46.749,99.7368],[18.4495,46.746,97.8161],[18.4341,46.7505,99.4714],[18.4217,46.7591,103.8488],[18.4214,46.7616,128.0684],[18.4255,46.7697,125.7441],[18.4152,46.7816,149.998],[18.4182,46.7938,153.1861],[18.4099,46.807,161.8517],[18.4004,46.8033,155.4619],[18.3892,46.7932,155.4897],[18.3585,46.7845,145.733],[18.334,46.7924,114.9639],[18.3191,46.7992,124.2342],[18.3166,46.8028,128.8068],[18.3156,46.8168,128.559],[18.3084,46.8203,117.3125],[18.3025,46.8208,114.7996],[18.2794,46.8127,141.4567],[18.2484,46.7891,156.512],[18.2236,46.7855,159.6088],[18.2048,46.7914,178.8008],[18.1997,46.7858,209.2261],[18.1938,46.7751,221.4462],[18.1747,46.7668,219.7001],[18.1813,46.7537,185.8801],[18.1807,46.7514,205.0286],[18.148,46.7507,214.9993],[18.1384,46.7405,241.5245],[18.1214,46.7279,233.4915],[18.1213,46.7241,242.1151],[18.1362,46.707,167.576],[18.1319,46.6952,183.1003],[18.1226,46.6828,164.8298],[18.1015,46.6728,170.0696],[18.0991,46.6606,204.5935],[18.0816,46.6475,197.3305],[18.0684,46.6291,148.9389],[18.0684,46.6237,132.3141],[18.0752,46.6146,145.7251],[18.0803,46.6026,140.1713],[18.0781,46.5991,122.3213],[18.0705,46.5958,158.8505],[18.0648,46.5903,229.361],[18.0631,46.5711,266.7163],[18.0572,46.5661,262.1898],[18.0372,46.5657,273.4873],[18.028,46.5542,227.5007],[18.0236,46.5449,216.9764],[18.0241,46.5374,197.7489],[18.0316,46.5261,169.8268],[18.0321,46.5095,158.198],[18.0359,46.5009,145.5686],[18.0373,46.492,153.1038],[18.0537,46.4517,139.2904],[18.0538,46.4318,141.2687],[18.0497,46.4303,139.7507],[18.0257,46.43,126.721],[18.0102,46.4206,144.4216],[17.9976,46.4177,139.197],[17.993,46.4141,123.0],[18.0012,46.4032,125.1195],[18.0086,46.3998,135.0299],[18.0434,46.3986,131.1735],[18.0528,46.3957,128.351],[18.0549,46.3937,129.8682],[18.0609,46.3786,127.3487],[18.0716,46.372,128.0667],[18.0729,46.3675,114.672],[18.0732,46.3429,147.8277],[18.0616,46.3282,140.0522],[18.0615,46.3116,157.3256],[18.0907,46.3108,150.7054],[18.1019,46.306,179.4042],[18.1052,46.2991,172.9693],[18.1094,46.2945,160.3967],[18.1234,46.293,128.969],[18.1288,46.2946,121.4222],[18.1293,46.3003,123.5236],[18.1261,46.3042,144.5472],[18.109,46.3135,155.01],[18.1071,46.3208,169.2163],[18.1088,46.3246,167.6475],[18.1256,46.3276,135.5327],[18.1396,46.3283,118.9136],[18.1647,46.3336,149.211],[18.1758,46.3413,152.3981],[18.1989,46.3412,163.0278],[18.2034,46.3433,157.4101],[18.2023,46.3602,127.3771],[18.1822,46.3698,115.9362],[18.1806,46.3812,116.3476],[18.1728,46.3907,114.3318],[18.1721,46.4008,116.5274],[18.1736,46.4047,125.8168],[18.1893,46.4082,110.5867],[18.253,46.4074,121.5098],[18.2701,46.4124,242.9915],[18.2961,46.4127,272.9469],[18.3123,46.4192,266.8301],[18.3283,46.4122,225.4522],[18.3396,46.3996,233.0579],[18.34,46.394,240.8469],[18.334,46.3853,186.8717],[18.3331,46.3812,224.3338],[18.3344,46.3763,239.5842],[18.3393,46.3704,217.4033],[18.3476,46.363,219.2824],[18.3749,46.3548,187.9516],[18.3831,46.3482,224.5639],[18.3834,46.3389,234.1928],[18.3771,46.3317,217.1533],[18.3764,46.3211,204.4317],[18.3703,46.3102,184.847],[18.372,46.2988,153.359],[18.378,46.2917,174.4775],[18.3846,46.2881,172.0598],[18.4105,46.288,164.9141],[18.4148,46.2865,162.864],[18.4172,46.2835,159.9129],[18.4172,46.2736,148.1378],[18.4074,46.2633,248.7637],[18.4078,46.2519,298.6309],[18.4065,46.2483,332.9304],[18.3949,46.2385,393.5344],[18.3779,46.2337,440.1079],[18.3738,46.2311,497.2607],[18.3706,46.2256,445.212],[18.3764,46.2182,522.0522],[18.3846,46.2162,485.9861],[18.398,46.2173,381.4522],[18.4145,46.2282,376.2848],[18.4424,46.2384,318.6758],[18.4499,46.2469,226.6938],[18.4715,46.2563,171.8146],[18.4744,46.2592,178.778],[18.4755,46.2628,208.5899],[18.4737,46.2902,149.0425],[18.4758,46.2945,161.3945],[18.496,46.2951,156.662],[18.5094,46.2922,149.9743],[18.5258,46.2792,144.7162],[18.5359,46.2679,117.9123],[18.5364,46.2573,145.5927],[18.5295,46.2393,218.9608],[18.5306,46.2333,256.2145],[18.5394,46.2245,193.573],[18.5606,46.2193,167.2366],[18.5696,46.2015,258.5872],[18.58,46.1932,258.8714],[18.5892,46.1889,277.6725],[18.611,46.188,286.4567],[18.6188,46.178,252.3017],[18.6339,46.1705,238.821],[18.6448,46.16,193.2711],[18.6672,46.1474,177.3586],[18.6793,46.1365,174.8428],[18.7051,46.1289,148.3006],[18.7148,46.1201,142.4192],[18.7294,46.1133,143.2849],[18.7573,46.1124,139.7366],[18.7853,46.1019,82.0],[18.8032,46.1082,82.0],[18.8068,46.111,82.0],[18.8086,46.125,87.5745],[18.8197,46.135,88.6085],[18.8319,46.1586,103.3434],[18.8331,46.1858,89.689],[18.8365,46.1894,109.2393],[18.8462,46.1939,117.9684],[18.8492,46.1972,89.6284],[18.8495,46.2012,101.5567],[18.8473,46.2039,95.5794],[18.8192,46.207,91.0243],[18.8172,46.2081,88.3742],[18.8172,46.2105,87.614],[18.822,46.2167,87.6198],[18.8313,46.2231,90.4113],[18.8456,46.2299,99.8214],[18.869,46.2372,100.3276],[18.8706,46.242,112.2124],[18.8698,46.2472,90.615],[18.8596,46.262,109.7879],[18.8619,46.2675,100.4565],[18.868,46.27,98.3649],[18.8873,46.2632,92.5088],[18.8976,46.2634,92.9274],[18.903199999999998,46.2725,103.0451],[18.9048,46.28,92.3509],[18.9117,46.29,92.8581],[18.9124,46.2944,98.0151]]]]}}