{"type": "Feature","bbox": [17.7105,46.7232,17.9986,46.884],"geometry": {"type": "MultiPolygon","coordinates": [[[[17.8206,46.7315,228.1844],[17.8249,46.7287,248.1549],[17.8418,46.7286,241.698],[17.8503,46.7237,199.0674],[17.8584,46.7232,152.2699],[17.8616,46.7247,143.5548],[17.863,46.7314,176.7784],[17.8666,46.734,186.002],[17.8816,46.7319,220.2428],[17.8943,46.7329,189.5179],[17.9013,46.7425,254.0925],[17.9002,46.7489,273.9021],[17.9048,46.7519,254.6098],[17.9253,46.752,265.6205],[17.9274,46.7507,254.039],[17.9306,46.7443,261.9383],[17.9421,46.7435,226.6636],[17.9478,46.7448,249.5265],[17.9504,46.7528,240.682],[17.9576,46.7577,173.3423],[17.9712,46.7584,170.9633],[17.9855,46.7566,255.1535],[17.9898,46.7616,238.8217],[17.991,46.7719,153.132],[17.9978,46.7825,164.1922],[17.9986,46.793,202.4589],[17.9926,46.8018,220.4692],[17.9802,46.808,247.66],[17.9716,46.8177,242.6959],[17.9566,46.817,217.9095],[17.948,46.8307,218.3492],[17.9463,46.8427,234.1045],[17.9378,46.8453,156.7877],[17.9306,46.8515,187.2008],[17.9214,46.8533,184.6091],[17.9141,46.8574,133.7831],[17.8835,46.884,103.5],[17.8467,46.8823,103.5],[17.818,46.8692,103.5],[17.7602,46.8585,103.5],[17.7355,46.8498,103.5],[17.7105,46.8387,103.5],[17.7214,46.8312,103.5],[17.7262,46.825,103.5],[17.737,46.7993,108.5514],[17.7408,46.7948,103.877],[17.7448,46.7941,103.6243],[17.7573,46.7988,119.2397],[17.7631,46.7992,121.5807],[17.7851,46.7913,143.2706],[17.79,46.7845,139.7862],[17.7914,46.7778,176.737],[17.7945,46.7725,230.6309],[17.7957,46.7635,268.2116],[17.8003,46.7544,225.9764],[17.8055,46.7476,196.3472],[17.8151,46.7403,174.4367],[17.8206,46.7315,228.1844]]]]}
,"properties": {"GID_2": "HUN.15.1_1","GID_0": "HUN","country": "Hungary","GID_1": "HUN.15_1","province": "Somogy","NL_NAME_1": "NA","county": "Balatonföldvári","VARNAME_2": "Balatonföldvári","NL_NAME_2": "NA","TYPE_2": "Kistérség","ENGTYPE_2": "Subregion","CC_2": "NA","HASC_2": "NA","name": "Balatonföldvári.county","area_km2": 227.9442,"hist_schema_id": "Elevation0-9000","hist_area_km2": {"100": 73.0936,"125": 24.6981,"150": 24.5171,"175": 22.793,"200": 22.7219,"225": 21.8067,"250": 20.0648,"275": 14.0247,"300": 4.1371,"325": 0.0871}}}