{"type":"Feature","properties":{"ISO3166-1-Alpha-3":"HUN","country":"Hungary","fill":"#FF0","id":"3166","name":"Nógrád"},
"geometry":{"type": "Polygon","coordinates": [[[19.68699,48.1969,328.4301],[19.67697,48.20039,276.4261],[19.65526,48.21835,224.0291],[19.6439,48.22481,223.0755],[19.63387,48.22677,225.2678],[19.62323,48.22701,193.3255],[19.53124,48.21065,159.1747],[19.51398,48.20396,196.8879],[19.50303,48.18941,196.3882],[19.49362,48.15071,185.4034],[19.48174,48.13489,179.7151],[19.48143,48.13443,180.708],[19.48122,48.13396,180.708],[19.48143,48.13334,164.8558],[19.48174,48.13267,168.8436],[19.48329,48.12719,155.9936],[19.4838,48.12177,163.7663],[19.48329,48.1165,156.1693],[19.48174,48.11133,151.2728],[19.4282,48.08585,153.2708],[19.29322,48.08776,140.3559],[19.23348,48.06208,136.7084],[19.22253,48.06058,136.7563],[19.0985,48.07074,129.8207],[19.03866,48.06487,131.266],[19.01902,48.0655,140.5471],[18.99649,48.06621,126.3676],[18.98182,48.06162,128.9404],[18.9336,48.05435,182.3224],[18.96725,48.02226,397.1877],[18.97014,47.97562,497.9633],[18.93531,47.95475,774.6746],[18.95887,47.9194,514.1132],[19.0829,47.86013,236.2071],[19.16372,47.86147,294.3225],[19.37725,47.83419,234.5172],[19.416,47.8222,203.0664],[19.44897,47.77166,163.2682],[19.45859,47.70603,185.9015],[19.51894,47.72939,194.6435],[19.58075,47.73724,151.0831],[19.6749,47.81279,147.6905],[19.71242,47.82106,356.6607],[19.76296,47.87935,540.9487],[19.79086,47.89256,618.2903],[19.82332,47.8802,717.0167],[19.84843,47.89243,663.6617],[19.85897,47.91015,724.001],[19.87293,47.92547,749.9445],[19.88998,47.92594,776.3713],[19.90342,47.91669,907.3619],[19.93101,47.9285,718.9895],[19.95685,47.94627,418.7151],[19.96005,47.96927,314.0385],[19.97339,47.99441,258.3614],[19.99767,48.00903,307.2768],[20.02785,48.01151,276.3313],[20.02062,48.04448,342.5564],[19.99922,48.07128,316.4258],[19.98693,48.07521,436.125],[19.97979,48.08094,364.5402],[19.98506,48.09435,358.1577],[19.9986,48.10037,340.3865],[20.02744,48.10544,249.4446],[20.04956,48.12071,217.7611],[20.07757,48.12965,398.7936],[20.08552,48.13696,346.361],[20.09586,48.14114,398.4173],[20.07664,48.15443,346.3611],[20.04863,48.16786,348.7362],[20.0383,48.17723,287.7195],[20.03498,48.17587,319.7721],[19.996949999999998,48.16791,284.5814],[19.9739,48.15838,302.1017],[19.92863,48.13009,467.236],[19.90507,48.1243,464.7569],[19.86485,48.09573,310.3839],[19.81679,48.07297,358.5619],[19.78897,48.04009,285.7687],[19.71056,48.05021,299.3797],[19.72574,48.09068,268.8882],[19.73332,48.13114,255.5611],[19.76668,48.159,359.3899],[19.76916,48.16745,427.3061],[19.77484,48.17608,439.0084],[19.77433,48.1859,317.6156],[19.75655,48.20031,264.3659],[19.73309,48.2029,301.8026],[19.68699,48.1969,328.4301]]]}}