{"type":"Feature","properties":{"GID_2":"HUN.8.7_1","GID_0":"HUN","country":"Hungary","GID_1":"HUN.8_1","province":"Gyor-Moson-Sopron","NL_NAME_1":"NA","county":"Téti","VARNAME_2":"NA","NL_NAME_2":"NA","TYPE_2":"Kistérség","ENGTYPE_2":"Subregion","CC_2":"NA","HASC_2":"NA","name":"Téti.county"},
"geometry":{"type": "MultiPolygon","coordinates": [[[[17.3773,47.4514,125.2623],[17.383,47.4546,124.1065],[17.39,47.4656,118.0392],[17.3916,47.4715,116.6042],[17.3954,47.4761,116.4998],[17.4165,47.4774,117.8988],[17.4297,47.48,118.9229],[17.433,47.477,120.9077],[17.4347,47.4609,124.5986],[17.4468,47.4512,123.1186],[17.4493,47.4379,124.8365],[17.4547,47.431,125.9035],[17.4605,47.4286,126.3559],[17.4759,47.4283,130.205],[17.489,47.4259,132.5974],[17.4947,47.4275,131.5032],[17.5027,47.4335,138.6959],[17.5074,47.4406,129.028],[17.5083,47.4481,141.3348],[17.5121,47.4547,143.6714],[17.5227,47.4623,150.5054],[17.5374,47.4571,157.745],[17.5532,47.4478,150.7634],[17.5677,47.4421,148.452],[17.5824,47.4487,144.8222],[17.5832,47.4517,142.5433],[17.5798,47.4567,143.5177],[17.5799,47.4599,139.8847],[17.5886,47.4636,135.6],[17.6127,47.4568,137.7401],[17.6276,47.4599,135.2971],[17.6438,47.4532,135.6638],[17.6554,47.4504,148.8597],[17.6676,47.4538,177.1667],[17.6695,47.4611,172.1275],[17.6729,47.464,206.1693],[17.6982,47.4702,171.179],[17.7024,47.467,176.7773],[17.7034,47.452,200.7415],[17.7111,47.4498,178.0495],[17.7309,47.4506,181.6064],[17.737,47.4624,212.3911],[17.7307,47.4693,218.3675],[17.7226,47.4687,207.96],[17.7159,47.471,188.19],[17.7132,47.4787,197.5845],[17.7082,47.4852,216.7542],[17.688,47.4995,220.9901],[17.6849,47.526,275.9185],[17.6809,47.5331,270.3681],[17.6785,47.5428,284.9268],[17.6605,47.5622,305.277],[17.6486,47.5641,276.769],[17.6418,47.5677,242.3064],[17.6329,47.5828,236.7606],[17.6287,47.5828,193.6256],[17.6214,47.5787,145.7106],[17.6166,47.5789,142.3738],[17.6098,47.5848,129.5307],[17.6013,47.5888,124.3749],[17.5852,47.6027,120.8069],[17.5819,47.6035,119.8137],[17.5723,47.6004,120.854],[17.5695,47.5978,119.7206],[17.5693,47.5937,122.7489],[17.5729,47.5872,124.3069],[17.5697,47.5795,125.1421],[17.5674,47.5778,120.3895],[17.5436,47.5714,133.3897],[17.5038,47.5746,113.2181],[17.4919,47.5782,117.3886],[17.4808,47.5863,112.1957],[17.4798,47.5906,116.4902],[17.4849,47.596,112.1606],[17.4847,47.5985,111.3812],[17.4722,47.6079,116.1295],[17.4617,47.6114,113.21],[17.4592,47.6243,111.8405],[17.4564,47.6262,117.3037],[17.4518,47.6264,117.0246],[17.4477,47.6253,110.7651],[17.4448,47.6207,114.5375],[17.4372,47.6175,113.1642],[17.4301,47.6177,112.7563],[17.4149,47.6229,112.1069],[17.4064,47.6185,112.5641],[17.403199999999998,47.6079,112.8215],[17.3942,47.602,117.9135],[17.4014,47.5918,113.0711],[17.4016,47.5821,112.3907],[17.3882,47.5745,113.4838],[17.3761,47.5633,114.9923],[17.3677,47.5589,118.0335],[17.3668,47.5559,117.748],[17.3705,47.55,115.1709],[17.3706,47.5455,115.1353],[17.3597,47.5403,115.6648],[17.3601,47.5371,115.0785],[17.3682,47.5266,116.0261],[17.3704,47.502,116.0495],[17.3669,47.5005,115.8027],[17.3552,47.5021,117.0317],[17.3354,47.4965,117.9395],[17.3325,47.4938,118.4861],[17.3347,47.487,119.013],[17.3493,47.4777,118.0303],[17.3554,47.4747,119.5015],[17.3659,47.4735,122.7505],[17.3687,47.4719,117.5762],[17.3695,47.4688,117.2561],[17.3682,47.4658,116.6375],[17.3577,47.4609,117.7029],[17.3585,47.456,118.4743],[17.3623,47.4539,118.0187],[17.3773,47.4514,125.2623]]]]}}