{"type": "Feature","bbox": [21.1339,48.2408,21.4454,48.5652],"geometry": {"type": "MultiPolygon","coordinates": [[[[21.1347,48.2601,182.0674],[21.1339,48.2408,184.2202],[21.1639,48.2411,168.5618],[21.1762,48.2434,140.4938],[21.1964,48.2437,110.8873],[21.2061,48.2509,170.0897],[21.2249,48.2514,248.1201],[21.2554,48.2632,506.3767],[21.2725,48.2615,386.6322],[21.2848,48.2677,556.9984],[21.302,48.2713,464.0966],[21.3015,48.2768,340.5486],[21.3033,48.2798,288.349],[21.3189,48.2845,268.5917],[21.3284,48.2958,337.6611],[21.3392,48.3002,447.3611],[21.3438,48.3001,433.7983],[21.3502,48.2954,434.7531],[21.3592,48.2929,451.6066],[21.3734,48.294,456.3967],[21.3699,48.3072,426.9583],[21.3773,48.3136,435.4987],[21.3787,48.3244,282.4191],[21.3818,48.3301,290.011],[21.3832,48.3391,298.2895],[21.3871,48.3477,430.2567],[21.3863,48.3523,567.2694],[21.3794,48.3624,646.1524],[21.3791,48.3669,554.2422],[21.3806,48.3694,473.3213],[21.3868,48.3732,532.4126],[21.3876,48.3764,392.3152],[21.3849,48.3789,305.1714],[21.3648,48.3794,396.4973],[21.3595,48.3822,426.1961],[21.3602,48.3886,401.1689],[21.3551,48.3926,405.4889],[21.3542,48.3958,434.1831],[21.3594,48.4105,687.042],[21.3684,48.414,669.197],[21.3791,48.41,617.9995],[21.3881,48.4104,599.8229],[21.4013,48.407,528.7881],[21.4075,48.4009,520.0009],[21.4137,48.399,559.9823],[21.4454,48.4038,436.1405],[21.438,48.4154,331.7784],[21.4238,48.4187,315.5143],[21.4131,48.4303,384.7383],[21.4002,48.4326,498.9175],[21.3927,48.4352,542.9155],[21.3899,48.4377,490.4604],[21.39,48.4404,469.376],[21.3965,48.4465,510.0111],[21.4033,48.4603,482.1312],[21.4104,48.4654,458.5889],[21.4148,48.4763,319.0634],[21.413,48.4792,268.0373],[21.4034,48.4848,364.3197],[21.4033,48.4882,310.8863],[21.407,48.4947,359.941],[21.4066,48.4981,403.129],[21.4018,48.5073,490.2257],[21.3913,48.514,591.7911],[21.3947,48.5219,559.8455],[21.3949,48.5316,626.8361],[21.3826,48.5439,457.1838],[21.3836,48.5543,535.302],[21.3908,48.5593,447.1084],[21.3871,48.5601,544.6664],[21.3825,48.5587,590.7361],[21.3637,48.5611,316.1646],[21.3322,48.5581,180.1019],[21.3304,48.5652,169.7751],[21.323,48.5632,166.4339],[21.3193,48.5608,169.8723],[21.3227,48.5582,166.5454],[21.3288,48.5575,166.625],[21.3254,48.5536,165.9789],[21.3196,48.5539,165.9143],[21.3224,48.5507,166.5964],[21.3215,48.5436,179.321],[21.316,48.5409,163.8555],[21.3186,48.536,177.4003],[21.3083,48.5325,161.8365],[21.3066,48.5286,161.412],[21.2986,48.5272,160.4144],[21.2884,48.527,158.5],[21.2625,48.5304,163.6261],[21.251,48.5358,207.9509],[21.2435,48.5422,225.8056],[21.2344,48.5415,248.879],[21.231,48.5363,269.0862],[21.2226,48.5382,267.09],[21.2178,48.5323,270.5768],[21.2111,48.5327,248.5026],[21.2034,48.5279,237.3613],[21.1932,48.5281,239.7179],[21.1809,48.5219,309.2671],[21.1608,48.5231,300.4412],[21.1593,48.522,312.8761],[21.158,48.5122,293.1343],[21.1588,48.5023,224.8526],[21.168,48.4953,215.3866],[21.1726,48.495,220.9422],[21.1813,48.5031,236.1993],[21.1891,48.5033,231.5865],[21.1948,48.5008,234.2886],[21.204,48.4902,192.8805],[21.2069,48.4849,171.6737],[21.206,48.4824,181.867],[21.1903,48.4711,253.584],[21.1887,48.4681,238.4782],[21.1956,48.464,197.1732],[21.2094,48.4605,151.1793],[21.2124,48.4568,149.0667],[21.2061,48.4482,147.7796],[21.2102,48.4382,146.6767],[21.1953,48.4187,144.4157],[21.1958,48.4122,142.76],[21.2028,48.4087,144.128],[21.2035,48.4044,151.4125],[21.2021,48.4022,148.859],[21.1957,48.3995,140.8284],[21.1941,48.3821,138.8117],[21.173,48.3492,139.6685],[21.1727,48.336,135.7967],[21.1782,48.3304,163.8414],[21.1935,48.3285,160.1295],[21.2004,48.319,140.9469],[21.2162,48.3157,141.6333],[21.221,48.3132,146.6809],[21.2253,48.3085,144.5634],[21.2325,48.3081,156.5817],[21.245,48.3103,178.4826],[21.2687,48.3092,410.554],[21.2783,48.3038,477.415],[21.2939,48.3019,332.6359],[21.2971,48.2994,299.9376],[21.2979,48.296,292.1709],[21.296,48.293,283.9508],[21.2908,48.2912,253.7542],[21.2501,48.2925,277.3693],[21.2418,48.2853,361.9554],[21.2333,48.2825,332.6234],[21.1982,48.2917,134.7612],[21.1694,48.2924,164.1417],[21.1667,48.2906,173.1275],[21.1644,48.2853,182.4621],[21.1584,48.2827,202.5189],[21.1557,48.2754,225.2818],[21.1467,48.2639,179.2624],[21.1347,48.2601,182.0674]]]]}
,"properties": {"GID_2": "HUN.4.1_1","GID_0": "HUN","country": "Hungary","GID_1": "HUN.4_1","province": "Borsod-Abaúj-Zemplén","NL_NAME_1": "NA","county": "Abaúj-Hegyközi","VARNAME_2": "NA","NL_NAME_2": "NA","TYPE_2": "Kistérség","ENGTYPE_2": "Subregion","CC_2": "NA","HASC_2": "NA","name": "Abaúj-Hegyközi.county","area_km2": 441.7475,"hist_schema_id": "Elevation0-9000","hist_area_km2": {"100": 0.2118,"125": 10.8931,"150": 70.086,"175": 37.8384,"200": 30.6521,"225": 25.6481,"250": 22.0359,"275": 18.4581,"300": 17.8306,"325": 17.5933,"350": 18.7088,"375": 19.6241,"400": 19.8374,"425": 17.6401,"450": 16.5578,"475": 16.0646,"500": 15.3754,"525": 12.2201,"550": 10.4169,"575": 9.1927,"600": 8.433,"625": 7.2073,"650": 6.0519,"675": 6.2197,"700": 3.9254,"725": 2.04,"750": 0.8722,"775": 0.1126}}}