{"type":"Feature","properties":{"GID_2":"HUN.8.5_1","GID_0":"HUN","country":"Hungary","GID_1":"HUN.8_1","province":"Gyor-Moson-Sopron","NL_NAME_1":"NA","county":"Pannonhalm","VARNAME_2":"NA","NL_NAME_2":"NA","TYPE_2":"Kistérség","ENGTYPE_2":"Subregion","CC_2":"NA","HASC_2":"NA","name":"Pannonhalm.county"},
"geometry":{"type": "MultiPolygon","coordinates": [[[[17.6751,47.546,296.1082],[17.6789,47.5421,284.9268],[17.6809,47.5331,270.3681],[17.6849,47.526,275.9185],[17.688,47.4995,220.9901],[17.7082,47.4852,216.7542],[17.7132,47.4787,197.5845],[17.7159,47.471,188.19],[17.7226,47.4687,207.96],[17.7307,47.4693,218.3675],[17.737,47.4624,212.3911],[17.7483,47.459,212.1493],[17.7582,47.4493,202.1547],[17.7688,47.433,156.9766],[17.7803,47.4217,174.2863],[17.79,47.4063,191.8395],[17.7891,47.4031,197.5653],[17.7796,47.3953,206.0355],[17.7786,47.3851,227.7034],[17.7735,47.3775,249.7733],[17.7581,47.3662,239.3176],[17.7499,47.3577,242.2203],[17.7321,47.3506,245.5799],[17.7266,47.3412,242.4217],[17.7274,47.3364,253.1291],[17.7348,47.3267,334.9091],[17.7371,47.3199,373.6607],[17.7573,47.3138,490.3628],[17.7589,47.2975,639.2217],[17.7675,47.2851,446.3505],[17.7676,47.2739,396.9379],[17.7872,47.2738,474.3886],[17.7893,47.279,486.3019],[17.7877,47.3173,420.1565],[17.7929,47.3189,405.8234],[17.8213,47.3189,393.9481],[17.8286,47.3215,413.5128],[17.8403,47.3341,349.8669],[17.840699999999998,47.3484,454.8401],[17.8447,47.3612,397.3177],[17.8479,47.3654,319.0067],[17.8692,47.3709,216.1169],[17.8806,47.379,229.9378],[17.8799,47.4079,192.8254],[17.8944,47.4232,214.5612],[17.8957,47.4281,208.5504],[17.8945,47.437,238.9086],[17.882,47.4567,215.054],[17.8814,47.4659,204.5232],[17.8843,47.4717,196.476],[17.8859,47.4831,193.0853],[17.9032,47.4979,160.7263],[17.9035,47.5064,158.0438],[17.8833,47.5308,150.7048],[17.8824,47.5398,148.607],[17.878,47.5417,146.9816],[17.8655,47.5445,146.9271],[17.861,47.5422,147.5763],[17.8539,47.5335,149.0973],[17.84,47.5309,148.3144],[17.8351,47.5331,151.8768],[17.8328,47.5429,149.9487],[17.8227,47.5466,151.2279],[17.8186,47.5533,149.4495],[17.8115,47.5587,152.6801],[17.8118,47.5683,149.5722],[17.8166,47.5747,146.5554],[17.8259,47.5798,137.4051],[17.8273,47.5841,132.9942],[17.8255,47.5964,134.8649],[17.812,47.6004,138.1824],[17.8059,47.5994,138.4069],[17.8044,47.5938,141.4738],[17.802,47.5919,142.6833],[17.7785,47.5909,143.5043],[17.7685,47.5887,151.297],[17.757,47.5918,131.2905],[17.744,47.5989,123.4131],[17.7225,47.5957,122.8485],[17.719,47.5912,122.5559],[17.7238,47.5824,128.9333],[17.7231,47.5765,139.261],[17.7081,47.5701,129.9899],[17.6984,47.5629,193.5742],[17.6932,47.5567,216.76],[17.6751,47.546,296.1082]]]]}}