{"type":"Feature","properties":{"ISO3166-1-Alpha-3":"HUN","country":"Hungary","fill":"#F0F","id":"4915","name":"Kecskemét"},
"geometry":{"type": "Polygon","coordinates": [[[19.62695,46.99709,130.7264],[19.57591,47.01476,136.9726],[19.56217,46.99709,133.0016],[19.55628,46.97353,128.5161],[19.57394,46.94212,140.8448],[19.59358,46.90482,126.9978],[19.62695,46.86359,123.0477],[19.65051,46.80665,126.6617],[19.68978,46.78505,116.8671],[19.72119,46.82628,113.7974],[19.72119,46.87144,113.5696],[19.75064,46.90285,112.9508],[19.78598,46.90285,111.472],[19.8174,46.91856,110.2897],[19.81908,46.94551,113.2455],[19.80151,46.94918,113.6365],[19.76916,46.94825,120.0397],[19.69268,46.98057,126.7327],[19.64671,47.01207,131.8706],[19.62695,46.99709,130.7264]]]}}