{"type":"Feature","properties":{"GID_2":"HUN.1.5_1","GID_0":"HUN","country":"Hungary","GID_1":"HUN.1_1","province":"Bács-Kiskun","NL_NAME_1":"NA","county":"Kecskemét","VARNAME_2":"Kecskeméti","NL_NAME_2":"NA","TYPE_2":"Kistérség","ENGTYPE_2":"Subregion","CC_2":"NA","HASC_2":"NA","name":"Kecskemét.county"},
"geometry":{"type": "MultiPolygon","coordinates": [[[[20.0143,46.8333,81.6501],[20.0216,46.8345,82.0184],[20.0485,46.8449,85.5927],[20.1035,46.8448,91.2686],[20.1098,46.8469,91.7239],[20.1099,46.8561,95.6687],[20.1084,46.8596,87.5514],[20.0899,46.8708,83.6475],[20.0889,46.875,80.7118],[20.0899,46.8815,84.792],[20.1153,46.8978,82.0092],[20.1221,46.9067,84.7478],[20.1435,46.9133,84.216],[20.1511,46.918,83.7848],[20.1549,46.9222,90.9875],[20.1559,46.9312,77.5],[20.1538,46.9373,86.8952],[20.1437,46.944,89.2367],[20.1073,46.9443,86.3884],[20.1021,46.9462,89.0429],[20.0979,46.9502,89.9854],[20.0971,46.9584,90.544],[20.1001,46.9617,92.3857],[20.1087,46.9621,91.4708],[20.119,46.9595,85.8663],[20.1281,46.9593,87.5957],[20.1284,46.9671,84.284],[20.1215,46.979,83.1405],[20.128,46.9919,84.5905],[20.116,47.0015,86.3481],[20.0901,47.0115,87.0638],[20.0659,47.0178,87.0886],[20.0585,47.0167,87.3036],[20.0499,47.0119,90.4137],[20.0334,47.0083,91.033],[20.0172,47.0071,91.1691],[20.0053,47.0039,91.9293],[19.9935,46.9953,92.69],[19.992,46.9768,96.2267],[19.9853,46.9661,99.0897],[19.9817,46.9645,97.8288],[19.9586,46.9685,101.19],[19.9075,46.9862,103.4861],[19.8914,46.9936,105.4621],[19.8867,46.9941,106.4898],[19.8794,46.9899,109.2005],[19.857,46.9679,109.5019],[19.8495,46.9453,109.7474],[19.8315,46.947,110.5026],[19.8149,46.9517,113.8804],[19.7879,46.9455,124.3793],[19.7812,46.9455,117.4688],[19.7638,46.9537,123.1609],[19.7452,46.9691,122.0803],[19.7361,46.9719,122.5033],[19.7246,46.9726,123.4117],[19.7139,46.9762,124.84],[19.6854,46.9959,128.4554],[19.6558,47.0282,138.7786],[19.6475,47.0433,139.298],[19.6462,47.0532,136.4427],[19.6414,47.0631,143.365],[19.6265,47.0802,138.7088],[19.6164,47.0972,140.7406],[19.5995,47.1125,141.638],[19.5877,47.1022,138.3469],[19.5804,47.0993,136.6901],[19.5612,47.0989,153.1353],[19.5427,47.1039,146.3116],[19.5189,47.1028,145.0112],[19.5138,47.097,136.1758],[19.5125,47.0885,135.6428],[19.5021,47.072,136.3085],[19.5021,47.0663,132.2591],[19.506,47.0568,132.9462],[19.4974,47.0439,135.9092],[19.4803,47.0424,128.61],[19.4653,47.0448,134.3004],[19.4463,47.0438,131.1102],[19.4317,47.0363,124.1828],[19.4192,47.0271,126.1745],[19.4057,47.0198,118.1201],[19.3691,47.0137,102.1191],[19.3603,47.0101,102.4137],[19.3497,47.0024,111.921],[19.3392,46.9997,118.167],[19.356,46.9878,104.2485],[19.3692,46.9657,108.1362],[19.3859,46.9454,108.1474],[19.4035,46.9356,103.5508],[19.4174,46.9127,104.0204],[19.4399,46.8957,105.6464],[19.4341,46.8855,105.9559],[19.3995,46.8743,115.6427],[19.4127,46.8572,119.4634],[19.4121,46.855,115.6827],[19.4071,46.8521,115.8139],[19.4076,46.85,108.4634],[19.4406,46.821,106.9807],[19.4642,46.7869,107.9264],[19.4427,46.7688,105.6929],[19.4179,46.7526,106.8624],[19.4035,46.7459,109.4441],[19.4011,46.7423,107.8102],[19.4014,46.7378,106.4276],[19.4176,46.7326,107.1686],[19.4298,46.7255,111.1609],[19.4447,46.7201,117.8074],[19.4603,46.6988,116.5818],[19.4793,46.6914,116.3651],[19.5312,46.6906,119.5456],[19.5366,46.6864,116.1322],[19.5418,46.6781,114.9167],[19.5498,46.6885,110.7942],[19.5646,46.7196,108.6322],[19.5684,46.7244,111.281],[19.5716,46.7256,116.5648],[19.5996,46.723,114.4506],[19.6088,46.7203,116.6181],[19.6185,46.7169,119.1639],[19.6311,46.7088,110.1972],[19.6505,46.6996,111.8844],[19.6908,46.7125,116.8484],[19.6964,46.7151,115.2414],[19.6976,46.7173,124.3926],[19.6831,46.7504,114.4842],[19.6827,46.761,110.317],[19.6843,46.7653,121.3847],[19.6969,46.7683,115.3152],[19.7076,46.7785,121.4465],[19.7223,46.7868,110.4646],[19.7286,46.7951,111.1065],[19.7316,46.7964,113.2266],[19.7362,46.7962,112.368],[19.7408,46.7938,112.8264],[19.7533,46.7849,110.0668],[19.7618,46.7761,108.124],[19.7689,46.7756,108.4808],[19.7721,46.7787,109.1656],[19.7738,46.7868,106.3728],[19.791,46.811,102.7418],[19.8207,46.8301,102.6225],[19.828,46.8329,104.4088],[19.8327,46.8327,103.409],[19.8537,46.8219,101.431],[19.8929,46.8081,97.2727],[19.8975,46.8096,99.5032],[19.8993,46.8166,97.4171],[19.9025,46.82,97.5023],[19.9251,46.8336,99.9479],[19.9424,46.8528,102.9438],[19.9472,46.8552,102.8687],[19.9626,46.8552,106.9447],[19.9816,46.8484,97.7713],[19.9948,46.8548,83.2776],[20.0016,46.8548,84.0553],[20.0079,46.8518,82.7477],[20.0089,46.8427,83.2408],[20.0143,46.8333,81.6501]]]]}}