{"type":"Feature","properties":{"GID_2":"HUN.12.4_1","GID_0":"HUN","country":"Hungary","GID_1":"HUN.12_1","province":"Komárom-Esztergom","NL_NAME_1":"NA","county":"Komárom","VARNAME_2":"Komáromi","NL_NAME_2":"NA","TYPE_2":"Kistérség","ENGTYPE_2":"Subregion","CC_2":"NA","HASC_2":"NA","name":"Komárom.county"},
"geometry":{"type": "MultiPolygon","coordinates": [[[[17.9261,47.6164,128.5677],[17.9741,47.6076,139.2707],[17.9912,47.6088,142.2092],[17.9997,47.617,139.0176],[18.0056,47.62,134.281],[18.0111,47.6198,133.6891],[18.0151,47.6158,134.106],[18.0238,47.617,132.2265],[18.0261,47.6144,133.2157],[18.0263,47.603,140.1104],[18.0287,47.6003,140.2761],[18.0383,47.5978,133.3713],[18.0842,47.5985,134.0241],[18.0995,47.5804,149.3719],[18.116,47.5738,149.9108],[18.1226,47.5813,148.9785],[18.1284,47.5851,145.9893],[18.1526,47.5919,165.5821],[18.1383,47.614,145.3908],[18.1382,47.6218,133.3001],[18.1415,47.6259,130.7518],[18.155,47.6325,136.0096],[18.1611,47.6335,136.807],[18.1663,47.632,138.6542],[18.1724,47.6262,132.1477],[18.1802,47.6258,139.8475],[18.1942,47.6296,149.1493],[18.2117,47.6375,129.0309],[18.2371,47.6458,157.0605],[18.2372,47.6492,152.5133],[18.2234,47.6672,129.8158],[18.2223,47.6714,128.4327],[18.223,47.6844,123.7861],[18.2264,47.692,126.1378],[18.2246,47.6988,125.9095],[18.2362,47.7117,112.3854],[18.2331,47.7202,109.6761],[18.2342,47.7263,107.7617],[18.2399,47.7281,108.441],[18.264,47.7291,110.3446],[18.2829,47.7257,115.6839],[18.2924,47.7288,103.25],[18.3008,47.7337,103.0],[18.2787,47.7334,103.5],[18.2492,47.7402,103.5],[18.2196,47.7427,103.5],[18.1858,47.7394,103.5],[18.1418,47.7506,111.0436],[18.083,47.7569,103.5],[18.0411,47.7571,104.9221],[18.0296,47.7557,103.5],[18.0033,47.747,103.5],[17.9688,47.7577,103.5],[17.9626,47.7574,107.931],[17.9443,47.7445,103.5],[17.91,47.7425,103.5],[17.9053,47.7407,103.5],[17.9068,47.7406,103.5],[17.9002,47.7336,119.0214],[17.8956,47.7248,118.3802],[17.896,47.7084,118.8438],[17.8928,47.6986,116.6642],[17.8949,47.661,135.7942],[17.888,47.6484,123.3647],[17.8879,47.6387,124.6663],[17.8912,47.6328,125.942],[17.9059,47.6232,127.252],[17.9261,47.6164,128.5677]]]]}}