{"type":"Feature","properties":{"GID_2":"HUN.18.6_1","GID_0":"HUN","country":"Hungary","GID_1":"HUN.18_1","province":"Vas","NL_NAME_1":"NA","county":"Sárvár","VARNAME_2":"Sárvári","NL_NAME_2":"NA","TYPE_2":"Kistérség","ENGTYPE_2":"Subregion","CC_2":"NA","HASC_2":"NA","name":"Sárvár.county"},
"geometry":{"type": "MultiPolygon","coordinates": [[[[17.0122,47.4395,137.2626],[17.0018,47.4368,138.0604],[16.9688,47.4196,142.5615],[16.9651,47.4165,143.2422],[16.9586,47.4064,145.8667],[16.9385,47.3913,146.358],[16.9344,47.3845,156.4272],[16.9271,47.3822,149.2487],[16.9212,47.378,148.1357],[16.9096,47.3761,149.2599],[16.8986,47.3711,154.2917],[16.8983,47.3638,155.2775],[16.9077,47.352,158.1977],[16.8927,47.3418,154.318],[16.8935,47.3265,165.6117],[16.8892,47.3199,157.1371],[16.8847,47.3196,157.7029],[16.8769,47.3226,157.828],[16.8635,47.3376,154.429],[16.8567,47.3379,156.7898],[16.8406,47.3347,169.2634],[16.8364,47.3363,166.9266],[16.829,47.3428,182.9965],[16.8233,47.3447,191.8491],[16.8128,47.3418,195.5404],[16.8029,47.3364,210.6348],[16.7871,47.3306,203.7587],[16.7876,47.3223,205.5625],[16.795,47.3153,213.1905],[16.79,47.3057,200.6691],[16.7908,47.301,195.7807],[16.7988,47.2933,192.9563],[16.8176,47.2851,195.1415],[16.8285,47.2734,186.1028],[16.8346,47.2614,187.2098],[16.8287,47.2575,170.0634],[16.8102,47.2507,184.6974],[16.7907,47.2522,190.5556],[16.7777,47.2502,196.1991],[16.777,47.2486,190.3385],[16.7782,47.247,188.569],[16.7877,47.2441,180.6477],[16.7969,47.239,178.617],[16.8029,47.2291,175.2683],[16.7997,47.2247,193.4326],[16.7829,47.219,210.0876],[16.7791,47.2124,183.8951],[16.7695,47.2075,178.8602],[16.7693,47.1978,179.1667],[16.7714,47.1938,178.3577],[16.7745,47.1921,177.1297],[16.7945,47.192,174.3929],[16.8007,47.1899,173.7962],[16.8062,47.1839,175.8084],[16.8106,47.175,194.8457],[16.8196,47.1715,191.6386],[16.8292,47.1644,172.5587],[16.8414,47.1616,170.1171],[16.8405,47.1589,170.6822],[16.8335,47.1561,171.2428],[16.8315,47.1537,170.8382],[16.8356,47.15,170.9526],[16.8443,47.1464,169.0552],[16.8586,47.146,168.1355],[16.8671,47.1418,171.9025],[16.8805,47.1408,168.2645],[16.899,47.1352,165.7114],[16.9025,47.1424,163.9672],[16.9053,47.1448,162.2675],[16.9154,47.1487,181.8768],[16.9233,47.1494,209.4944],[16.9311,47.1464,212.279],[16.9349,47.1365,223.9293],[16.9489,47.1354,210.7747],[16.9537,47.1316,211.81],[16.9643,47.1332,210.2169],[16.9856,47.1291,233.7029],[17.0009,47.1301,188.8725],[17.0117,47.1331,176.8805],[17.0163,47.1325,173.0853],[17.0184,47.1295,164.195],[17.0184,47.124,163.9693],[17.0066,47.1171,174.1806],[17.0036,47.1127,194.5921],[16.9992,47.0998,174.9689],[16.9837,47.093,192.5542],[16.9838,47.0852,178.7063],[16.9856,47.0803,174.5338],[16.9905,47.076,172.3352],[16.9935,47.0754,171.3046],[17.0091,47.0787,179.7694],[17.0147,47.0783,169.2364],[17.0422,47.0616,174.1944],[17.0444,47.0584,178.6988],[17.0454,47.0521,173.2169],[17.0615,47.0518,169.7446],[17.0639,47.0444,165.6405],[17.0661,47.0422,165.2766],[17.0812,47.0395,156.4257],[17.0944,47.0401,172.7596],[17.0989,47.0419,166.0382],[17.1026,47.0493,168.1809],[17.1031,47.0535,169.5925],[17.0992,47.0749,157.535],[17.1096,47.0916,146.4956],[17.1065,47.0991,155.8989],[17.1125,47.1071,151.5505],[17.1124,47.1153,158.7492],[17.1151,47.1219,152.4266],[17.1148,47.1289,141.872],[17.1131,47.1336,140.8177],[17.1106,47.1355,141.5568],[17.0953,47.14,150.5053],[17.0783,47.1474,140.5368],[17.0783,47.1506,139.093],[17.088,47.159,139.7681],[17.0898,47.168,134.4505],[17.1013,47.1737,135.7673],[17.1064,47.1789,136.1222],[17.0962,47.1907,138.3022],[17.0785,47.1936,147.2133],[17.0726,47.1968,153.0058],[17.071,47.2,142.3073],[17.0739,47.203,146.7886],[17.0841,47.2065,142.5797],[17.0931,47.2065,144.86],[17.0994,47.2026,139.4803],[17.1041,47.2018,145.8159],[17.1116,47.2045,134.5253],[17.1123,47.2073,135.8545],[17.1051,47.2168,133.7793],[17.088,47.2221,143.7391],[17.0769,47.2285,140.2249],[17.0773,47.2318,137.6902],[17.0869,47.2362,139.9035],[17.087,47.2411,134.4297],[17.0595,47.2623,162.0613],[17.0553,47.2787,191.4989],[17.0401,47.293,180.4697],[17.0344,47.2956,179.3892],[17.0172,47.2953,174.2297],[17.0114,47.2966,166.4532],[16.9944,47.3117,148.1625],[16.9927,47.317,149.6765],[16.9937,47.3204,147.9773],[17.0036,47.3292,145.1167],[17.0056,47.3348,144.7173],[17.0113,47.339,144.1096],[17.0127,47.3448,144.5301],[17.0199,47.3482,143.729],[17.0422,47.3751,140.7693],[17.0428,47.3895,141.484],[17.0475,47.3965,141.6937],[17.0541,47.4002,142.3018],[17.0457,47.4095,137.7409],[17.0451,47.4127,137.6656],[17.0554,47.4251,135.8303],[17.0566,47.4362,135.1022],[17.0663,47.4418,137.7113],[17.0678,47.4484,135.3425],[17.0661,47.4517,135.7865],[17.0596,47.4556,133.1812],[17.0567,47.4619,133.2219],[17.0482,47.4628,132.7077],[17.0418,47.4598,133.9181],[17.0345,47.4493,140.8443],[17.0122,47.4395,137.2626]]]]}}