{"type": "Feature","bbox": [18.3283,46.188,18.6557,46.4657],"geometry": {"type": "MultiPolygon","coordinates": [[[[18.398,46.2173,381.4522],[18.4145,46.2282,376.2848],[18.4424,46.2384,318.6758],[18.4499,46.2469,226.6938],[18.4715,46.2563,171.8146],[18.4744,46.2592,178.778],[18.4755,46.2628,208.5899],[18.4745,46.2935,151.1166],[18.4793,46.2952,160.8525],[18.4929,46.2953,157.4784],[18.5125,46.2909,150.6983],[18.5348,46.2699,116.6542],[18.5364,46.2656,121.8342],[18.5364,46.2573,145.5927],[18.5295,46.2393,218.9608],[18.5299,46.2345,269.8775],[18.5345,46.2281,234.7112],[18.5394,46.2245,193.573],[18.5606,46.2193,167.2366],[18.5696,46.2015,258.5872],[18.5838,46.1907,240.1274],[18.5892,46.1889,277.6725],[18.611,46.188,286.4567],[18.6311,46.1958,216.011],[18.6485,46.2047,215.6655],[18.655,46.2104,224.6467],[18.6557,46.2187,124.972],[18.6505,46.2303,112.688],[18.6437,46.2402,136.7069],[18.6421,46.2506,155.4985],[18.6302,46.2589,251.6208],[18.6145,46.2576,153.396],[18.6065,46.2708,178.9639],[18.6086,46.2759,182.5793],[18.621,46.283,223.0668],[18.6221,46.2993,202.541],[18.6319,46.318,268.4051],[18.627,46.325,211.0941],[18.6139,46.3274,233.195],[18.6089,46.3331,168.5951],[18.6083,46.3534,175.9967],[18.6144,46.365,96.4268],[18.5837,46.3775,100.8566],[18.5807,46.3767,97.903],[18.5732,46.3701,102.0424],[18.5601,46.3671,99.4818],[18.5533,46.3695,135.375],[18.5461,46.3755,105.3064],[18.5445,46.3861,137.5415],[18.5401,46.3925,140.5202],[18.5278,46.3986,140.8146],[18.5202,46.4044,143.8319],[18.5117,46.4161,141.5768],[18.505,46.4306,149.2115],[18.4789,46.4435,193.7938],[18.4702,46.4544,229.5797],[18.4543,46.4657,194.1021],[18.4307,46.4615,146.3628],[18.4257,46.4587,214.0723],[18.4171,46.4442,219.3409],[18.4284,46.4261,200.8472],[18.4175,46.4175,141.5004],[18.4035,46.4108,145.1227],[18.3993,46.4103,159.0391],[18.3876,46.414,170.3392],[18.38,46.4147,159.0678],[18.3653,46.4144,172.6247],[18.3516,46.4116,207.0659],[18.3283,46.4122,225.4522],[18.3404,46.3975,236.5088],[18.34,46.394,240.8469],[18.3331,46.3827,210.5582],[18.3344,46.3763,239.5842],[18.3393,46.3704,217.4033],[18.3476,46.363,219.2824],[18.3749,46.3548,187.9516],[18.3831,46.3482,224.5639],[18.3834,46.3389,234.1928],[18.3771,46.3317,217.1533],[18.3764,46.3211,204.4317],[18.3703,46.3102,184.847],[18.372,46.2988,153.359],[18.378,46.2917,174.4775],[18.3846,46.2881,172.0598],[18.4105,46.288,164.9141],[18.4148,46.2865,162.864],[18.4172,46.2835,159.9129],[18.4172,46.2736,148.1378],[18.4074,46.2633,248.7637],[18.4078,46.2519,298.6309],[18.4065,46.2483,332.9304],[18.3949,46.2385,393.5344],[18.3763,46.233,456.946],[18.3709,46.2267,445.212],[18.3738,46.2204,507.3594],[18.379,46.2171,543.187],[18.388,46.2161,437.6246],[18.398,46.2173,381.4522]]]]}
,"properties": {"GID_2": "HUN.17.1_1","GID_0": "HUN","country": "Hungary","GID_1": "HUN.17_1","province": "Tolna","NL_NAME_1": "NA","county": "Bonyhád","VARNAME_2": "Bonyhádi","NL_NAME_2": "NA","TYPE_2": "Kistérség","ENGTYPE_2": "Subregion","CC_2": "NA","HASC_2": "NA","name": "Bonyhád.county","area_km2": 380.9861,"hist_schema_id": "Elevation0-9000","hist_area_km2": {"100": 17.7413,"125": 52.7112,"150": 103.553,"175": 69.3475,"200": 51.5014,"225": 43.6865,"250": 24.5862,"275": 7.2695,"300": 3.0507,"325": 1.2905,"350": 1.0266,"375": 0.9093,"400": 1.0267,"425": 1.0854,"450": 0.9241,"475": 0.9534,"500": 0.176,"525": 0.088,"550": 0.0587}}}