{"type": "Feature","bbox": [16.7125,46.9312,17.0454,47.1487],"geometry": {"type": "MultiPolygon","coordinates": [[[[16.7356,46.9374,264.2283],[16.7444,46.9352,252.3527],[16.7661,46.9355,208.72],[16.7832,46.9312,250.5001],[16.8,46.9322,201.5498],[16.8056,46.9387,223.0966],[16.8052,46.9509,202.0243],[16.8067,46.9541,200.6346],[16.8219,46.9564,199.8025],[16.8342,46.9606,204.345],[16.834,46.9794,155.3102],[16.8389,46.9824,156.4486],[16.8572,46.9829,162.0756],[16.878,46.9784,201.6274],[16.9303,46.9807,194.5528],[16.9356,46.9794,223.1419],[16.9429,46.9738,174.2176],[16.961,46.9707,159.0853],[17.0063,46.9725,135.1821],[17.012,46.9739,130.7162],[17.0136,46.9772,131.0023],[17.0137,46.9929,165.6454],[17.0308,47.0061,148.2271],[17.0337,47.01,150.541],[17.0292,47.0209,163.6322],[17.0279,47.0464,162.1117],[17.0356,47.0509,176.1502],[17.0454,47.0521,173.2169],[17.0444,47.0584,178.6988],[17.0406,47.0627,176.3792],[17.0147,47.0783,169.2364],[17.0091,47.0787,179.7694],[16.998,47.0756,174.0111],[16.9905,47.076,172.3352],[16.9848,47.0816,179.3474],[16.9833,47.0917,186.2511],[16.9846,47.0941,187.9073],[16.9992,47.0998,174.9689],[17.0036,47.1127,194.5921],[17.0066,47.1171,174.1806],[17.0184,47.124,163.9693],[17.0176,47.1315,165.5029],[17.0117,47.1331,176.8805],[17.0009,47.1301,188.8725],[16.9856,47.1291,233.7029],[16.9643,47.1332,210.2169],[16.9537,47.1316,211.81],[16.9489,47.1354,210.7747],[16.9349,47.1365,223.9293],[16.9315,47.1457,212.279],[16.9285,47.1483,211.8253],[16.9154,47.1487,181.8768],[16.9025,47.1424,163.9672],[16.899,47.1352,165.7114],[16.8982,47.1278,171.83],[16.883,47.1084,173.3277],[16.8675,47.1042,170.1773],[16.8641,47.1006,168.2874],[16.8626,47.0931,171.4338],[16.8498,47.085,171.1712],[16.8346,47.0835,178.1605],[16.83,47.0866,173.561],[16.8338,47.0936,191.1338],[16.837,47.0959,174.8602],[16.8472,47.0974,186.3599],[16.8494,47.0992,188.2715],[16.8425,47.1069,175.8],[16.822,47.1113,171.5506],[16.8141,47.1179,173.7082],[16.8083,47.1202,172.9668],[16.8045,47.1179,172.3874],[16.8042,47.1099,173.5287],[16.8018,47.106,173.695],[16.7968,47.1042,175.0797],[16.7829,47.1079,184.222],[16.7722,47.1088,186.789],[16.768,47.1126,186.2765],[16.7596,47.1147,184.4312],[16.7534,47.12,184.7137],[16.7477,47.1203,184.9204],[16.7453,47.1115,189.8273],[16.7339,47.1079,193.4033],[16.7264,47.1019,195.0791],[16.7285,47.095,187.1908],[16.728,47.0903,187.7381],[16.7182,47.0868,188.2442],[16.7125,47.0811,191.7256],[16.7151,47.0775,185.3658],[16.7241,47.0779,182.6254],[16.7298,47.0674,179.9412],[16.7438,47.0571,177.5167],[16.7535,47.0543,185.2393],[16.7595,47.0404,196.2446],[16.7565,47.0367,192.7167],[16.7428,47.0344,184.6265],[16.7328,47.0296,190.3143],[16.7338,47.0273,202.4978],[16.7484,47.0152,234.6589],[16.7501,47.0073,242.9216],[16.7467,46.9951,240.1587],[16.7474,46.9727,196.1019],[16.7426,46.9696,210.4843],[16.7264,46.9678,226.0872],[16.7198,46.9617,208.7657],[16.7225,46.9555,198.331],[16.7209,46.9485,202.2244],[16.7356,46.9374,264.2283]]]]}
,"properties": {"GID_2": "HUN.18.9_1","GID_0": "HUN","country": "Hungary","GID_1": "HUN.18_1","province": "Vas","NL_NAME_1": "NA","county": "Vasvár","VARNAME_2": "Vasvári","NL_NAME_2": "NA","TYPE_2": "Kistérség","ENGTYPE_2": "Subregion","CC_2": "NA","HASC_2": "NA","name": "Vasvár.county","area_km2": 367.4027,"hist_schema_id": "Elevation0-9000","hist_area_km2": {"125": 1.3449,"150": 35.8264,"175": 141.9736,"200": 74.5517,"225": 76.6078,"250": 36.9391,"275": 0.1592}}}