{"type": "Feature","bbox": [19.1201,46.1631,19.487,46.3998],"geometry": {"type": "MultiPolygon","coordinates": [[[[19.4629,46.1702,132.8248],[19.4672,46.173,134.2154],[19.4668,46.1743,135.2567],[19.4513,46.2037,132.9546],[19.4545,46.2067,133.0949],[19.4748,46.2156,132.6611],[19.4753,46.2188,132.1929],[19.4687,46.2304,131.8616],[19.4688,46.233,132.0999],[19.4725,46.2357,134.6036],[19.4858,46.2398,135.398],[19.487,46.2431,135.1676],[19.4569,46.2606,141.591],[19.4352,46.2686,145.9111],[19.4272,46.2792,139.2364],[19.4232,46.2877,137.8621],[19.4257,46.295,137.6991],[19.4216,46.3045,136.9728],[19.4081,46.3171,139.8051],[19.3926,46.328,151.9121],[19.3819,46.3326,156.381],[19.3711,46.34,155.2344],[19.361,46.3502,151.7835],[19.3544,46.3595,144.3824],[19.3411,46.3721,142.9531],[19.3236,46.3812,147.2186],[19.3075,46.3919,146.9435],[19.2911,46.3998,137.015],[19.2567,46.393,142.6139],[19.2443,46.3796,138.9593],[19.2287,46.3741,136.5563],[19.2168,46.3728,136.7531],[19.2075,46.369,148.5267],[19.2039,46.3633,142.086],[19.2038,46.3578,138.5442],[19.2138,46.3436,144.3835],[19.2127,46.34,148.5842],[19.1576,46.3144,150.2976],[19.1201,46.2992,160.4216],[19.1283,46.2892,154.1353],[19.1627,46.259,153.0067],[19.1832,46.2315,131.9854],[19.1871,46.2315,132.5938],[19.2232,46.2438,134.5578],[19.2396,46.2467,135.2074],[19.2435,46.2459,135.1214],[19.2475,46.2379,135.3913],[19.2484,46.2289,131.633],[19.2516,46.2229,131.5396],[19.2521,46.2124,128.045],[19.2555,46.2058,126.6437],[19.2565,46.1972,125.6722],[19.2647,46.2011,127.3882],[19.3099,46.2155,131.1021],[19.3144,46.2135,130.367],[19.3209,46.2043,129.6779],[19.327,46.1987,130.1686],[19.3352,46.1872,130.641],[19.3372,46.1786,131.2561],[19.3421,46.1737,129.9507],[19.3643,46.1729,130.3564],[19.3951,46.1631,131.8256],[19.4146,46.1702,135.299],[19.4629,46.1702,132.8248]]]]}
,"properties": {"GID_2": "HUN.1.3_1","GID_0": "HUN","country": "Hungary","GID_1": "HUN.1_1","province": "Bács-Kiskun","NL_NAME_1": "NA","county": "Jánoshalm","VARNAME_2": "Jánoshalmi","NL_NAME_2": "NA","TYPE_2": "Kistérség","ENGTYPE_2": "Subregion","CC_2": "NA","HASC_2": "NA","name": "Jánoshalm.county","area_km2": 390.2298,"hist_schema_id": "Elevation0-9000","hist_area_km2": {"125": 177.1373,"150": 212.4041,"175": 0.6884}}}