{"type":"Feature","properties":{"GID_2":"HUN.1.2_1","GID_0":"HUN","country":"Hungary","GID_1":"HUN.1_1","province":"Bács-Kiskun","NL_NAME_1":"NA","county":"Baja","VARNAME_2":"Bajai","NL_NAME_2":"NA","TYPE_2":"Kistérség","ENGTYPE_2":"Subregion","CC_2":"NA","HASC_2":"NA","name":"Baja.county"},
"geometry":{"type": "MultiPolygon","coordinates": [[[[18.8113,45.9113,81.5],[18.8413,45.9133,83.3201],[18.8629,45.9179,84.63],[18.8812,45.9256,85.9587],[18.8992,45.9378,96.5605],[18.9278,45.9348,84.3976],[18.9493,45.9294,88.775],[18.9702,45.9317,88.0611],[18.9864,45.9361,88.9921],[18.9968,45.9455,88.8621],[19.0014,45.9598,89.3357],[19.0108,45.968,91.0794],[19.071,45.9712,94.1002],[19.0607,45.9997,95.0215],[19.0792,46.0199,100.1073],[19.0943,46.0336,100.7507],[19.1099,46.0383,98.7272],[19.1199,46.0363,100.3334],[19.1469,46.0413,105.6621],[19.1509,46.044,109.506],[19.1584,46.0539,109.1434],[19.1753,46.0653,115.3638],[19.1925,46.0697,117.9563],[19.2147,46.0701,120.518],[19.219,46.0717,120.5944],[19.2206,46.0836,121.231],[19.2266,46.0937,122.3953],[19.2194,46.1042,121.4534],[19.2087,46.1153,121.6514],[19.2078,46.1184,121.3346],[19.2109,46.1213,123.0525],[19.2277,46.1225,123.0703],[19.2296,46.1292,125.2174],[19.2269,46.1343,124.2149],[19.2121,46.1394,122.6844],[19.2087,46.1424,122.4603],[19.2088,46.169,124.6019],[19.2153,46.1853,125.2506],[19.2365,46.1999,125.3121],[19.2452,46.2014,125.7976],[19.2565,46.1972,125.6722],[19.2555,46.2058,126.6437],[19.2521,46.2124,128.045],[19.2516,46.2229,131.5396],[19.2484,46.2289,131.633],[19.2475,46.2379,135.3913],[19.2435,46.2459,135.1214],[19.2396,46.2467,135.2074],[19.2232,46.2438,134.5578],[19.1871,46.2315,132.5938],[19.1832,46.2315,131.9854],[19.1627,46.259,153.0067],[19.1213,46.2964,158.7094],[19.1199,46.2986,160.5584],[19.1221,46.301,153.9587],[19.1607,46.316,153.4087],[19.137,46.3444,135.6809],[19.1351,46.356,123.5622],[19.1301,46.3628,115.3857],[19.1099,46.3694,90.2647],[19.0829,46.3519,96.2679],[19.0701,46.3483,90.0656],[19.063,46.3611,90.6734],[19.0443,46.3673,89.1119],[19.0326,46.3862,92.4559],[19.0054,46.3959,89.7113],[18.9989,46.3948,90.7434],[18.991,46.3893,90.4273],[18.9776,46.3761,90.8728],[18.986,46.3666,90.0629],[18.9959,46.3587,89.409],[18.9964,46.3546,89.8226],[18.9931,46.3493,89.4852],[18.9928,46.346,89.3133],[19.0042,46.3299,89.532],[19.0041,46.3256,88.7084],[18.99,46.3214,88.9075],[18.98,46.3218,88.0344],[18.976,46.3244,88.4307],[18.9687,46.3343,89.0731],[18.9527,46.3454,89.5117],[18.9437,46.3473,89.839],[18.9305,46.3462,89.0964],[18.9222,46.3358,98.125],[18.9173,46.3258,114.0391],[18.9158,46.3182,84.5],[18.9126,46.3135,102.6762],[18.9119,46.2907,95.9924],[18.9048,46.28,92.3509],[18.903199999999998,46.2725,103.0451],[18.8989,46.2642,102.6159],[18.8892,46.2629,101.4292],[18.868,46.27,98.3649],[18.8634,46.269,113.9304],[18.8596,46.262,109.7879],[18.8698,46.2472,90.615],[18.8696,46.2378,100.3276],[18.8624,46.2343,88.079],[18.8456,46.2299,99.8214],[18.8313,46.2231,90.4113],[18.822,46.2167,87.6198],[18.8172,46.2105,87.614],[18.8172,46.2081,88.3742],[18.8192,46.207,91.0243],[18.8465,46.2041,95.5794],[18.8495,46.2012,101.5567],[18.8481,46.1953,108.946],[18.8365,46.1894,109.2393],[18.8331,46.1858,89.689],[18.8324,46.1607,97.8337],[18.8233,46.1403,108.2477],[18.8187,46.1338,99.3231],[18.8086,46.125,87.5745],[18.8074,46.1124,82.0],[18.8053,46.1094,82.0],[18.759,46.0919,108.9118],[18.7552,46.0892,133.7536],[18.7508,46.0819,138.6357],[18.7495,46.0627,84.5563],[18.7436,46.0555,85.1035],[18.7287,46.0495,92.5198],[18.7268,46.0472,92.6726],[18.7262,46.042,82.0],[18.7276,46.0332,86.1435],[18.7322,46.027,84.9843],[18.7361,46.0253,87.8379],[18.7931,46.0261,84.1282],[18.8309,46.0377,90.2579],[18.8446,46.0295,85.4874],[18.8512,46.0215,84.6479],[18.851,46.0176,84.8147],[18.8368,46.003,84.1362],[18.8246,45.9817,83.5054],[18.817,45.9577,95.692],[18.8239,45.9495,90.5109],[18.8239,45.9429,112.8343],[18.8162,45.9391,95.1466],[18.7895,45.9324,97.0484],[18.7862,45.9299,102.5098],[18.7888,45.9259,81.5],[18.804,45.9177,81.5],[18.8049,45.9107,92.4232],[18.8025,45.902,101.8298],[18.8062,45.9032,101.2767],[18.8113,45.9113,81.5]]]]}}