{"type": "Feature","bbox": [18.4868,47.1126,18.7465,47.3147],"geometry": {"type": "MultiPolygon","coordinates": [[[[18.6529,47.1126,121.892],[18.6708,47.1144,119.0555],[18.6761,47.1259,117.0516],[18.6787,47.1276,116.4832],[18.7083,47.1279,117.3268],[18.7132,47.1295,123.9465],[18.7087,47.1394,125.6129],[18.7043,47.144,127.4857],[18.6776,47.1493,119.8644],[18.6664,47.1589,127.7593],[18.6653,47.1632,130.8013],[18.6688,47.1652,138.8519],[18.6849,47.1657,150.6409],[18.7314,47.1748,132.371],[18.7316,47.1776,137.096],[18.724,47.1871,153.8667],[18.7234,47.1988,146.7572],[18.728,47.2058,131.5562],[18.737,47.213,131.4831],[18.7465,47.224,134.9587],[18.7454,47.2387,139.2834],[18.7292,47.2506,124.0189],[18.7199,47.2619,123.5253],[18.7162,47.2797,134.0481],[18.6802,47.2948,144.2124],[18.6702,47.3017,152.5606],[18.6597,47.3147,173.7634],[18.6354,47.2971,150.065],[18.6253,47.2938,196.4922],[18.6055,47.2922,220.3921],[18.6015,47.2869,249.0386],[18.6007,47.273,294.4878],[18.5826,47.2633,265.5576],[18.5704,47.2619,231.0938],[18.555,47.2648,224.174],[18.5435,47.2639,198.1631],[18.5423,47.2615,219.5078],[18.5428,47.2521,199.3165],[18.5407,47.2492,183.301],[18.5318,47.2453,204.8056],[18.5163,47.2349,194.1273],[18.4911,47.223,113.6672],[18.4868,47.2187,126.2353],[18.5117,47.198,107.4617],[18.5095,47.194,108.3883],[18.496,47.1897,122.1083],[18.4923,47.1869,126.4481],[18.4922,47.1822,125.9128],[18.4979,47.1737,118.2544],[18.5023,47.1729,117.708],[18.5118,47.1755,113.849],[18.5223,47.1759,107.0573],[18.5336,47.1727,103.4187],[18.5359,47.1693,103.7933],[18.5345,47.1598,105.1383],[18.5361,47.1572,105.7984],[18.5421,47.1507,114.4009],[18.5498,47.1483,104.3094],[18.5637,47.1526,104.9583],[18.5876,47.1567,114.981],[18.5981,47.163,116.2267],[18.603,47.1631,123.4985],[18.6128,47.1542,125.0949],[18.6294,47.1433,131.7207],[18.6396,47.1338,137.0733],[18.6529,47.1126,121.892]]]]}
,"properties": {"GID_2": "HUN.7.7_1","GID_0": "HUN","country": "Hungary","GID_1": "HUN.7_1","province": "Fejér","NL_NAME_1": "NA","county": "Gárdony","VARNAME_2": "NA","NL_NAME_2": "NA","TYPE_2": "Kistérség","ENGTYPE_2": "Subregion","CC_2": "NA","HASC_2": "NA","name": "Gárdony.county","area_km2": 241.8199,"hist_schema_id": "Elevation0-9000","hist_area_km2": {"100": 58.2145,"125": 96.1246,"150": 47.0928,"175": 17.392,"200": 10.7359,"225": 5.0945,"250": 3.1656,"275": 2.3166,"300": 1.2374,"325": 0.3453,"350": 0.1007}}}