{"type":"Feature","properties":{"GID_2":"HUN.10.3_1","GID_0":"HUN","country":"Hungary","GID_1":"HUN.10_1","province":"Heves","NL_NAME_1":"NA","county":"Füzesabony","VARNAME_2":"Füzesabonyi","NL_NAME_2":"NA","TYPE_2":"Kistérség","ENGTYPE_2":"Subregion","CC_2":"NA","HASC_2":"NA","name":"Füzesabony.county"},
"geometry":{"type": "MultiPolygon","coordinates": [[[[20.0026,47.6232,97.8096],[19.9969,47.6177,98.0669],[19.9916,47.6024,96.2607],[20.0036,47.584,95.2999],[20.0073,47.5807,95.3111],[20.0313,47.5729,94.0787],[20.0865,47.5631,99.1748],[20.0954,47.5633,96.3634],[20.1145,47.5703,103.3303],[20.1121,47.5738,98.1719],[20.0922,47.5869,98.0975],[20.0901,47.5908,97.3379],[20.092,47.5953,96.4175],[20.1026,47.5998,96.6589],[20.1121,47.6073,97.018],[20.1206,47.608,96.9184],[20.1828,47.6042,107.1942],[20.1909,47.5946,109.4062],[20.204,47.585,107.5951],[20.2077,47.5751,99.2251],[20.2195,47.5638,97.2818],[20.2404,47.5566,93.8732],[20.2483,47.5462,92.1265],[20.2691,47.5439,91.3154],[20.2816,47.5359,89.7422],[20.2873,47.5252,89.0016],[20.2878,47.5116,86.9342],[20.2765,47.4963,87.3316],[20.2755,47.4913,87.1612],[20.2827,47.4748,85.2761],[20.3313,47.4422,85.4736],[20.3607,47.4417,86.9104],[20.3689,47.4399,86.8343],[20.3735,47.4344,87.6935],[20.3751,47.4234,86.8039],[20.4229,47.4224,87.4716],[20.4382,47.4258,84.6737],[20.4511,47.4415,89.7461],[20.4533,47.45,90.3712],[20.4599,47.4575,87.4708],[20.4723,47.4613,87.6323],[20.4902,47.4587,85.1044],[20.4959,47.4602,84.7012],[20.5078,47.4756,97.1099],[20.5095,47.4828,103.4198],[20.5144,47.4925,89.331],[20.5221,47.5008,87.0],[20.5287,47.5032,87.1091],[20.5495,47.5035,87.0],[20.5645,47.5066,88.3315],[20.588,47.5236,87.0],[20.601,47.5272,88.2855],[20.5988,47.5337,86.962],[20.5941,47.5399,87.5793],[20.5762,47.5469,87.2899],[20.5641,47.5601,87.2456],[20.5519,47.5646,86.8471],[20.5301,47.5691,88.115],[20.5159,47.5781,90.2939],[20.5089,47.5911,90.7561],[20.5099,47.5955,90.8284],[20.5171,47.6002,89.6639],[20.5166,47.6028,91.2795],[20.5133,47.6056,91.2186],[20.5057,47.608,91.8893],[20.4949,47.606,91.8142],[20.4903,47.6068,91.3934],[20.4817,47.6163,92.3112],[20.4704,47.6213,93.0352],[20.4629,47.6327,94.7225],[20.4422,47.6417,95.1955],[20.4275,47.6509,96.5134],[20.4117,47.6565,97.2993],[20.4002,47.6689,100.6233],[20.3899,47.6699,100.3565],[20.3776,47.6676,100.8373],[20.3705,47.6698,100.6378],[20.3626,47.6804,101.7361],[20.3491,47.6908,105.767],[20.3554,47.701,106.8962],[20.3519,47.7091,108.7994],[20.3492,47.7106,109.33],[20.302,47.7026,111.7986],[20.2704,47.7006,113.3402],[20.2644,47.6926,114.0702],[20.2628,47.6864,109.5271],[20.258,47.6845,109.008],[20.2326,47.6862,109.2244],[20.2198,47.6896,108.3473],[20.1989,47.6913,107.8059],[20.1791,47.7048,107.214],[20.1734,47.7067,106.9498],[20.1382,47.7021,106.379],[20.1211,47.6961,106.686],[20.1096,47.6833,101.2396],[20.1001,47.6788,101.7314],[20.0978,47.6749,99.7611],[20.0971,47.6648,99.3847],[20.0953,47.6616,98.8414],[20.0609,47.6547,98.0575],[20.0571,47.6407,97.6189],[20.0382,47.6225,96.5201],[20.0278,47.6206,96.518],[20.0131,47.6235,97.3702],[20.0026,47.6232,97.8096]]]]}}