{"type": "Feature","id": "4910","bbox": [16.77078,46.7813,16.91266,46.90867],"geometry": {"type": "Polygon","coordinates": [[[16.81035,46.7813,196.5101],[16.87508,46.78966,220.0245],[16.91266,46.8001,191.8722],[16.89596,46.87735,199.0894],[16.84584,46.90867,188.5098],[16.77078,46.89993,200.7374],[16.77485,46.83768,190.4746],[16.81035,46.82098,230.5332],[16.81035,46.7813,196.5101]]]}
,"properties": {"ISO3166-1-Alpha-3": "HUN","country": "Hungary","fill": "#F0F","name": "Zalaegerszeg","area_km2": 109.36782,"hist_schema_id": "Elevation0-9000","hist_area_km2": {"150": 26.61018,"175": 30.80959,"200": 24.90617,"225": 14.14323,"250": 7.9219,"275": 3.134,"300": 1.6251,"325": 0.21766}}}