{"type": "Feature","bbox": [17.1799,46.0644,17.5784,46.4128],"geometry": {"type": "MultiPolygon","coordinates": [[[[17.5782,46.1679,171.4824],[17.5784,46.19,184.66],[17.5763,46.1959,179.6148],[17.5689,46.2032,182.8606],[17.5645,46.2052,176.6279],[17.5347,46.2052,174.3131],[17.5302,46.2128,164.6926],[17.5282,46.2206,163.2108],[17.514,46.2284,161.9958],[17.5047,46.2443,155.7753],[17.5045,46.2518,174.5822],[17.5082,46.262,177.2018],[17.5077,46.3183,152.3797],[17.5111,46.3222,160.2204],[17.5181,46.3249,156.9289],[17.5354,46.3281,169.4366],[17.5365,46.3323,163.039],[17.5356,46.3445,167.7417],[17.533,46.3463,167.72],[17.5086,46.3496,169.864],[17.5072,46.352,162.4642],[17.507,46.3601,163.6873],[17.5049,46.3623,160.4408],[17.491,46.3631,158.6587],[17.4672,46.3712,172.3721],[17.4643,46.3789,166.6687],[17.454,46.3852,159.1545],[17.453,46.3998,152.32],[17.4439,46.4119,163.185],[17.4378,46.4128,161.1556],[17.4337,46.4115,158.9657],[17.4319,46.3992,147.7814],[17.4199,46.3921,145.5081],[17.4163,46.3942,145.9663],[17.4182,46.4014,144.9685],[17.413,46.4046,145.3829],[17.4007,46.3998,149.122],[17.3715,46.3985,181.5686],[17.3664,46.3993,165.8954],[17.3573,46.4037,154.8372],[17.3443,46.4057,154.3578],[17.3395,46.4046,147.8452],[17.3365,46.4004,155.6434],[17.3325,46.3999,167.8945],[17.3248,46.407,148.0783],[17.3187,46.4074,146.8972],[17.3073,46.4038,172.1644],[17.3057,46.4016,165.714],[17.3069,46.399,165.4076],[17.3135,46.3959,157.0283],[17.3133,46.3824,147.9946],[17.2949,46.3788,163.228],[17.2936,46.3761,159.9266],[17.2931,46.3651,170.7039],[17.2894,46.3588,159.356],[17.2855,46.3559,161.117],[17.2779,46.3554,162.7322],[17.2662,46.3612,163.2886],[17.2564,46.3576,168.2892],[17.2374,46.3637,166.6107],[17.2298,46.362,165.951],[17.228,46.3526,172.9422],[17.2239,46.3505,168.2925],[17.2105,46.3504,165.0759],[17.2049,46.3577,164.7863],[17.1986,46.3606,162.0665],[17.1879,46.3598,178.7526],[17.1799,46.3546,174.0002],[17.1802,46.3315,181.0797],[17.1844,46.3255,173.7693],[17.1892,46.3254,173.4479],[17.1967,46.3304,166.1199],[17.2052,46.3333,160.1166],[17.2134,46.3312,163.2048],[17.2365,46.3204,158.5211],[17.2338,46.3123,159.8351],[17.2339,46.3037,159.4229],[17.2354,46.3002,153.5259],[17.2413,46.2948,165.8904],[17.2424,46.2899,164.2691],[17.2347,46.2741,159.2666],[17.2353,46.2512,155.9039],[17.2389,46.2474,169.2075],[17.2469,46.2452,156.3106],[17.2547,46.2477,149.0485],[17.2586,46.2473,150.4332],[17.2642,46.2307,148.259],[17.2627,46.2277,150.8344],[17.2577,46.2251,152.8763],[17.2315,46.2153,156.672],[17.2292,46.2132,155.1988],[17.2288,46.2098,162.0598],[17.2355,46.2009,171.2868],[17.2421,46.1849,158.4632],[17.2488,46.1799,146.6142],[17.2506,46.1638,149.2567],[17.2578,46.154,151.2013],[17.2603,46.147,141.619],[17.2683,46.1464,151.8441],[17.2791,46.1498,137.0729],[17.2835,46.1481,133.8322],[17.2847,46.14,134.102],[17.2888,46.1297,151.1065],[17.2855,46.1164,150.4219],[17.2891,46.1063,152.2894],[17.2866,46.0988,142.1324],[17.2873,46.0912,140.8367],[17.2969,46.0847,131.5173],[17.3056,46.0824,128.8119],[17.3102,46.0766,128.8197],[17.3186,46.0742,126.833],[17.3249,46.0655,125.1466],[17.3317,46.0644,119.8993],[17.3372,46.0662,122.867],[17.3396,46.0717,118.0264],[17.345,46.0775,117.8163],[17.346,46.0884,112.7446],[17.352,46.0939,119.1058],[17.3719,46.0968,129.0031],[17.3759,46.0988,129.0327],[17.3758,46.1108,140.0192],[17.3721,46.1208,134.4212],[17.3829,46.1345,125.2837],[17.4124,46.1349,139.0341],[17.4269,46.1321,141.0573],[17.4522,46.137,142.5143],[17.4644,46.1437,155.5304],[17.477,46.1436,159.909],[17.4777,46.1538,163.9757],[17.4796,46.1567,160.1895],[17.4911,46.1555,165.657],[17.5015,46.1569,180.2256],[17.5183,46.1643,163.6586],[17.5292,46.1717,188.0395],[17.5342,46.1729,184.6644],[17.5639,46.1714,184.6091],[17.5722,46.1671,171.4036],[17.5782,46.1679,171.4824]]]]}
,"properties": {"GID_2": "HUN.15.8_1","GID_0": "HUN","country": "Hungary","GID_1": "HUN.15_1","province": "Somogy","NL_NAME_1": "NA","county": "Nagyatád","VARNAME_2": "Nagyatádi","NL_NAME_2": "NA","TYPE_2": "Kistérség","ENGTYPE_2": "Subregion","CC_2": "NA","HASC_2": "NA","name": "Nagyatád.county","area_km2": 642.9359,"hist_schema_id": "Elevation0-9000","hist_area_km2": {"125": 172.3319,"150": 351.5905,"175": 117.9714,"200": 1.0421}}}