{"type": "Feature","bbox": [19.9424,47.8796,20.2561,48.1437],"geometry": {"type": "MultiPolygon","coordinates": [[[[20.0906,48.1437,398.3449],[20.0825,48.1267,342.7104],[20.0755,48.1174,382.5007],[20.0697,48.1151,323.8468],[20.0456,48.1135,214.5211],[20.0412,48.1071,229.8752],[20.04,48.0998,213.5792],[20.0114,48.0999,267.6178],[19.9788,48.0968,334.5963],[19.9707,48.0942,319.075],[19.9698,48.0896,369.8768],[19.9717,48.0788,425.4315],[19.9843,48.077,442.3408],[20.0095,48.065,315.7097],[20.0158,48.0589,340.4781],[20.0195,48.0414,304.0822],[20.0343,48.0284,230.6059],[20.029,48.0242,229.7958],[20.0023,48.0203,264.7314],[19.9952,48.0169,288.5061],[19.9902,48.0084,266.8604],[19.9946,47.9995,235.6111],[19.9941,47.9901,326.4427],[19.9735,47.9817,284.0693],[19.9727,47.9676,354.3931],[19.9712,47.9634,372.6383],[19.948,47.9541,371.0526],[19.9424,47.9356,528.7956],[19.947,47.9288,512.0171],[19.9539,47.9206,552.4468],[19.9777,47.9076,381.1872],[19.9947,47.8926,502.4815],[20.0118,47.8865,628.4092],[20.0371,47.8855,524.9344],[20.0575,47.8796,528.8697],[20.0627,47.881,505.0531],[20.0761,47.8894,428.509],[20.0969,47.8898,468.6474],[20.1042,47.8958,432.4031],[20.1101,47.8972,436.6989],[20.1121,47.8996,442.9581],[20.1265,47.9068,308.0391],[20.1357,47.9093,271.645],[20.1524,47.9074,318.5518],[20.1769,47.8928,220.7791],[20.2017,47.9004,259.0923],[20.2176,47.9002,193.9828],[20.2336,47.9108,232.6261],[20.2458,47.9155,220.6927],[20.2481,47.9191,273.3579],[20.2448,47.928,262.0719],[20.2451,47.9404,286.0231],[20.2503,47.9504,258.0142],[20.2561,47.956,266.5513],[20.2348,47.9654,290.7081],[20.2245,47.9836,337.1048],[20.2192,47.9882,315.3573],[20.2017,47.9918,320.1721],[20.1925,47.9956,271.3168],[20.162,48.0103,173.8753],[20.1558,48.0167,190.566],[20.1613,48.0223,236.5379],[20.192,48.0228,279.3367],[20.2153,48.0273,369.3319],[20.2172,48.0308,388.3819],[20.2173,48.0539,315.7982],[20.2277,48.0638,369.9571],[20.2335,48.0738,434.3299],[20.2425,48.0844,363.2132],[20.2184,48.0849,266.6742],[20.2004,48.0886,409.2535],[20.1942,48.0992,298.5267],[20.1745,48.1076,501.8154],[20.1654,48.12,394.5352],[20.1427,48.1341,406.6682],[20.1324,48.1366,398.7638],[20.1094,48.1382,387.4353],[20.0906,48.1437,398.3449]]]]}
,"properties": {"GID_2": "HUN.10.7_1","GID_0": "HUN","country": "Hungary","GID_1": "HUN.10_1","province": "Heves","NL_NAME_1": "NA","county": "Pétervására","VARNAME_2": "Pétervásárai","NL_NAME_2": "NA","TYPE_2": "Kistérség","ENGTYPE_2": "Subregion","CC_2": "NA","HASC_2": "NA","name": "Pétervására.county","area_km2": 432.9198,"hist_schema_id": "Elevation0-9000","hist_area_km2": {"150": 8.9496,"175": 33.1267,"200": 55.5126,"225": 66.1659,"250": 60.0044,"275": 47.9224,"300": 37.944,"325": 32.8593,"350": 28.3591,"375": 19.9332,"400": 14.8315,"425": 10.8067,"450": 7.8152,"475": 4.0724,"500": 2.0162,"525": 1.1082,"550": 0.54,"575": 0.2559,"600": 0.1564,"625": 0.1706,"650": 0.199,"675": 0.1706}}}