{"type":"Feature","properties":{"GID_2":"HUN.9.1_1","GID_0":"HUN","country":"Hungary","GID_1":"HUN.9_1","province":"Hajdú-Bihar","NL_NAME_1":"NA","county":"Balmazújváros","VARNAME_2":"NA","NL_NAME_2":"NA","TYPE_2":"Kistérség","ENGTYPE_2":"Subregion","CC_2":"NA","HASC_2":"NA","name":"Balmazújváros.county"},
"geometry":{"type": "MultiPolygon","coordinates": [[[[20.83,47.6684,96.8855],[20.8267,47.6652,89.6054],[20.8218,47.656,88.1502],[20.8204,47.6464,88.1312],[20.8232,47.6368,87.6963],[20.8233,47.6257,88.8501],[20.8255,47.6183,88.1031],[20.8252,47.6067,90.7492],[20.8303,47.5959,87.4387],[20.8468,47.585,91.2738],[20.8687,47.5779,89.5098],[20.8905,47.5779,89.6326],[20.9114,47.5856,88.9681],[20.947,47.5856,89.9788],[20.9607,47.5818,91.2524],[20.9818,47.5709,89.3641],[20.9897,47.561,89.4262],[20.9904,47.5402,89.1198],[20.9943,47.5315,87.9581],[20.9934,47.5283,87.4692],[20.9832,47.5152,87.2487],[20.9829,47.5121,87.4442],[20.9919,47.4975,87.8512],[20.9972,47.4922,87.3344],[21.0227,47.4855,87.4868],[21.0245,47.4832,87.515],[21.0263,47.4736,86.3971],[21.0301,47.4695,86.5812],[21.0349,47.4684,86.4527],[21.0449,47.469,86.4745],[21.0514,47.4764,86.9308],[21.056,47.4788,87.233],[21.0958,47.4803,87.2736],[21.1046,47.4925,87.3643],[21.1062,47.5109,87.1175],[21.1166,47.5168,87.2028],[21.1294,47.5331,87.1497],[21.1573,47.5428,87.0589],[21.178,47.5435,87.403],[21.1881,47.5459,87.8487],[21.205,47.5469,87.4933],[21.2152,47.5578,88.3427],[21.229,47.5652,87.9079],[21.238,47.5721,88.2195],[21.2723,47.5725,87.9965],[21.3309,47.5622,90.4436],[21.3345,47.5635,91.3104],[21.3439,47.5752,91.5917],[21.3613,47.5763,100.0162],[21.3762,47.5736,99.8032],[21.4018,47.5735,110.6457],[21.4134,47.5711,115.0157],[21.4295,47.5706,118.7946],[21.4413,47.5665,118.9636],[21.4523,47.5799,120.7835],[21.4574,47.5956,123.4639],[21.4571,47.6112,117.4537],[21.4535,47.618899999999996,115.4601],[21.4521,47.63,114.3591],[21.4292,47.6331,105.6428],[21.4036,47.6532,95.3909],[21.3977,47.6617,95.605],[21.3974,47.6789,94.4695],[21.3964,47.6816,94.3188],[21.3935,47.683,93.9833],[21.3127,47.6938,90.1764],[21.2764,47.694,89.4251],[21.253,47.7014,89.3912],[21.2443,47.7023,89.6939],[21.2045,47.7016,90.0394],[21.1952,47.6939,90.5117],[21.1765,47.6896,104.1553],[21.1652,47.6847,89.8177],[21.1137,47.6845,89.6044],[21.0947,47.6906,90.1671],[21.0857,47.696,91.2716],[21.0752,47.7036,91.4754],[21.0643,47.7173,90.5183],[21.0497,47.7158,90.8364],[21.0231,47.7214,89.1501],[21.0112,47.7335,89.1968],[20.9881,47.7438,90.1545],[20.9868,47.7189,104.3008],[20.984,47.7148,89.9866],[20.9742,47.7128,89.3551],[20.9577,47.7172,94.6395],[20.9463,47.7147,98.9297],[20.9381,47.7066,100.5918],[20.9345,47.7013,102.3665],[20.9319,47.6935,89.5999],[20.9299,47.6924,97.9154],[20.9128,47.6908,88.0],[20.8973,47.6974,88.8965],[20.8933,47.6975,93.0002],[20.8917,47.6946,99.927],[20.8916,47.6778,93.8079],[20.8893,47.6749,89.0558],[20.8842,47.6752,103.051],[20.8633,47.6826,91.8345],[20.8595,47.6821,89.7393],[20.855,47.6742,112.1971],[20.8548,47.6697,98.7082],[20.8578,47.6659,107.3382],[20.8733,47.6564,89.0363],[20.8776,47.6471,89.6212],[20.8768,47.6433,86.7173],[20.8744,47.6412,90.4818],[20.8671,47.6409,89.3473],[20.8527,47.6468,88.3276],[20.8416,47.664,101.8395],[20.8367,47.6671,99.7713],[20.83,47.6684,96.8855]]]]}}