{"type":"Feature","properties":{"GID_2":"HUN.9.4_1","GID_0":"HUN","country":"Hungary","GID_1":"HUN.9_1","province":"Hajdú-Bihar","NL_NAME_1":"NA","county":"Derecske-Létavértes","VARNAME_2":"NA","NL_NAME_2":"NA","TYPE_2":"Kistérség","ENGTYPE_2":"Subregion","CC_2":"NA","HASC_2":"NA","name":"Derecske-Létavértes.county"},
"geometry":{"type": "MultiPolygon","coordinates": [[[[21.8861,47.2896,99.7162],[21.8877,47.2901,100.9181],[21.8864,47.2914,100.1116],[21.8875,47.2932,99.6024],[21.8903,47.295,101.0847],[21.8969,47.3151,125.0643],[21.9061,47.3225,130.2698],[21.9097,47.3291,132.5911],[21.9152,47.3328,132.3392],[21.9231,47.3418,130.8792],[21.9269,47.3539,124.9253],[21.9363,47.3607,124.9568],[21.9413,47.368,124.0812],[21.9401,47.3733,125.1229],[21.9469,47.3755,124.2709],[21.9546,47.375,125.6711],[21.9605,47.3782,127.8391],[21.9632,47.3815,128.4589],[21.9767,47.3805,129.3596],[21.977,47.3786,125.73],[21.9802,47.3786,128.6094],[21.9921,47.3818,128.085],[21.9968,47.3813,132.4222],[21.9985,47.3784,133.6405],[22.001,47.3775,134.3356],[22.0136,47.3761,143.5969],[22.0201,47.3869,139.769],[22.0251,47.3918,132.3107],[22.0371,47.4137,118.4441],[22.0366,47.4167,118.5279],[22.0313,47.423,121.8788],[22.0354,47.4245,122.8498],[22.0336,47.4265,123.646],[22.0369,47.4277,121.781],[22.0275,47.4427,123.3421],[22.0344,47.4513,121.8446],[22.0225,47.4548,123.3864],[22.0156,47.4658,127.1954],[22.0144,47.471,130.5586],[22.0091,47.4762,140.121],[22.0087,47.4836,137.9966],[22.0175,47.5077,133.5969],[21.9909,47.533,131.032],[21.9824,47.5386,142.5241],[21.9767,47.5392,132.2141],[21.9641,47.5364,139.7438],[21.9561,47.5326,132.9223],[21.9557,47.5133,129.4994],[21.9633,47.5009,136.6839],[21.9524,47.4847,132.3835],[21.9507,47.4749,131.793],[21.9358,47.4723,124.6399],[21.9291,47.4655,123.0947],[21.9183,47.4626,125.6822],[21.906,47.4641,124.7575],[21.8943,47.4619,119.6185],[21.8806,47.464,126.0661],[21.8698,47.4601,118.0469],[21.8627,47.4528,118.0006],[21.8557,47.4485,115.9605],[21.8445,47.4493,116.9285],[21.8329,47.4473,117.6577],[21.8245,47.4514,123.4999],[21.8233,47.4714,121.7719],[21.8151,47.4748,129.0918],[21.7997,47.4777,123.6556],[21.7958,47.4761,121.0547],[21.7906,47.4694,128.2121],[21.7862,47.462,118.4724],[21.7849,47.4517,122.1723],[21.7791,47.4469,116.2425],[21.7498,47.4543,120.5915],[21.7208,47.4435,113.5589],[21.6794,47.4429,108.9866],[21.6755,47.4455,106.9818],[21.6752,47.4548,120.5438],[21.6735,47.458,119.6958],[21.6632,47.4622,120.7063],[21.6556,47.4629,108.7693],[21.6431,47.4602,107.3327],[21.6257,47.4594,104.2617],[21.612,47.4562,104.749],[21.596,47.4465,102.2231],[21.5806,47.4397,102.7334],[21.5559,47.4391,100.3709],[21.556,47.4268,100.7128],[21.5461,47.4243,97.2244],[21.5441,47.4217,97.7566],[21.5458,47.4191,98.1592],[21.5553,47.4149,99.6592],[21.5521,47.4054,99.3493],[21.547,47.3997,97.7544],[21.5342,47.3983,95.5871],[21.5308,47.3964,93.9122],[21.5273,47.3912,96.9379],[21.5273,47.3797,94.8217],[21.5257,47.3765,94.9835],[21.5038,47.372,93.9371],[21.4996,47.3616,92.9711],[21.4724,47.3545,93.5735],[21.459,47.347,92.3009],[21.4353,47.3469,91.7541],[21.4338,47.3409,93.9975],[21.4339,47.335,93.0081],[21.4354,47.3326,96.2574],[21.4447,47.3312,92.3538],[21.4601,47.3253,93.0192],[21.4746,47.3158,93.594],[21.4777,47.306399999999996,92.2742],[21.4864,47.2926,91.858],[21.507,47.2852,92.8177],[21.5123,47.2785,94.171],[21.5158,47.2774,94.2774],[21.5241,47.2775,93.9824],[21.5277,47.2795,93.9242],[21.5331,47.2906,93.5916],[21.54,47.2941,94.233],[21.541,47.3048,93.7373],[21.544,47.3104,92.789],[21.5455,47.3206,93.7862],[21.5604,47.3276,93.6767],[21.5718,47.3408,94.2105],[21.5783,47.3409,95.599],[21.5876,47.3377,93.4622],[21.6007,47.3293,93.3297],[21.6111,47.3188,94.8543],[21.6137,47.3113,94.6982],[21.6241,47.3089,95.541],[21.6373,47.2971,95.1773],[21.6388,47.289,95.0285],[21.6405,47.2874,95.6521],[21.6533,47.2875,96.204],[21.6552,47.2898,96.186],[21.656,47.2972,96.4564],[21.6622,47.299,96.1066],[21.6674,47.2972,93.7956],[21.6695,47.2881,95.9325],[21.6761,47.2871,95.1917],[21.6849,47.2928,96.3215],[21.7178,47.2942,97.7488],[21.7199,47.3063,97.8022],[21.7287,47.3195,96.447],[21.7595,47.3314,101.9884],[21.7703,47.3442,99.8947],[21.783,47.3484,101.3945],[21.8128,47.3485,106.4508],[21.8326,47.3432,108.9918],[21.8441,47.3457,112.3306],[21.8494,47.3451,112.3071],[21.8661,47.326,119.9937],[21.8806,47.2961,101.9486],[21.885,47.3029,129.6063],[21.8861,47.2896,99.7162]]]]}}