{"type":"Feature","properties":{"GID_2":"HUN.6.7_1","GID_0":"HUN","country":"Hungary","GID_1":"HUN.6_1","province":"Csongrád","NL_NAME_1":"NA","county":"Szentes","VARNAME_2":"NA","NL_NAME_2":"NA","TYPE_2":"Kistérség","ENGTYPE_2":"Subregion","CC_2":"NA","HASC_2":"NA","name":"Szentes.county"},
"geometry":{"type": "MultiPolygon","coordinates": [[[[20.5875,46.7592,82.1304],[20.5886,46.7673,81.2006],[20.5871,46.772,81.4176],[20.5735,46.7783,81.3883],[20.5623,46.787,81.5143],[20.4908,46.7848,80.9948],[20.4861,46.7869,81.1414],[20.4775,46.7969,83.1755],[20.4448,46.8076,82.9025],[20.4185,46.8071,83.0292],[20.4054,46.7933,83.4553],[20.3443,46.7843,84.4774],[20.3381,46.7813,83.7736],[20.338,46.7777,84.3689],[20.3414,46.771,83.9563],[20.3396,46.7689,84.1742],[20.3359,46.7683,84.4261],[20.3001,46.7693,83.6702],[20.2648,46.7844,84.6563],[20.254,46.7937,83.3484],[20.2451,46.797,82.9778],[20.2335,46.8003,82.8858],[20.21,46.8003,83.0345],[20.2085,46.7982,82.6222],[20.215,46.7819,81.1612],[20.2113,46.7805,88.1436],[20.1934,46.7806,80.7611],[20.1874,46.7777,81.3832],[20.1826,46.771,79.6917],[20.1823,46.7531,79.5821],[20.1844,46.7496,81.5272],[20.1934,46.7458,83.6058],[20.1939,46.7435,84.5748],[20.1763,46.731,79.34],[20.1746,46.7271,80.1741],[20.1858,46.7168,77.0],[20.1866,46.6992,80.1381],[20.1912,46.6893,81.113],[20.2096,46.6811,81.1543],[20.2115,46.6779,77.1557],[20.2115,46.6721,81.4788],[20.2083,46.669,80.6832],[20.1884,46.6687,79.7957],[20.1817,46.6651,79.5058],[20.1782,46.6581,79.1612],[20.185,46.6484,85.3754],[20.1851,46.643,79.6057],[20.1803,46.6381,82.7105],[20.1726,46.6386,81.3053],[20.1695,46.6367,81.9948],[20.168,46.6207,79.7679],[20.1515,46.5955,78.9536],[20.1477,46.5939,79.1025],[20.1343,46.5937,79.0882],[20.1306,46.5917,81.9765],[20.1304,46.5846,79.3003],[20.1344,46.5735,79.4507],[20.1386,46.5706,80.6305],[20.1469,46.5728,80.5722],[20.1727,46.5655,78.8039],[20.1845,46.5642,78.558],[20.2083,46.5536,80.2613],[20.2714,46.5535,82.6981],[20.2998,46.5498,82.9133],[20.3049,46.5477,81.6936],[20.3067,46.5453,79.368],[20.3063,46.536,81.2509],[20.3026,46.527,82.0578],[20.3066,46.5146,82.2912],[20.3103,46.5132,82.1419],[20.3146,46.5153,80.7743],[20.3147,46.5272,80.3128],[20.3177,46.5304,81.1417],[20.332,46.528,81.9627],[20.3575,46.5279,82.6615],[20.3649,46.5235,81.126],[20.3694,46.5231,81.1584],[20.3881,46.528,81.3642],[20.399,46.5293,81.3747],[20.4103,46.5334,80.6094],[20.4161,46.5386,80.2168],[20.4181,46.5525,80.4981],[20.4291,46.5574,81.5215],[20.4527,46.5587,81.898],[20.468,46.5569,81.9497],[20.4826,46.5619,83.1301],[20.5024,46.5636,83.8549],[20.5207,46.5717,84.7583],[20.5375,46.5737,83.9228],[20.5658,46.5827,85.1375],[20.5768,46.5832,85.9443],[20.5775,46.6301,85.8044],[20.5732,46.6412,85.8103],[20.5727,46.6623,87.2],[20.5686,46.6712,86.2661],[20.5679,46.6875,85.6519],[20.5705,46.6929,84.0187],[20.584,46.6997,83.1644],[20.5764,46.7114,82.8867],[20.5758,46.7391,83.5268],[20.577,46.7435,82.9387],[20.5875,46.7592,82.1304]]]]}}