{"type": "Feature","bbox": [19.64,46.1303,19.9754,46.4153],"geometry": {"type": "MultiPolygon","coordinates": [[[[19.6946,46.1872,115.632],[19.6968,46.1884,114.5461],[19.7114,46.1801,111.5662],[19.7147,46.1743,111.2776],[19.7198,46.1717,113.1909],[19.7271,46.1699,111.1867],[19.7323,46.1717,111.0589],[19.7394,46.1681,112.3619],[19.7573,46.1486,108.2508],[19.7781,46.1462,105.5485],[19.7932,46.1414,104.6639],[19.7987,46.1376,104.5801],[19.8164,46.1303,105.1915],[19.841,46.144,103.5853],[19.8511,46.152,122.6806],[19.8663,46.153,100.55],[19.897,46.1609,93.9348],[19.9173,46.167,93.8882],[19.9304,46.1748,90.101],[19.9281,46.1821,88.6854],[19.929,46.1901,90.3194],[19.9485,46.1999,89.0318],[19.9528,46.2047,88.6295],[19.9538,46.2081,88.8631],[19.9504,46.2156,87.5905],[19.9488,46.2261,89.5849],[19.9314,46.2331,89.6979],[19.9293,46.2361,96.8783],[19.9296,46.2395,93.6759],[19.9361,46.2505,93.8377],[19.9572,46.2603,93.4235],[19.9575,46.2625,93.1421],[19.9513,46.2723,91.5468],[19.9519,46.2838,90.6975],[19.9624,46.2901,91.9044],[19.9754,46.3028,91.064],[19.9664,46.3128,88.6488],[19.9341,46.3381,93.0413],[19.9232,46.3494,92.5444],[19.9264,46.3539,92.5017],[19.9419,46.3598,97.7612],[19.9553,46.3754,91.6667],[19.9388,46.3874,92.8989],[19.9119,46.4001,92.3285],[19.8893,46.4153,95.267],[19.8749,46.4043,97.1718],[19.8722,46.3949,95.1931],[19.8648,46.3846,99.8506],[19.8532,46.3805,99.6892],[19.8431,46.3805,111.4934],[19.8152,46.3919,107.0497],[19.7961,46.3791,106.8578],[19.7698,46.3708,119.4645],[19.7601,46.3611,116.5863],[19.7534,46.3574,113.1193],[19.7396,46.3571,116.1423],[19.7305,46.3625,115.6115],[19.6969,46.3615,118.7364],[19.691,46.3596,119.6152],[19.6815,46.3536,118.9261],[19.6577,46.3484,124.889],[19.6561,46.3434,124.7246],[19.6575,46.3345,131.3067],[19.6743,46.3223,126.3907],[19.6872,46.309,123.2303],[19.6824,46.3022,126.0864],[19.6429,46.2741,133.5115],[19.64,46.2692,134.808],[19.6428,46.2641,130.0494],[19.6438,46.2551,129.5486],[19.6482,46.2459,127.3819],[19.667,46.2284,123.702],[19.6793,46.2112,131.8917],[19.6819,46.202,124.3346],[19.6896,46.1908,115.5822],[19.6946,46.1872,115.632]]]]}
,"properties": {"GID_2": "HUN.6.5_1","GID_0": "HUN","country": "Hungary","GID_1": "HUN.6_1","province": "Csongrád","NL_NAME_1": "NA","county": "Mórahalm","VARNAME_2": "NA","NL_NAME_2": "NA","TYPE_2": "Kistérség","ENGTYPE_2": "Subregion","CC_2": "NA","HASC_2": "NA","name": "Mórahalm.county","area_km2": 525.2482,"hist_schema_id": "Elevation0-9000","hist_area_km2": {"75": 0.4696,"100": 322.1806,"125": 199.9889,"150": 2.6092}}}