{"type":"Feature","properties":{"GID_2":"HUN.3.6_1","GID_0":"HUN","country":"Hungary","GID_1":"HUN.3_1","province":"Békés","NL_NAME_1":"NA","county":"Sarkad","VARNAME_2":"NA","NL_NAME_2":"NA","TYPE_2":"Kistérség","ENGTYPE_2":"Subregion","CC_2":"NA","HASC_2":"NA","name":"Sarkad.county"},
"geometry":{"type": "MultiPolygon","coordinates": [[[[21.2693,46.7024,99.3167],[21.2814,46.7049,89.2015],[21.2904,46.7047,88.2322],[21.2934,46.7031,87.0878],[21.2947,46.6975,85.767],[21.2986,46.6963,86.0849],[21.3054,46.6993,86.3467],[21.307,46.7051,91.8981],[21.3095,46.7068,101.0006],[21.3148,46.7064,111.0321],[21.3239,46.7025,89.7979],[21.3362,46.7118,87.7161],[21.3573,46.7122,114.1262],[21.3711,46.7143,88.6628],[21.3823,46.7106,93.6081],[21.4027,46.6997,105.3043],[21.4104,46.6941,89.4534],[21.4147,46.688,101.9419],[21.4235,46.6893,98.1757],[21.4226,46.6915,103.5171],[21.436,46.6959,88.0864],[21.4528,46.6889,89.0365],[21.4746,46.696,91.2803],[21.4803,46.6927,88.8544],[21.4858,46.6917,89.347],[21.4913,46.6863,89.5544],[21.4958,46.6871,89.3123],[21.5001,46.6944,89.8908],[21.504,46.6974,89.8935],[21.5091,46.6984,90.5558],[21.5089,46.7006,90.3925],[21.5109,46.7015,90.668],[21.5091,46.7052,90.578],[21.514,46.7081,90.2936],[21.5127,46.712,90.9932],[21.5222,46.7147,90.9297],[21.5309,46.7211,90.8254],[21.5321,46.7243,90.7913],[21.5283,46.7395,90.456],[21.5133,46.7454,90.8314],[21.4949,46.7578,88.6289],[21.4866,46.7587,89.1663],[21.4851,46.7647,88.9388],[21.4918,46.7761,88.2764],[21.4951,46.7753,87.9307],[21.511,46.7836,88.0465],[21.5133,46.7903,88.2856],[21.5169,46.7942,88.4287],[21.5155,46.7958,88.3397],[21.5203,46.8002,88.4714],[21.521,46.8058,88.2534],[21.5238,46.8088,87.9654],[21.5226,46.8122,88.169],[21.5241,46.8142,88.0417],[21.5228,46.8202,88.3809],[21.5206,46.8213,87.7454],[21.5221,46.8277,88.0945],[21.5208,46.8363,87.6066],[21.5247,46.8394,87.7914],[21.5362,46.8399,88.4175],[21.5395,46.8444,87.8534],[21.5396,46.8478,88.063],[21.5498,46.8491,88.365],[21.5587,46.854,89.7429],[21.5707,46.8542,89.5947],[21.5716,46.8558,94.0811],[21.5825,46.8578,90.1639],[21.586,46.8602,90.784],[21.5968,46.8608,92.5752],[21.5994,46.865,92.2694],[21.6031,46.8663,91.926],[21.6049,46.869,91.6958],[21.6027,46.8792,92.5628],[21.6051,46.8853,92.2542],[21.6159,46.8868,91.2217],[21.6088,46.9047,91.849],[21.6043,46.9043,94.0084],[21.6018,46.9069,93.5427],[21.6019,46.9095,92.8383],[21.6006,46.9095,92.2438],[21.601,46.9164,92.8562],[21.5989,46.9183,93.2259],[21.6003,46.9278,91.499],[21.6076,46.9328,92.2936],[21.6399,46.9333,94.7018],[21.6424,46.9392,94.4272],[21.6506,46.9433,92.933],[21.6528,46.948,95.0297],[21.6575,46.9502,93.4612],[21.6571,46.9523,94.2596],[21.6596,46.9563,94.0594],[21.6747,46.954,95.06],[21.6774,46.9594,94.6769],[21.6804,46.9607,95.081],[21.6835,46.9672,95.544],[21.6782,46.9695,95.6656],[21.6696,46.9705,95.697],[21.672,46.9804,94.5394],[21.6778,46.9865,94.9389],[21.6792,46.9894,95.0903],[21.6776,46.9929,94.953],[21.6809,46.9983,94.8846],[21.6891,46.9998,96.1237],[21.6906,47.0021,95.9621],[21.6827,47.0065,96.0323],[21.6799,47.013,97.0352],[21.6795,47.0187,96.0025],[21.6625,47.0209,96.7355],[21.6514,47.0355,97.3257],[21.6475,47.0335,95.6544],[21.6363,47.0349,96.0836],[21.6277,47.0209,94.2875],[21.6232,47.009,93.7554],[21.6123,47.0006,92.679],[21.5916,46.9946,92.1971],[21.5752,47.0006,91.7174],[21.562,46.9933,91.3379],[21.5497,46.9785,89.8671],[21.5489,46.9725,90.3382],[21.5516,46.9626,90.2374],[21.5508,46.958,91.2525],[21.5484,46.9558,91.2767],[21.5179,46.9566,89.5282],[21.5056,46.952,89.631],[21.4887,46.9512,87.9093],[21.4708,46.945,88.661],[21.4423,46.9531,88.2507],[21.4142,46.9538,88.0525],[21.4077,46.9395,86.2838],[21.4022,46.9353,87.0351],[21.3969,46.9352,86.1593],[21.3834,46.9418,86.4121],[21.3798,46.9421,86.4005],[21.3714,46.9318,85.9942],[21.3517,46.9308,84.8244],[21.3103,46.9175,89.8242],[21.2999,46.9111,86.9968],[21.2764,46.8879,85.9527],[21.2757,46.8612,84.9236],[21.2797,46.8489,85.064],[21.2775,46.8403,84.6432],[21.2887,46.8245,84.6182],[21.3029,46.8095,84.6095],[21.311,46.787,84.7541],[21.2995,46.7739,87.1554],[21.2951,46.7652,85.4592],[21.295,46.7568,85.1837],[21.2987,46.7481,85.0199],[21.2975,46.7334,85.8828],[21.2925,46.7256,87.1556],[21.2666,46.7164,97.6838],[21.2656,46.7128,99.8268],[21.2693,46.7024,99.3167]]]]}}