{"type": "Feature","bbox": [16.4227,47.2732,17.928,48.0208],"geometry": {"type": "MultiPolygon","coordinates": [[[[17.8823,47.5344,149.1093],[17.8824,47.5398,148.607],[17.9138,47.5403,149.7164],[17.9175,47.5413,151.8708],[17.9201,47.5442,150.5383],[17.92,47.5475,148.158],[17.9102,47.5532,141.7326],[17.9093,47.5608,141.4488],[17.9159,47.5801,135.514],[17.917,47.5907,132.9177],[17.9262,47.5991,130.9755],[17.928,47.6034,130.7269],[17.9261,47.6164,128.5677],[17.9059,47.6232,127.252],[17.8912,47.6328,125.942],[17.8879,47.6387,124.6663],[17.888,47.6484,123.3647],[17.8949,47.661,135.7942],[17.8928,47.6986,116.6642],[17.896,47.7084,118.8438],[17.8956,47.7248,118.3802],[17.9002,47.7336,119.0214],[17.9068,47.7406,103.5],[17.8989,47.7382,103.5],[17.8862,47.7393,103.5],[17.8695,47.7448,103.5],[17.8619,47.745,103.5],[17.848,47.7424,103.5],[17.8045,47.7444,103.5],[17.7807,47.7417,103.5],[17.7705,47.7446,103.5],[17.7635,47.7494,105.0107],[17.725,47.7543,104.0],[17.7093,47.7604,104.0],[17.6829,47.7789,105.6745],[17.649,47.7958,109.4969],[17.609,47.8224,109.6708],[17.5957,47.8233,118.0326],[17.5744,47.8154,111.0085],[17.567,47.8166,109.5645],[17.5534,47.8332,115.9111],[17.5462,47.8459,113.7759],[17.5351,47.8606,117.3479],[17.5246,47.8678,110.0],[17.5135,47.8673,112.499],[17.5,47.8706,116.014],[17.4763,47.8816,117.9467],[17.4624,47.8854,114.6217],[17.4507,47.8936,128.5925],[17.4354,47.9193,136.2794],[17.4265,47.9304,126.7416],[17.4166,47.9389,124.4659],[17.4027,47.9559,118.0],[17.3914,47.9638,119.9879],[17.3792,47.9597,126.156],[17.3762,47.9613,115.6283],[17.3678,47.9723,125.4981],[17.348,47.991,124.9057],[17.3345,47.9979,127.5],[17.3122,47.9997,127.5],[17.2863,47.9971,128.0],[17.2584,48.0014,133.2633],[17.2509,48.0094,137.0306],[17.2511,48.0163,129.6528],[17.2463,48.0203,125.7561],[17.2291,48.0185,138.2205],[17.2127,48.0208,137.6498],[17.2052,48.0175,136.8271],[17.1918,48.0172,129.3736],[17.1727,48.0126,129.5001],[17.1606,48.008,129.7047],[17.1621,48.0071,129.7047],[17.1582,48.0045,130.9413],[17.1355,47.9944,130.3332],[17.1363,47.9938,129.6616],[17.1327,47.9913,129.7004],[17.0959,47.9713,130.2519],[17.1009,47.9676,128.735],[17.1183,47.9613,127.569],[17.1112,47.9548,127.6855],[17.1091,47.95,128.2299],[17.1019,47.9425,128.7574],[17.0922,47.9348,128.4607],[17.114,47.9278,127.5426],[17.104,47.9109,126.6028],[17.0969,47.9047,128.5438],[17.1054,47.8997,125.4122],[17.0865,47.8749,124.584],[17.0817,47.8749,123.8444],[17.0791,47.878,123.881],[17.05,47.8723,125.7471],[17.0509,47.8705,127.0217],[17.0413,47.8673,125.3085],[17.019,47.8688,132.3582],[17.0112,47.8588,129.5605],[17.0528,47.8383,122.9863],[17.0479,47.8333,122.6552],[17.051,47.8317,122.7571],[17.0482,47.8288,123.1054],[17.0621,47.8232,123.8918],[17.061,47.8205,123.5853],[17.0757,47.8087,120.4199],[17.0731,47.8086,119.0236],[17.0548,47.798,118.3642],[17.0522,47.7944,117.9841],[17.0595,47.7866,117.4778],[17.0621,47.7781,116.5963],[17.0651,47.7782,117.9436],[17.0683,47.7679,115.1042],[17.0669,47.7667,118.5975],[17.0697,47.7575,117.1024],[17.071,47.7577,116.7655],[17.072,47.7504,115.326],[17.0715,47.7286,120.9833],[17.0755,47.7235,117.1733],[17.0943,47.7087,117.0137],[17.0417,47.7048,113.809],[16.9777,47.6949,116.4744],[16.9138,47.6881,116.0368],[16.8764,47.6888,115.1786],[16.8729,47.6905,114.3988],[16.8701,47.7218,116.079],[16.8681,47.7221,115.7838],[16.8568,47.7115,114.9323],[16.8403,47.705,115.2696],[16.8296,47.6832,114.371],[16.7502,47.6819,112.0],[16.7227,47.723,115.5778],[16.7222,47.7358,112.0],[16.6728,47.7409,116.2278],[16.6594,47.7437,148.1156],[16.6572,47.7421,161.8261],[16.6409,47.7487,246.7201],[16.6396,47.755,262.1471],[16.6355,47.7595,212.7615],[16.6267,47.7574,202.906],[16.6105,47.7608,169.7849],[16.6,47.7566,154.922],[16.5937,47.7595,159.8005],[16.5892,47.7559,173.7811],[16.5677,47.752,236.8308],[16.5492,47.752,256.6575],[16.5488,47.7497,279.9893],[16.5472,47.7498,262.5722],[16.5495,47.7464,294.268],[16.5478,47.7457,282.5618],[16.55,47.7436,302.6247],[16.5388,47.7404,271.5924],[16.54,47.7387,262.3359],[16.5377,47.7371,267.6527],[16.5534,47.723,222.9615],[16.5458,47.7175,223.0139],[16.5423,47.7126,231.595],[16.5287,47.7108,236.6068],[16.5218,47.7127,239.6561],[16.5181,47.7074,254.9916],[16.5122,47.7074,253.8667],[16.5055,47.704,257.0904],[16.501,47.7052,260.314],[16.4949,47.6991,270.2726],[16.4876,47.6979,277.7026],[16.4855,47.6955,281.5349],[16.4872,47.6932,291.8672],[16.4858,47.6919,288.2144],[16.4774,47.6908,310.2766],[16.4759,47.6817,372.3348],[16.4721,47.6828,341.3864],[16.4675,47.6813,359.5319],[16.4631,47.6831,365.5181],[16.4611,47.6846,365.3173],[16.4552,47.6973,324.6914],[16.4485,47.6967,349.3849],[16.4488,47.6921,407.8016],[16.4437,47.6778,496.8385],[16.4445,47.6745,499.7703],[16.4227,47.6657,560.8439],[16.4291,47.6612,563.6793],[16.441,47.6571,534.4363],[16.4526,47.6562,559.666],[16.4638,47.6517,557.6747],[16.4812,47.6503,495.5313],[16.4885,47.6422,495.8866],[16.4938,47.6427,526.6544],[16.4981,47.6398,481.7403],[16.5036,47.6405,457.3063],[16.5077,47.6388,464.1588],[16.5156,47.6466,490.8929],[16.5243,47.6416,420.4087],[16.53,47.6419,486.2485],[16.55,47.634,375.5466],[16.5737,47.6203,247.424],[16.5928,47.6181,195.3462],[16.6145,47.623,182.1759],[16.62,47.6262,178.4454],[16.6301,47.6285,201.5301],[16.6365,47.6282,209.0234],[16.654,47.6228,200.3358],[16.6607,47.6065,179.0461],[16.6727,47.6067,169.2907],[16.6743,47.6054,168.7768],[16.6676,47.5967,176.5679],[16.6763,47.5829,205.6516],[16.6763,47.5792,218.0353],[16.6725,47.5756,229.9241],[16.6723,47.5717,260.3713],[16.6653,47.5698,277.3589],[16.6646,47.5683,283.3077],[16.673,47.5603,262.9809],[16.6852,47.5617,254.5501],[16.6901,47.5599,259.4213],[16.6922,47.5583,256.7249],[16.6912,47.556,251.3758],[16.6994,47.5461,227.0159],[16.7053,47.5462,221.5709],[16.7071,47.5428,216.1703],[16.7124,47.5435,211.6089],[16.715699999999998,47.5401,232.0135],[16.7044,47.5336,227.0861],[16.7067,47.5233,259.0789],[16.6968,47.5186,257.5182],[16.696,47.5157,261.4639],[16.691,47.5108,248.8119],[16.6701,47.504,246.3878],[16.6637,47.5094,241.7321],[16.6577,47.5055,274.1158],[16.6535,47.5007,264.0322],[16.6542,47.4989,265.079],[16.6635,47.4837,215.7919],[16.6694,47.4797,209.8374],[16.6717,47.4747,204.0316],[16.6636,47.4667,202.3107],[16.663,47.4632,197.8157],[16.6611,47.4622,198.1996],[16.6632,47.4561,195.0363],[16.6503,47.4517,243.9052],[16.6528,47.4493,238.86],[16.6474,47.447,252.9459],[16.6375,47.4462,257.1923],[16.6287,47.4425,261.6286],[16.626,47.4386,255.9213],[16.6331,47.4316,242.8842],[16.6457,47.4229,248.2223],[16.6948,47.4128,186.2025],[16.6999,47.4134,183.9751],[16.7125,47.4209,183.5794],[16.7349,47.4262,186.5768],[16.7575,47.4372,191.0534],[16.7885,47.4386,172.3782],[16.8063,47.4341,176.2714],[16.8147,47.4339,169.733],[16.8189,47.4354,166.7432],[16.8254,47.4442,175.353],[16.8308,47.4457,176.6604],[16.8418,47.4428,175.4787],[16.851,47.4378,172.957],[16.8743,47.4168,176.7355],[16.9066,47.4162,155.5628],[16.9183,47.4126,153.1838],[16.929,47.4042,149.1526],[16.9498,47.3992,144.3185],[16.9586,47.4064,145.8667],[16.9651,47.4165,143.2422],[16.9688,47.4196,142.5615],[17.0018,47.4368,138.0604],[17.0122,47.4395,137.2626],[17.0323,47.448,147.2995],[17.0361,47.4509,143.9064],[17.0429,47.4609,133.3836],[17.0502,47.463,132.877],[17.0573,47.4614,133.2219],[17.0596,47.4556,133.1812],[17.0661,47.4517,135.7865],[17.0681,47.447,135.3951],[17.0663,47.4418,137.7113],[17.0566,47.4362,135.1022],[17.0554,47.4251,135.8303],[17.0451,47.4127,137.6656],[17.0457,47.4095,137.7409],[17.0541,47.4002,142.3018],[17.0629,47.404,140.1872],[17.1265,47.4213,133.6897],[17.1423,47.429,132.6899],[17.1497,47.4358,133.8721],[17.1633,47.4356,133.8435],[17.1766,47.4321,135.3664],[17.1856,47.4385,129.6335],[17.1947,47.4412,129.9694],[17.2152,47.4343,126.806],[17.2567,47.4346,134.5556],[17.291,47.4296,128.4052],[17.2985,47.4317,121.1629],[17.317,47.4439,120.1335],[17.3666,47.4454,127.2433],[17.3821,47.4535,124.2988],[17.3954,47.4761,116.4998],[17.4165,47.4774,117.8988],[17.427,47.4802,119.5117],[17.4325,47.4783,119.5079],[17.4347,47.4609,124.5986],[17.4468,47.4512,123.1186],[17.4493,47.4379,124.8365],[17.4547,47.431,125.9035],[17.4605,47.4286,126.3559],[17.4759,47.4283,130.205],[17.487,47.4259,131.6518],[17.4947,47.4275,131.5032],[17.5027,47.4335,138.6959],[17.5074,47.4406,129.028],[17.5083,47.4481,141.3348],[17.5121,47.4547,143.6714],[17.5227,47.4623,150.5054],[17.5374,47.4571,157.745],[17.5532,47.4478,150.7634],[17.5677,47.4421,148.452],[17.5824,47.4487,144.8222],[17.5832,47.4517,142.5433],[17.5798,47.4567,143.5177],[17.5799,47.4599,139.8847],[17.5886,47.4636,135.6],[17.6127,47.4568,137.7401],[17.6276,47.4599,135.2971],[17.6534,47.4504,142.3651],[17.6676,47.4538,177.1667],[17.6695,47.4611,172.1275],[17.6729,47.464,206.1693],[17.6945,47.47,165.0449],[17.7,47.4698,174.4514],[17.7019,47.4683,176.2761],[17.7029,47.4533,193.2808],[17.7062,47.4502,188.297],[17.7309,47.4506,181.6064],[17.737,47.4624,212.3911],[17.7437,47.4613,229.5234],[17.7483,47.459,212.1493],[17.7582,47.4493,202.1547],[17.7688,47.433,156.9766],[17.7761,47.4268,158.51],[17.7848,47.4159,185.1011],[17.79,47.4063,191.8395],[17.7891,47.4031,197.5653],[17.7796,47.3953,206.0355],[17.7786,47.3851,227.7034],[17.7735,47.3775,249.7733],[17.7581,47.3662,239.3176],[17.7499,47.3577,242.2203],[17.7321,47.3506,245.5799],[17.7268,47.3426,240.3893],[17.7274,47.3364,253.1291],[17.7348,47.3267,334.9091],[17.7371,47.3199,373.6607],[17.7573,47.3138,490.3628],[17.7589,47.2975,639.2217],[17.767,47.2865,461.9135],[17.7676,47.2739,396.9379],[17.7716,47.2734,420.0199],[17.7837,47.2732,478.9354],[17.7889,47.2754,492.38],[17.7877,47.3173,420.1565],[17.7929,47.3189,405.8234],[17.8213,47.3189,393.9481],[17.8286,47.3215,413.5128],[17.8403,47.3341,349.8669],[17.840699999999998,47.3484,454.8401],[17.8447,47.3612,397.3177],[17.8479,47.3654,319.0067],[17.8692,47.3709,216.1169],[17.8806,47.379,229.9378],[17.8799,47.4079,192.8254],[17.8944,47.4232,214.5612],[17.8957,47.4281,208.5504],[17.8945,47.437,238.9086],[17.882,47.4567,215.054],[17.8814,47.4659,204.5232],[17.8843,47.4717,196.476],[17.8859,47.4831,193.0853],[17.9023,47.4967,159.8451],[17.9043,47.5021,159.5941],[17.9028,47.5077,157.8086],[17.8944,47.5187,154.8271],[17.8881,47.5244,154.1208],[17.8823,47.5344,149.1093]]]]}
,"properties": {"GID_1": "HUN.8_1","GID_0": "HUN","country": "Hungary","province": "Gyor-Moson-Sopron","VARNAME_1": "Gyor-Sopron","NL_NAME_1": "NA","TYPE_1": "Megye","ENGTYPE_1": "County","CC_1": "NA","HASC_1": "HU.GS","ISO_1": "HU-GS","name": "Gyor-Moson-Sopron.province","area_km2": 4224.129,"hist_schema_id": "Elevation0-9000","hist_area_km2": {"100": 300.344,"125": 2741.228,"150": 433.435,"175": 222.192,"200": 199.909,"225": 113.239,"250": 76.933,"275": 42.789,"300": 15.788,"325": 8.215,"350": 7.385,"375": 10.391,"400": 11.404,"425": 11.664,"450": 10.904,"475": 7.946,"500": 5.403,"525": 2.288,"550": 1.003,"575": 0.503,"600": 0.417,"625": 0.446,"650": 0.259}}}