{"type":"Feature","properties":{"ISO3166-1-Alpha-3":"HUN","country":"Hungary","fill":"#FF0","id":"3156","name":"Gyor-Moson-Sopron"},
"geometry":{"type": "Polygon","coordinates": [[[17.26232,48.00728,128.0],[17.22089,48.01505,134.0401],[17.18482,48.02027,129.4321],[17.14834,48.00544,131.3008],[17.0856,47.97015,139.7134],[17.09614,47.96193,128.9957],[17.09573,47.95573,128.3826],[17.09087,47.94948,128.5065],[17.08808,47.9409,129.2369],[17.08612,47.93922,129.1933],[17.07682,47.93496,129.0659],[17.07413,47.93211,131.1081],[17.07516,47.92777,127.5576],[17.08012,47.92576,127.9707],[17.0854,47.92462,127.7751],[17.08746,47.92263,127.0195],[17.08333,47.90483,127.7226],[17.07754,47.89173,127.2909],[17.06762,47.88163,126.0122],[17.05119,47.87289,125.7471],[17.01656,47.8677,128.7042],[17.00406,47.86328,126.5798],[17.00437,47.85238,123.8336],[17.01067,47.84788,122.7993],[17.03165,47.84134,123.3191],[17.03951,47.83737,123.2047],[17.04912,47.81868,121.1817],[17.05563,47.81235,119.3923],[17.04064,47.80111,118.8446],[17.04199,47.78391,117.5401],[17.04871,47.76365,117.7906],[17.05057,47.73099,113.4554],[17.05553,47.72091,114.1675],[17.064,47.71329,112.7558],[17.07537,47.70848,112.8101],[17.0548,47.70202,119.3555],[16.98194,47.69544,113.7391],[16.90267,47.68203,116.1021],[16.86474,47.68673,114.7197],[16.85016,47.71293,115.2568],[16.83694,47.70536,114.684],[16.8173,47.68425,114.4049],[16.80624,47.67688,114.1763],[16.79745,47.67546,113.3058],[16.74113,47.68146,113.7455],[16.73038,47.6859,115.1521],[16.71922,47.69373,115.3106],[16.71678,47.69702,115.0705],[16.68793,47.671,115.3094],[16.69169,47.64719,115.2284],[16.68417,47.63842,136.9779],[16.6284,47.64782,180.006],[16.5908,47.64719,217.939],[16.55775,47.62984,324.6256],[16.57545,47.62495,234.088],[16.60842,47.62877,194.0013],[16.63023,47.622,186.2023],[16.6477,47.60614,178.0636],[16.65617,47.58593,237.1111],[16.65059,47.56656,264.5605],[16.66754,47.5601,263.51],[16.68139,47.55056,239.6345],[16.68914,47.53803,222.1438],[16.688,47.52263,272.3142],[16.67736,47.50987,243.3357],[16.64821,47.50155,258.6752],[16.63684,47.4932,241.4765],[16.64088,47.45292,268.1136],[16.62697,47.44555,266.9011],[16.6294,47.44377,261.836],[16.6416,47.43338,235.488],[16.65535,47.42602,233.4386],[16.70702,47.41819,183.0438],[16.73431,47.39956,180.4407],[16.76325,47.40333,178.5736],[16.83849,47.43545,173.2171],[16.86298,47.4215,165.7073],[16.94422,47.41199,146.2941],[17.05139,47.45421,133.3714],[17.07641,47.4493,136.416],[17.06607,47.42884,134.9973],[17.0577,47.40279,138.6395],[17.15258,47.43716,135.8959],[17.17883,47.424079999999996,131.9782],[17.20188,47.3984,144.7502],[17.24084,47.40806,139.8591],[17.26823,47.42271,125.942],[17.27691,47.43318,129.6368],[17.295,47.43067,122.3434],[17.3321,47.43868,123.4922],[17.36941,47.44093,129.3329],[17.40321,47.42439,123.6021],[17.41974,47.42021,120.751],[17.43773,47.41987,123.5107],[17.45209,47.42855,125.7854],[17.47431,47.42884,129.1898],[17.49695,47.43364,132.2767],[17.5171,47.45452,137.6125],[17.56867,47.44943,138.8424],[17.59741,47.46157,136.4148],[17.6374,47.44946,137.9651],[17.67978,47.47178,214.4802],[17.72587,47.48232,237.3823],[17.76122,47.47075,202.8534],[17.77858,47.48155,222.6772],[17.79739,47.47987,177.5376],[17.81548,47.47436,175.5819],[17.81641,47.49317,185.1993],[17.85145,47.47752,197.3521],[17.88245,47.45478,214.8683],[17.88245,47.47504,199.1034],[17.89785,47.50382,159.2505],[17.88669,47.53188,152.0651],[17.89558,47.53793,154.2651],[17.9178,47.53255,157.3743],[17.92907,47.54997,149.1741],[17.9055,47.57255,137.6406],[17.9271,47.6128,129.4605],[17.89765,47.63032,126.5717],[17.8994,47.66076,137.2097],[17.89176,47.67843,127.2867],[17.89599,47.69613,116.8417],[17.89486,47.71799,120.5067],[17.88617,47.73921,103.5],[17.88353,47.75252,109.6091],[17.82571,47.75001,110.7916],[17.742,47.76538,111.6946],[17.71924,47.77367,116.0269],[17.67668,47.78918,112.742],[17.66624,47.79703,114.1399],[17.65838,47.80732,111.3459],[17.63988,47.8192,111.7714],[17.61911,47.82923,114.2119],[17.60423,47.83424,113.1586],[17.59296,47.8331,108.5],[17.58294,47.82979,114.3985],[17.5726,47.82954,114.5672],[17.56041,47.83799,116.4601],[17.52661,47.87212,118.6687],[17.51731,47.87625,117.4488],[17.49219,47.87982,117.0126],[17.48186,47.88271,114.7307],[17.47204,47.88881,117.3625],[17.36941,47.98121,124.1421],[17.33789,47.99873,127.5],[17.27267,48.00534,128.0],[17.26232,48.00728,128.0]],
[[17.53752,47.60025,117.5604],[17.50483,47.63494,111.3566],[17.56291,47.66513,110.2239],[17.58195,47.71449,110.0],[17.67927,47.73706,110.59],[17.72652,47.73001,113.2625],[17.77165,47.73283,115.9634],[17.7928,47.69898,117.2229],[17.80409,47.66583,158.6169],[17.79633,47.6475,138.9618],[17.73357,47.62141,118.9418],[17.69126,47.6066,126.7617],[17.62708,47.6066,190.9129],[17.58759,47.58685,124.0067],[17.55233,47.60307,117.0548],[17.53752,47.60025,117.5604]]]}}