{"type": "Feature","bbox": [16.44,46.9052,16.7592,47.1243],"geometry": {"type": "MultiPolygon","coordinates": [[[[16.6737,47.1009,191.6407],[16.6705,47.103,191.7563],[16.6626,47.1165,193.3157],[16.6502,47.1178,210.3151],[16.6368,47.1241,209.9483],[16.63,47.1243,210.3426],[16.6231,47.1165,213.1198],[16.6166,47.1132,213.9741],[16.5841,47.1006,227.1525],[16.5713,47.1012,222.1392],[16.5645,47.0984,223.8957],[16.5591,47.0911,242.6366],[16.5469,47.0803,230.3938],[16.544,47.0703,222.0308],[16.5474,47.0557,206.1632],[16.5455,47.0517,203.861],[16.5376,47.05,216.4928],[16.5202,47.0534,216.9816],[16.5191,47.0556,213.3552],[16.5078,47.0499,211.2468],[16.5021,47.0511,206.9156],[16.4989,47.0488,206.2292],[16.477,47.0472,201.9519],[16.4698,47.0436,201.4185],[16.4624,47.0437,205.552],[16.4574,47.0406,231.9233],[16.4448,47.0386,230.7085],[16.4413,47.0363,232.7955],[16.4452,47.0348,220.1078],[16.44,47.0301,215.992],[16.4489,47.023,209.4413],[16.4648,47.0326,218.2981],[16.4716,47.0284,212.4495],[16.4762,47.0276,198.5792],[16.4788,47.0217,197.8399],[16.4833,47.023,199.1061],[16.4848,47.0184,198.5643],[16.4937,47.0105,196.8623],[16.4977,47.0105,195.8034],[16.5098,47.004,195.3336],[16.5135,47.0039,195.1497],[16.5127,47.0013,201.4718],[16.5071,47.0019,198.0406],[16.5068,47.0007,198.0406],[16.5052,47.0021,195.8098],[16.5026,46.9997,217.0856],[16.4981,46.9986,230.5746],[16.4903,47.0007,212.7057],[16.49,46.9977,237.5096],[16.4846,46.9946,207.9788],[16.48,46.9942,209.7292],[16.4798,46.9956,210.1304],[16.4754,46.9965,206.2199],[16.4751,46.9977,204.9855],[16.4674,46.9987,211.8228],[16.4788,46.9901,253.0254],[16.4846,46.9803,212.9821],[16.4957,46.9747,202.9547],[16.5029,46.964,196.6937],[16.5127,46.9618,195.9979],[16.5126,46.9595,196.7884],[16.5041,46.9543,199.9817],[16.4993,46.9468,207.1871],[16.5074,46.9433,225.6502],[16.5137,46.9436,233.7764],[16.5226,46.9487,226.2611],[16.5338,46.9511,229.1232],[16.5413,46.9585,223.8055],[16.5713,46.9657,217.9175],[16.5749,46.9617,221.0258],[16.5731,46.9551,225.5516],[16.5734,46.9477,237.8473],[16.5803,46.9333,247.858],[16.5797,46.9284,264.1104],[16.5825,46.9272,258.9845],[16.6019,46.9272,248.6096],[16.6051,46.9195,251.0654],[16.6186,46.9052,243.776],[16.6339,46.9215,242.0376],[16.6382,46.9239,252.6528],[16.6789,46.9264,203.267],[16.6822,46.9278,207.4009],[16.6879,46.9342,211.8281],[16.6916,46.9354,217.7752],[16.7356,46.9374,264.2283],[16.7209,46.9485,202.2244],[16.7225,46.9555,198.331],[16.7198,46.9617,208.7657],[16.7264,46.9678,226.0872],[16.7426,46.9696,210.4843],[16.7474,46.9727,196.1019],[16.7467,46.9951,240.1587],[16.7501,47.0073,242.9216],[16.7484,47.0152,234.6589],[16.7338,47.0273,202.4978],[16.7328,47.0296,190.3143],[16.7428,47.0344,184.6265],[16.7565,47.0367,192.7167],[16.7592,47.0391,187.3316],[16.7591,47.0417,181.9646],[16.7559,47.0462,176.1524],[16.7535,47.0543,185.2393],[16.7438,47.0571,177.5167],[16.7298,47.0674,179.9412],[16.7241,47.0779,182.6254],[16.7151,47.0775,185.3658],[16.7128,47.0792,190.1801],[16.7129,47.0824,188.3478],[16.7159,47.0853,187.5325],[16.728,47.0903,187.7381],[16.7285,47.095,187.1908],[16.7264,47.1019,195.0791],[16.7116,47.1051,188.8318],[16.6981,47.1023,189.8869],[16.6893,47.1064,189.9365],[16.6812,47.1014,192.6111],[16.6737,47.1009,191.6407]]]]}
,"properties": {"GID_2": "HUN.18.3_1","GID_0": "HUN","country": "Hungary","GID_1": "HUN.18_1","province": "Vas","NL_NAME_1": "NA","county": "Körmend","VARNAME_2": "Körmendi","NL_NAME_2": "NA","TYPE_2": "Kistérség","ENGTYPE_2": "Subregion","CC_2": "NA","HASC_2": "NA","name": "Körmend.county","area_km2": 332.6886,"hist_schema_id": "Elevation0-9000","hist_area_km2": {"175": 44.8962,"200": 153.4223,"225": 72.5392,"250": 56.9226,"275": 4.9082}}}