{"type": "Feature","bbox": [18.6431,47.0076,18.9375,47.2368],"geometry": {"type": "MultiPolygon","coordinates": [[[[18.7151,47.0303,124.3572],[18.7399,47.0076,124.9981],[18.7654,47.008,146.287],[18.7917,47.0135,145.8772],[18.8072,47.0142,143.3795],[18.8276,47.0177,158.5967],[18.8432,47.0234,184.821],[18.8449,47.0257,173.1583],[18.8448,47.0294,165.9819],[18.8403,47.037,158.4629],[18.8401,47.0406,151.8406],[18.8425,47.0434,158.0696],[18.8486,47.0459,145.6694],[18.8561,47.0455,151.494],[18.8636,47.0371,155.8902],[18.8696,47.0355,157.1266],[18.9048,47.0419,135.6701],[18.9375,47.053,94.0],[18.9189,47.0687,101.9799],[18.8993,47.0768,94.5],[18.8903,47.0871,94.5],[18.8843,47.0993,96.8899],[18.8809,47.1412,125.525],[18.8768,47.148,95.5],[18.875,47.1568,95.5],[18.8694,47.1661,101.9851],[18.8358,47.1689,97.6571],[18.8323,47.1708,122.928],[18.832,47.1738,117.6699],[18.8381,47.1898,96.8123],[18.8243,47.1942,116.4394],[18.8222,47.1967,118.037],[18.8311,47.2074,96.2923],[18.8305,47.2104,96.4588],[18.8054,47.2264,122.7601],[18.7962,47.236,112.7612],[18.7751,47.2368,150.2732],[18.7706,47.2355,148.3412],[18.7632,47.2288,140.2922],[18.7465,47.224,134.9587],[18.7244,47.2006,144.0543],[18.723,47.1967,147.2142],[18.724,47.1871,153.8667],[18.7316,47.1776,137.096],[18.7314,47.1748,132.371],[18.6849,47.1657,150.6409],[18.6688,47.1652,138.8519],[18.6653,47.1632,130.8013],[18.6664,47.1589,127.7593],[18.6776,47.1493,119.8644],[18.7043,47.144,127.4857],[18.7133,47.1312,123.1787],[18.7128,47.129,123.9465],[18.6787,47.1276,116.4832],[18.6761,47.1259,117.0516],[18.6708,47.1144,119.0555],[18.6529,47.1126,121.892],[18.6449,47.1105,133.1857],[18.6431,47.1086,131.9433],[18.6525,47.0883,132.5915],[18.6579,47.0813,122.0471],[18.6748,47.0673,132.8917],[18.6949,47.0541,123.7391],[18.7151,47.0303,124.3572]]]]}
,"properties": {"GID_2": "HUN.7.2_1","GID_0": "HUN","country": "Hungary","GID_1": "HUN.7_1","province": "Fejér","NL_NAME_1": "NA","county": "Adony","VARNAME_2": "NA","NL_NAME_2": "NA","TYPE_2": "Kistérség","ENGTYPE_2": "Subregion","CC_2": "NA","HASC_2": "NA","name": "Adony.county","area_km2": 313.3627,"hist_schema_id": "Elevation0-9000","hist_area_km2": {"100": 78.7576,"125": 185.6744,"150": 44.7402,"175": 4.1906}}}