{"type":"Feature","properties":{"ISO3166-1-Alpha-3":"HUN","country":"Hungary","fill":"#F0F","id":"4908","name":"Székesfehérvár"},
"geometry":{"type": "Polygon","coordinates": [[[18.4979,47.27574,138.2162],[18.47827,47.30323,171.0808],[18.45863,47.30716,127.8458],[18.43311,47.27967,208.5954],[18.37814,47.24237,138.5753],[18.32894,47.20406,108.244],[18.37617,47.16776,104.7559],[18.40562,47.13242,122.4328],[18.4174,47.09512,105.46],[18.42918,47.06567,101.8733],[18.49005,47.09119,122.3347],[18.52342,47.07941,107.9906],[18.55876,47.11868,120.4689],[18.57643,47.14617,109.4686],[18.57643,47.17365,109.7155],[18.55287,47.19525,105.1396],[18.55287,47.22077,123.2509],[18.56269,47.25611,210.5621],[18.52539,47.27574,149.6366],[18.4979,47.27574,138.2162]]]}}