{"type": "Feature","bbox": [18.2036,46.9961,18.6597,47.362],"geometry": {"type": "MultiPolygon","coordinates": [[[[18.5345,47.1598,105.1383],[18.5359,47.1693,103.7933],[18.5321,47.1734,103.8831],[18.5223,47.1759,107.0573],[18.5118,47.1755,113.849],[18.5023,47.1729,117.708],[18.4968,47.1747,118.0861],[18.4922,47.1822,125.9128],[18.4923,47.1869,126.4481],[18.496,47.1897,122.1083],[18.5095,47.194,108.3883],[18.5117,47.198,107.4617],[18.4878,47.217,127.3004],[18.4875,47.2204,118.2458],[18.5407,47.2492,183.301],[18.5428,47.2521,199.3165],[18.5423,47.2615,219.5078],[18.5442,47.2643,198.1631],[18.555,47.2648,224.174],[18.5704,47.2619,231.0938],[18.5826,47.2633,265.5576],[18.6007,47.273,294.4878],[18.6015,47.2869,249.0386],[18.6061,47.2926,220.3921],[18.6253,47.2938,196.4922],[18.6339,47.2966,155.6921],[18.654,47.3096,155.1418],[18.6597,47.3147,173.7634],[18.6451,47.3356,223.0023],[18.629,47.3465,236.1933],[18.6165,47.3501,244.9616],[18.5761,47.3367,188.0051],[18.5648,47.3365,196.721],[18.5607,47.3383,198.5045],[18.5434,47.3542,206.9077],[18.5373,47.3559,203.9935],[18.5322,47.3537,196.0892],[18.5242,47.3457,191.8141],[18.4968,47.3346,176.402],[18.4892,47.3165,187.7771],[18.4695,47.311,157.4152],[18.4624,47.3107,127.5],[18.4496,47.3154,133.3529],[18.4414,47.3251,129.6164],[18.4228,47.3423,146.2823],[18.4045,47.3571,180.2929],[18.3888,47.362,214.3538],[18.37,47.3612,294.9579],[18.357,47.3576,251.3945],[18.3622,47.3495,260.5316],[18.3681,47.3313,167.9866],[18.3498,47.3201,173.7656],[18.3459,47.3157,167.0868],[18.3507,47.309,164.8952],[18.3655,47.299,206.015],[18.3708,47.2901,209.4098],[18.37,47.2874,210.9308],[18.355,47.2819,196.6267],[18.3397,47.2807,192.1327],[18.3272,47.2776,155.2819],[18.32,47.2728,124.1757],[18.3083,47.2694,123.9383],[18.2829,47.2712,131.6523],[18.2804,47.2687,134.1536],[18.2795,47.2608,150.3375],[18.2538,47.2588,230.9082],[18.252,47.2565,240.4243],[18.2517,47.248,255.1415],[18.2478,47.2426,271.7761],[18.2385,47.239,293.0949],[18.2271,47.2408,301.9682],[18.2225,47.2399,306.9844],[18.2053,47.2243,316.9553],[18.2077,47.1714,109.4167],[18.2123,47.1604,104.9556],[18.214,47.1365,117.0808],[18.2186,47.1262,139.8204],[18.2204,47.1023,196.5736],[18.2177,47.0966,196.8018],[18.2036,47.0895,190.5394],[18.2057,47.0718,186.2884],[18.2113,47.0582,173.517],[18.2209,47.0463,168.2332],[18.2359,47.033,178.4689],[18.2379,47.0272,150.2184],[18.2709,47.0266,141.1419],[18.2881,47.0197,125.7716],[18.2998,47.0176,129.1782],[18.3064,47.0062,132.3932],[18.3089,47.0045,134.3128],[18.3416,46.9961,141.7025],[18.3593,46.9965,147.4027],[18.3529,47.0053,146.8746],[18.3523,47.0116,145.6868],[18.3552,47.0149,145.5345],[18.3661,47.0189,147.3324],[18.3678,47.0214,149.8191],[18.3597,47.0357,152.2014],[18.3601,47.0391,153.1874],[18.3664,47.0495,148.8289],[18.3579,47.0656,146.2183],[18.3568,47.0824,145.6141],[18.3591,47.0872,144.5195],[18.3674,47.093,126.476],[18.3768,47.0964,118.0533],[18.4005,47.1008,101.9668],[18.4022,47.103,101.7049],[18.4025,47.1097,113.1315],[18.4049,47.1116,115.9065],[18.4219,47.1123,121.7988],[18.451,47.1205,116.5809],[18.477,47.1213,124.9368],[18.5042,47.1306,124.5372],[18.5142,47.1374,127.2479],[18.5212,47.1474,122.7543],[18.5345,47.1598,105.1383]]]]}
,"properties": {"GID_2": "HUN.7.10_1","GID_0": "HUN","country": "Hungary","GID_1": "HUN.7_1","province": "Fejér","NL_NAME_1": "NA","county": "Székesfehérvár","VARNAME_2": "NA","NL_NAME_2": "NA","TYPE_2": "Kistérség","ENGTYPE_2": "Subregion","CC_2": "NA","HASC_2": "NA","name": "Székesfehérvár.county","area_km2": 675.0859,"hist_schema_id": "Elevation0-9000","hist_area_km2": {"100": 102.6752,"125": 186.0807,"150": 142.1604,"175": 121.6463,"200": 84.4574,"225": 19.6477,"250": 8.0561,"275": 7.4256,"300": 2.0581,"325": 0.7631,"350": 0.1152}}}