{"type": "Feature","bbox": [21.2246,47.5999,21.6179,47.9443],"geometry": {"type": "MultiPolygon","coordinates": [[[[21.4574,47.5999,122.3477],[21.4813,47.6001,125.8317],[21.4949,47.6028,129.1378],[21.5186,47.6034,145.3977],[21.5311,47.6114,150.5095],[21.5801,47.6186,137.3859],[21.6078,47.6285,145.3755],[21.6179,47.6428,153.3049],[21.6096,47.6448,157.5586],[21.606,47.6485,160.2678],[21.6099,47.6601,165.5342],[21.61,47.6828,159.7228],[21.6084,47.6876,157.8244],[21.5589,47.7047,128.8844],[21.5543,47.7094,124.0606],[21.5544,47.7142,120.3024],[21.5593,47.723,129.3047],[21.5697,47.7255,122.7581],[21.5752,47.7317,123.8772],[21.5829,47.734,128.4133],[21.5844,47.7361,126.5576],[21.5751,47.7572,118.8537],[21.5668,47.763,118.4005],[21.5543,47.7678,115.7282],[21.5488,47.7725,113.162],[21.5525,47.7756,113.88],[21.5767,47.7848,121.1428],[21.5538,47.7934,115.8768],[21.5506,47.7965,117.133],[21.543,47.8103,115.5256],[21.5442,47.824,117.802],[21.5523,47.8338,120.1025],[21.554,47.856,116.0463],[21.5623,47.8767,115.6261],[21.5616,47.8878,113.0847],[21.5526,47.8958,109.5409],[21.5511,47.8992,114.3077],[21.5544,47.9082,113.0594],[21.5548,47.923,114.8801],[21.5578,47.9299,113.495],[21.5574,47.9346,114.1001],[21.546,47.9402,110.4759],[21.5192,47.9443,106.143],[21.5043,47.9353,103.7447],[21.4714,47.9284,101.4897],[21.4548,47.9278,103.5431],[21.4395,47.9304,98.3121],[21.4235,47.9302,98.0483],[21.3888,47.9219,93.7785],[21.3295,47.9239,97.6354],[21.3088,47.9198,92.3812],[21.2935,47.9135,91.9439],[21.282,47.9117,91.7479],[21.2779,47.9124,91.7502],[21.2692,47.9178,91.6949],[21.2559,47.921,91.0707],[21.251,47.9256,90.8184],[21.2393,47.9173,90.9891],[21.2288,47.9035,90.9045],[21.2425,47.8877,91.0649],[21.2421,47.8776,91.8064],[21.2464,47.8659,94.2637],[21.2438,47.8618,91.4016],[21.2305,47.8559,91.9365],[21.2262,47.8475,91.429],[21.226,47.8344,90.2633],[21.2289,47.8321,90.458],[21.2501,47.8281,91.0467],[21.2524,47.8185,91.3014],[21.2555,47.813,90.1182],[21.256,47.807,90.6182],[21.2548,47.8028,90.4392],[21.2443,47.7884,90.0983],[21.2394,47.7775,89.2895],[21.2393,47.7212,89.1739],[21.2246,47.7021,89.8778],[21.25,47.702,89.7423],[21.2764,47.694,89.4251],[21.3127,47.6938,90.1764],[21.3232,47.6915,91.2426],[21.3393,47.691,89.5],[21.3699,47.6861,94.5882],[21.3831,47.6854,94.4573],[21.3951,47.6825,93.9833],[21.3974,47.6789,94.4695],[21.3977,47.6617,95.605],[21.4036,47.6532,95.3909],[21.4292,47.6331,105.6428],[21.4521,47.63,114.3591],[21.4535,47.618899999999996,115.4601],[21.4571,47.6112,117.4537],[21.4574,47.5999,122.3477]]]]}
,"properties": {"GID_2": "HUN.9.5_1","GID_0": "HUN","country": "Hungary","GID_1": "HUN.9_1","province": "Hajdú-Bihar","NL_NAME_1": "NA","county": "Hajdúböszörmény","VARNAME_2": "NA","NL_NAME_2": "NA","TYPE_2": "Kistérség","ENGTYPE_2": "Subregion","CC_2": "NA","HASC_2": "NA","name": "Hajdúböszörmény.county","area_km2": 753.7074,"hist_schema_id": "Elevation0-9000","hist_area_km2": {"75": 0.0426,"100": 606.3371,"125": 95.3087,"150": 45.607,"175": 6.4119}}}