{"type": "Feature","bbox": [20.1561,47.9526,20.4912,48.1395],"geometry": {"type": "MultiPolygon","coordinates": [[[[20.4327,48.137,324.5333],[20.3948,48.1395,362.9196],[20.3887,48.1387,314.5143],[20.3872,48.1363,329.6242],[20.3868,48.1267,348.5528],[20.383,48.1223,317.7262],[20.3694,48.1217,354.9426],[20.3666,48.1203,384.0602],[20.3657,48.1105,345.4227],[20.3593,48.1033,360.8434],[20.3585,48.0972,367.5636],[20.3564,48.0958,394.3908],[20.3388,48.0966,360.2184],[20.3326,48.0983,355.3427],[20.3257,48.1026,365.6241],[20.3188,48.1113,384.6596],[20.3136,48.1153,336.1472],[20.2796,48.1124,397.2801],[20.2773,48.1093,401.3139],[20.278,48.0932,390.6881],[20.2765,48.0896,365.1561],[20.2629,48.0849,397.2487],[20.2425,48.0844,363.2132],[20.2335,48.0738,434.3299],[20.2277,48.0638,369.9571],[20.2181,48.0549,315.7982],[20.2166,48.0494,380.8193],[20.2172,48.0308,388.3819],[20.2153,48.0273,369.3319],[20.192,48.0228,279.3367],[20.1613,48.0223,236.5379],[20.1563,48.0184,216.8293],[20.1561,48.0154,176.1228],[20.162,48.0103,173.8753],[20.1925,47.9956,271.3168],[20.2017,47.9918,320.1721],[20.2192,47.9882,315.3573],[20.2245,47.9836,337.1048],[20.2338,47.9665,308.9555],[20.2457,47.96,263.3933],[20.2561,47.956,266.5513],[20.2883,47.953,310.5055],[20.2996,47.9526,304.61],[20.3112,47.9548,260.4011],[20.3128,47.9578,264.8913],[20.3133,47.9689,358.4179],[20.318,47.9811,349.2477],[20.3238,47.988,403.5353],[20.3314,47.9925,342.6263],[20.3369,47.9932,278.4322],[20.3713,47.9834,475.5758],[20.3763,47.9845,509.4622],[20.3793,47.9885,468.9247],[20.3795,47.9979,407.4014],[20.3717,48.0153,482.5538],[20.3812,48.0277,582.9222],[20.3855,48.0289,564.2913],[20.4186,48.0285,546.0997],[20.4521,48.0409,652.8354],[20.4752,48.0424,566.9156],[20.4903,48.0547,665.6228],[20.4912,48.0604,768.1341],[20.4874,48.0678,925.1928],[20.4863,48.077,801.3552],[20.4794,48.0841,904.48],[20.478,48.0971,886.6698],[20.4734,48.1042,795.3875],[20.455,48.1289,369.0069],[20.4327,48.137,324.5333]]]]}
,"properties": {"GID_2": "HUN.10.1_1","GID_0": "HUN","country": "Hungary","GID_1": "HUN.10_1","province": "Heves","NL_NAME_1": "NA","county": "Bélapátfalva","VARNAME_2": "Bélapátfalvai","NL_NAME_2": "NA","TYPE_2": "Kistérség","ENGTYPE_2": "Subregion","CC_2": "NA","HASC_2": "NA","name": "Bélapátfalva.county","area_km2": 261.4925,"hist_schema_id": "Elevation0-9000","hist_area_km2": {"175": 0.539,"200": 1.9857,"225": 2.9935,"250": 8.1298,"275": 18.4382,"300": 30.8078,"325": 36.8959,"350": 34.5248,"375": 26.0489,"400": 15.66,"425": 8.686,"450": 5.7253,"475": 4.9031,"500": 4.9876,"525": 5.5829,"550": 4.9167,"575": 5.0585,"600": 5.0869,"625": 4.0953,"650": 3.8541,"675": 3.273,"700": 2.5929,"725": 1.9554,"750": 1.7285,"775": 1.7004,"800": 1.7711,"825": 2.4087,"850": 4.0947,"875": 4.3494,"900": 4.0799,"925": 3.0034,"950": 1.5159,"975": 0.0992}}}