{"type":"Feature","properties":{"ISO3166-1-Alpha-3":"HUN","country":"Hungary","fill":"#F0F","id":"4905","name":"Gyôr"},
"geometry":{"type": "Polygon","coordinates": [[[17.72652,47.73001,113.2625],[17.67927,47.73706,110.59],[17.58195,47.71449,110.0],[17.56291,47.66513,110.2239],[17.50483,47.63494,111.3566],[17.53752,47.60025,117.5604],[17.55233,47.60307,117.0548],[17.58759,47.58685,124.0067],[17.62708,47.6066,190.9129],[17.69126,47.6066,126.7617],[17.73357,47.62141,118.9418],[17.79633,47.6475,138.9618],[17.80409,47.66583,158.6169],[17.7928,47.69898,117.2229],[17.77165,47.73283,115.9634],[17.72652,47.73001,113.2625]]]}}