{"type":"Feature","properties":{"GID_2":"HUN.16.1_1","GID_0":"HUN","country":"Hungary","GID_1":"HUN.16_1","province":"Szabolcs-Szatmár-Bereg","NL_NAME_1":"NA","county":"Baktalórántháza","VARNAME_2":"Baktalórántházai","NL_NAME_2":"NA","TYPE_2":"Kistérség","ENGTYPE_2":"Subregion","CC_2":"NA","HASC_2":"NA","name":"Baktalórántháza.county"},
"geometry":{"type": "MultiPolygon","coordinates": [[[[21.8764,48.0331,109.2578],[21.8847,48.0221,116.3548],[21.8869,48.0086,104.665],[21.8948,47.9974,105.9201],[21.8924,47.9937,106.7654],[21.8777,47.9841,112.4561],[21.8763,47.9817,109.4526],[21.8963,47.9658,112.1904],[21.8982,47.9263,120.101],[21.8999,47.9209,123.5725],[21.9203,47.9118,133.8026],[21.9416,47.9048,130.8882],[21.946,47.9056,130.2312],[21.9552,47.9121,138.8757],[21.9788,47.9193,141.6835],[21.9898,47.9256,136.9192],[21.9947,47.9259,129.1225],[22.0063,47.9211,135.932],[22.0131,47.9052,132.4566],[22.017,47.9032,133.1054],[22.0658,47.9101,146.4791],[22.0763,47.9187,143.2729],[22.0874,47.9223,144.0795],[22.0924,47.9223,142.5759],[22.1082,47.9169,142.2971],[22.1128,47.9179,148.7679],[22.1193,47.9218,154.3813],[22.1069,47.9364,145.2036],[22.1018,47.9458,150.0533],[22.1014,47.9504,145.231],[22.1028,47.9541,148.5579],[22.1014,47.959,146.6343],[22.1047,47.9618,149.9408],[22.1142,47.9631,139.4009],[22.1172,47.9653,139.8172],[22.1141,47.9751,140.1954],[22.1216,47.9852,138.09],[22.1225,47.9899,135.1209],[22.1208,47.993899999999996,138.504],[22.1141,47.998,138.2516],[22.1136,48.0017,138.6746],[22.138,48.0149,137.108],[22.1399,48.0182,133.7354],[22.1401,48.0314,130.9076],[22.143,48.0347,132.6963],[22.1538,48.0405,131.2193],[22.1624,48.0408,133.2105],[22.1677,48.0396,133.7558],[22.1801,48.0322,136.4955],[22.1914,48.0283,137.6528],[22.2159,48.0246,137.6423],[22.2323,48.0266,140.9792],[22.2378,48.0309,136.0075],[22.248,48.0326,134.8668],[22.2503,48.0394,132.5861],[22.2575,48.0482,132.1566],[22.2584,48.0536,128.9458],[22.2542,48.0626,132.1948],[22.2543,48.0767,126.3953],[22.2391,48.0734,127.4578],[22.223,48.0649,128.9867],[22.2188,48.0661,129.9678],[22.2134,48.073,130.4324],[22.2093,48.0802,128.4765],[22.2123,48.0858,129.958],[22.2121,48.0882,131.0108],[22.2054,48.0914,130.6559],[22.2038,48.0939,132.2061],[22.2036,48.1217,125.0398],[22.2,48.1291,119.3289],[22.1989,48.1376,124.255],[22.197,48.1392,119.489],[22.1899,48.1396,116.9853],[22.1698,48.133,117.3257],[22.1566,48.1376,114.0204],[22.1485,48.127,112.3005],[22.145,48.1252,111.8617],[22.1396,48.1262,111.796],[22.1359,48.1335,110.6628],[22.1173,48.1374,113.7571],[22.1051,48.1347,106.9599],[22.0928,48.1283,105.801],[22.0877,48.1278,120.2248],[22.0834,48.1295,120.0573],[22.0816,48.1363,123.2602],[22.0783,48.1388,117.4396],[22.0625,48.1375,108.1219],[22.0562,48.1388,106.4891],[22.0544,48.1421,104.137],[22.0544,48.1519,105.1512],[22.0519,48.155,104.9297],[22.02,48.1567,100.4673],[21.9834,48.1467,100.1856],[21.9817,48.1445,101.169],[21.9809,48.1358,103.9976],[21.9769,48.1302,103.9962],[21.9728,48.1277,99.9207],[21.9619,48.1252,97.5061],[21.9508,48.1199,97.7426],[21.9264,48.1139,101.8861],[21.9263,48.111,102.1255],[21.9432,48.0788,102.1039],[21.9407,48.0709,102.76],[21.9396,48.0583,108.633],[21.9312,48.0469,103.4629],[21.9212,48.0376,103.8211],[21.8942,48.0424,103.7662],[21.8809,48.043,105.0307],[21.8762,48.0404,104.735],[21.8764,48.0331,109.2578]]]]}}