{"type":"Feature","properties":{"GID_2":"HUN.14.6_1","GID_0":"HUN","country":"Hungary","GID_1":"HUN.14_1","province":"Pest","NL_NAME_1":"NA","county":"Gödöllő","VARNAME_2":"Gödöllői","NL_NAME_2":"NA","TYPE_2":"Kistérség","ENGTYPE_2":"Subregion","CC_2":"NA","HASC_2":"NA","name":"Gödöllő.county"},
"geometry":{"type": "MultiPolygon","coordinates": [[[[19.3332,47.4627,225.0473],[19.3506,47.459,215.7632],[19.3822,47.449,183.8719],[19.3941,47.4535,207.4199],[19.4008,47.4692,258.8569],[19.4069,47.4745,246.0363],[19.4257,47.4743,248.7758],[19.4359,47.4706,240.7346],[19.4441,47.4636,228.3284],[19.4538,47.4633,200.25],[19.4566,47.4651,209.0829],[19.4603,47.4723,243.6689],[19.4607,47.4918,189.096],[19.463,47.4954,178.3585],[19.4763,47.4989,165.8828],[19.4846,47.4989,176.8206],[19.5016,47.4908,164.524],[19.5157,47.4878,158.6386],[19.5279,47.4882,164.8509],[19.5431,47.4989,156.8765],[19.5649,47.5037,174.7672],[19.5837,47.5105,137.9203],[19.5959,47.527,133.9308],[19.5992,47.5293,139.2121],[19.615,47.5275,121.0304],[19.6413,47.5283,121.3846],[19.6625,47.5419,118.4723],[19.6737,47.5451,114.1323],[19.6578,47.5537,116.33],[19.6553,47.5578,115.9458],[19.6471,47.5582,116.4698],[19.6385,47.561,116.4824],[19.626,47.5683,118.7824],[19.6186,47.5706,120.5549],[19.6147,47.5699,120.6148],[19.6098,47.5646,128.6427],[19.6058,47.5646,132.6868],[19.5885,47.5732,146.4279],[19.5554,47.5972,175.5995],[19.5363,47.6003,180.1844],[19.5146,47.6001,175.9334],[19.4973,47.5974,168.5739],[19.4909,47.6006,176.6486],[19.4851,47.6072,224.3052],[19.4808,47.6085,202.0967],[19.4543,47.6002,241.0494],[19.4376,47.6031,209.3486],[19.4353,47.6049,214.9541],[19.4334,47.6119,250.4669],[19.4301,47.6142,249.8166],[19.4036,47.6244,191.0492],[19.3844,47.6341,232.9848],[19.3739,47.6425,230.6514],[19.3467,47.6493,230.4827],[19.2945,47.6496,178.6385],[19.2878,47.6459,174.649],[19.2771,47.632,176.9479],[19.2729,47.6304,181.6019],[19.2549,47.6334,187.5939],[19.2325,47.6405,199.189],[19.2319,47.6221,189.6035],[19.2208,47.6127,226.0715],[19.2075,47.598,157.1556],[19.2056,47.5866,185.9823],[19.2009,47.5771,180.0544],[19.1761,47.5661,140.8105],[19.167,47.5644,126.6211],[19.1681,47.5619,126.0044],[19.173,47.5551,129.6896],[19.1845,47.5477,141.9813],[19.2123,47.5466,167.8631],[19.2308,47.5412,220.2634],[19.2509,47.5394,216.4677],[19.2575,47.5315,188.5155],[19.2638,47.5164,158.6633],[19.268,47.5104,161.5487],[19.2717,47.5083,165.6048],[19.2908,47.5079,174.4989],[19.3125,47.5163,222.3783],[19.3272,47.5157,242.9638],[19.3289,47.5127,230.426],[19.3285,47.5039,198.1585],[19.3217,47.4927,150.3522],[19.3399,47.4753,186.8254],[19.3339,47.4677,225.2685],[19.3332,47.4627,225.0473]]]]}}