{"type": "Feature","bbox": [20.1278,46.3028,20.6194,46.5832],"geometry": {"type": "MultiPolygon","coordinates": [[[[20.5768,46.5832,85.9443],[20.5658,46.5827,85.1375],[20.5375,46.5737,83.9228],[20.5207,46.5717,84.7583],[20.5024,46.5636,83.8549],[20.4826,46.5619,83.1301],[20.468,46.5569,81.9497],[20.4527,46.5587,81.898],[20.4291,46.5574,81.5215],[20.4181,46.5525,80.4981],[20.4161,46.5386,80.2168],[20.4103,46.5334,80.6094],[20.399,46.5293,81.3747],[20.3881,46.528,81.3642],[20.3694,46.5231,81.1584],[20.3649,46.5235,81.126],[20.3575,46.5279,82.6615],[20.332,46.528,81.9627],[20.3177,46.5304,81.1417],[20.3147,46.5272,80.3128],[20.3146,46.5153,80.7743],[20.3103,46.5132,82.1419],[20.3066,46.5146,82.2912],[20.3026,46.527,82.0578],[20.3063,46.536,81.2509],[20.3067,46.5453,79.368],[20.3049,46.5477,81.6936],[20.2998,46.5498,82.9133],[20.2714,46.5535,82.6981],[20.2083,46.5536,80.2613],[20.1845,46.5642,78.558],[20.1727,46.5655,78.8039],[20.1469,46.5728,80.5722],[20.1415,46.5721,79.4819],[20.1278,46.566,81.9387],[20.1587,46.5501,77.1129],[20.1593,46.5439,79.2481],[20.155,46.5349,82.9963],[20.1553,46.5253,79.0637],[20.1596,46.5219,82.5447],[20.1735,46.5187,82.0559],[20.1759,46.5155,81.1968],[20.1734,46.5114,79.0124],[20.165,46.5078,78.228],[20.1639,46.5041,79.2913],[20.1683,46.5003,80.8266],[20.1821,46.4934,82.6602],[20.1959,46.4741,81.171],[20.1954,46.4666,77.5426],[20.1881,46.4559,77.4285],[20.1873,46.4456,78.1021],[20.1791,46.4261,77.5829],[20.1785,46.4182,78.1343],[20.1795,46.4144,80.4798],[20.1834,46.4117,79.0856],[20.1988,46.4112,88.048],[20.2031,46.4097,78.748],[20.2034,46.3759,82.9966],[20.208,46.3678,78.1409],[20.2266,46.3533,78.1445],[20.2451,46.3305,77.6025],[20.2601,46.3288,78.6308],[20.2742,46.324,77.6368],[20.2922,46.3232,78.1613],[20.3005,46.3198,78.1677],[20.3047,46.3107,77.5835],[20.293,46.3059,77.8107],[20.2959,46.3043,77.679],[20.3063,46.3028,77.4937],[20.3422,46.3028,76.7511],[20.3613,46.3074,76.5884],[20.383,46.3219,79.4806],[20.4228,46.3391,78.6115],[20.4283,46.3462,79.1718],[20.4341,46.3489,79.3988],[20.4558,46.353,80.2204],[20.4807,46.3542,81.6787],[20.4982,46.3787,82.424],[20.534,46.3924,84.7131],[20.5419,46.4003,85.7116],[20.5482,46.4038,84.8165],[20.5487,46.4118,85.6858],[20.5507,46.415,86.2407],[20.5688,46.4224,85.0286],[20.5783,46.4294,85.4592],[20.5802,46.4355,85.1698],[20.5811,46.453,84.9435],[20.5778,46.4608,85.5664],[20.5779,46.4641,85.3067],[20.5859,46.4684,85.452],[20.5967,46.4706,85.766],[20.603,46.474,86.0421],[20.5972,46.4952,86.0989],[20.606,46.5079,86.0655],[20.6084,46.5295,86.469],[20.6194,46.5397,88.1478],[20.6168,46.5456,87.19],[20.6105,46.5529,87.779],[20.5917,46.5618,87.0243],[20.5768,46.5832,85.9443]]]]}
,"properties": {"GID_2": "HUN.6.2_1","GID_0": "HUN","country": "Hungary","GID_1": "HUN.6_1","province": "Csongrád","NL_NAME_1": "NA","county": "Hódmezővásárhely","VARNAME_2": "NA","NL_NAME_2": "NA","TYPE_2": "Kistérség","ENGTYPE_2": "Subregion","CC_2": "NA","HASC_2": "NA","name": "Hódmezővásárhely.county","area_km2": 714.2104,"hist_schema_id": "Elevation0-9000","hist_area_km2": {"75": 706.6774,"100": 7.533}}}