{"type":"Feature","properties":{"GID_2":"HUN.15.2_1","GID_0":"HUN","country":"Hungary","GID_1":"HUN.15_1","province":"Somogy","NL_NAME_1":"NA","county":"Barcs","VARNAME_2":"Barcsi","NL_NAME_2":"NA","TYPE_2":"Kistérség","ENGTYPE_2":"Subregion","CC_2":"NA","HASC_2":"NA","name":"Barcs.county"},
"geometry":{"type": "MultiPolygon","coordinates": [[[[17.2608,46.0157,108.0361],[17.2595,46.0153,110.0128],[17.2614,46.0117,108.467],[17.271,46.0051,109.5274],[17.278,46.003,110.7705],[17.2903,46.0017,114.0145],[17.3007,46.0057,108.2799],[17.3107,46.0028,109.985],[17.2871,45.9925,108.4789],[17.2936,45.9817,109.5409],[17.3167,45.9867,107.5072],[17.3294,45.9918,107.8349],[17.3444,45.9852,107.8005],[17.3465,45.9745,109.5406],[17.3367,45.9623,108.6352],[17.3344,45.9498,107.4743],[17.3422,45.9478,110.1288],[17.3499,45.9458,105.7392],[17.3635,45.9505,105.8448],[17.3763,45.9517,106.7975],[17.3995,45.9361,115.1315],[17.4177,45.9374,107.9191],[17.4291,45.9471,100.9037],[17.4482,45.9504,102.2277],[17.5602,45.9381,100.6713],[17.5795,45.9276,124.732],[17.6131,45.9031,101.5951],[17.6228,45.8917,100.8852],[17.6471,45.8561,99.1074],[17.6644,45.8602,101.5028],[17.688,45.8707,100.1809],[17.6981,45.8713,120.2405],[17.7123,45.8698,107.7878],[17.7316,45.881,106.4065],[17.7343,45.8849,101.4142],[17.7297,45.9163,116.844],[17.7104,45.9395,117.8983],[17.7051,45.9425,102.4465],[17.6875,45.9424,106.4565],[17.678,45.9452,102.7428],[17.6741,45.9483,102.8299],[17.6713,45.9601,112.2178],[17.6677,45.9636,107.4499],[17.6584,45.9666,111.2684],[17.6466,45.9671,110.3321],[17.6347,45.9698,112.0581],[17.6251,45.9818,114.3541],[17.6143,46.0027,128.0406],[17.6141,46.0075,129.7906],[17.6172,46.0135,129.5083],[17.6314,46.0173,125.4464],[17.6383,46.0312,123.2077],[17.6333,46.0398,132.2775],[17.6163,46.0572,143.8155],[17.6149,46.08,146.6222],[17.6176,46.0824,153.8818],[17.6364,46.086,151.383],[17.6514,46.0948,146.6611],[17.656,46.0988,147.1905],[17.6609,46.1092,154.3327],[17.6607,46.1137,154.8651],[17.6567,46.1228,160.9735],[17.665,46.1381,130.8081],[17.6646,46.1728,166.9283],[17.6625,46.178,157.0813],[17.6531,46.1784,145.4215],[17.651,46.1829,165.9086],[17.6464,46.1874,159.6625],[17.6303,46.1827,175.9267],[17.6073,46.1812,172.6438],[17.5968,46.1738,168.4321],[17.587,46.172,165.1433],[17.5753,46.1669,169.3092],[17.5639,46.1714,184.6091],[17.5426,46.1733,179.4412],[17.5311,46.1724,184.744],[17.5183,46.1643,163.6586],[17.5015,46.1569,180.2256],[17.4911,46.1555,165.657],[17.4796,46.1567,160.1895],[17.4777,46.1538,163.9757],[17.477,46.1436,159.909],[17.4644,46.1437,155.5304],[17.4501,46.1365,147.5207],[17.4261,46.132,141.5136],[17.4134,46.1348,139.0341],[17.3829,46.1345,125.2837],[17.3721,46.1208,134.4212],[17.3758,46.1108,140.0192],[17.3759,46.0988,129.0327],[17.3719,46.0968,129.0031],[17.3549,46.095,117.1415],[17.3496,46.0924,112.9026],[17.3457,46.0877,116.5729],[17.3444,46.0762,118.6946],[17.3396,46.0717,118.0264],[17.3372,46.0662,122.867],[17.3317,46.0644,119.8993],[17.3249,46.0655,125.1466],[17.3186,46.0742,126.833],[17.3102,46.0766,128.8197],[17.3056,46.0824,128.8119],[17.2969,46.0847,131.5173],[17.2873,46.0912,140.8367],[17.2866,46.0988,142.1324],[17.2891,46.1063,152.2894],[17.2855,46.1164,150.4219],[17.2888,46.1297,151.1065],[17.2824,46.1492,134.5287],[17.2773,46.1496,137.5269],[17.2657,46.1462,142.0965],[17.2501,46.1499,149.8695],[17.2182,46.1539,145.1746],[17.1994,46.1444,114.7096],[17.1834,46.1387,134.9983],[17.1843,46.1352,114.4583],[17.1753,46.1306,129.9903],[17.18,46.125,127.1385],[17.1797,46.1212,124.0893],[17.1748,46.114,117.5868],[17.1843,46.109,117.7355],[17.1999,46.114,111.5374],[17.2065,46.1125,110.0],[17.2138,46.1148,117.1768],[17.2146,46.1106,116.0449],[17.2109,46.1024,119.7361],[17.2286,46.1004,112.5179],[17.2286,46.0975,123.9859],[17.2224,46.0959,113.22],[17.2171,46.0891,113.0096],[17.2012,46.0844,114.4593],[17.199,46.082,114.4783],[17.2025,46.0796,121.5718],[17.2196,46.0833,117.1837],[17.2317,46.0809,107.1329],[17.2363,46.0783,107.4019],[17.2382,46.0687,112.8254],[17.2454,46.0644,117.6114],[17.2405,46.0636,109.1248],[17.2321,46.0675,110.5876],[17.2266,46.0679,110.5427],[17.2264,46.0642,110.6021],[17.2543,46.0586,112.3261],[17.266,46.0587,114.4424],[17.2679,46.056399999999996,113.3639],[17.2559,46.0478,104.5635],[17.2578,46.0394,112.7557],[17.2545,46.0325,111.1388],[17.2693,46.0344,109.7072],[17.2764,46.0332,110.1245],[17.2904,46.0345,109.6919],[17.2938,46.0323,110.9886],[17.2918,46.0268,116.5025],[17.2872,46.0234,118.7651],[17.2741,46.0228,112.0394],[17.2711,46.0185,114.9798],[17.2608,46.0157,108.0361]]]]}}