{"type": "Feature","bbox": [20.0035,46.7623,20.4485,47.0188],"geometry": {"type": "MultiPolygon","coordinates": [[[[20.0143,46.8333,81.6501],[20.0035,46.8171,82.5126],[20.0035,46.8143,82.6865],[20.0198,46.8086,81.3404],[20.0346,46.7962,80.9136],[20.0479,46.8126,82.0949],[20.0541,46.8172,83.9625],[20.0573,46.8169,87.2604],[20.0583,46.8153,80.4482],[20.0575,46.8006,82.3527],[20.0758,46.7929,80.8741],[20.0788,46.7897,79.1544],[20.079,46.7689,84.6509],[20.0959,46.7646,81.5794],[20.1033,46.766,80.0179],[20.1066,46.7702,81.7828],[20.1083,46.7783,80.5137],[20.1151,46.7815,80.8688],[20.129,46.7776,80.358],[20.1548,46.7629,80.1825],[20.1591,46.7623,80.2329],[20.1655,46.7641,80.0408],[20.1826,46.771,79.6917],[20.1874,46.7777,81.3832],[20.1914,46.7802,80.5225],[20.2145,46.7814,81.1612],[20.2152,46.7836,80.8664],[20.2085,46.7982,82.6222],[20.2126,46.8008,81.1658],[20.2335,46.8003,82.8858],[20.2451,46.797,82.9778],[20.254,46.7937,83.3484],[20.2648,46.7844,84.6563],[20.3001,46.7693,83.6702],[20.3378,46.7685,84.6169],[20.3414,46.771,83.9563],[20.3377,46.7789,84.3182],[20.3398,46.7826,83.9333],[20.3459,46.7848,84.4774],[20.3814,46.7902,84.0493],[20.3962,46.7912,82.808],[20.4068,46.7939,83.2394],[20.411,46.7981,83.5809],[20.4185,46.8071,83.0292],[20.4129,46.813,82.6417],[20.4114,46.8206,82.3438],[20.4084,46.8261,82.5398],[20.4085,46.8507,83.406],[20.4049,46.8583,84.4599],[20.4049,46.8639,84.1962],[20.4163,46.874,84.2528],[20.4242,46.8871,84.3254],[20.4485,46.9011,84.5968],[20.4362,46.9114,81.6647],[20.4157,46.9175,82.8842],[20.415,46.9221,82.6853],[20.4189,46.9285,81.7047],[20.4177,46.931399999999996,84.5093],[20.3974,46.9319,81.3893],[20.3937,46.9338,83.8699],[20.394,46.9376,83.7774],[20.3963,46.9398,85.0739],[20.4209,46.956,83.9706],[20.4223,46.9581,81.9641],[20.4208,46.9601,83.5819],[20.4074,46.9637,84.8672],[20.3846,46.9591,84.5217],[20.3685,46.9682,85.843],[20.3633,46.9659,85.6217],[20.3577,46.9594,84.7874],[20.3537,46.959,85.4519],[20.3433,46.9683,85.8316],[20.3253,46.9728,85.3276],[20.3186,46.9761,86.1261],[20.3188,46.9784,85.6777],[20.3331,46.9984,85.8234],[20.3182,47.001,86.1958],[20.3005,46.9967,87.35],[20.2914,47.0036,87.732],[20.2513,47.011,84.2301],[20.2309,47.0186,87.2786],[20.2263,47.0188,84.0112],[20.2227,47.0169,83.0669],[20.2166,47.0083,86.8568],[20.2126,47.0057,89.4866],[20.1893,47.005,82.7214],[20.1559,46.996,81.3549],[20.1501,46.9829,82.9361],[20.1493,46.964,81.9985],[20.1468,46.9596,82.9976],[20.1228,46.9592,84.3867],[20.1057,46.9622,90.798],[20.098,46.9604,90.6367],[20.0969,46.9562,90.3982],[20.0979,46.9502,89.9854],[20.1045,46.945,78.0],[20.1427,46.9442,89.2367],[20.1518,46.9391,87.6155],[20.1558,46.9334,79.9336],[20.1549,46.9222,90.9875],[20.1511,46.918,83.7848],[20.1435,46.9133,84.216],[20.1221,46.9067,84.7478],[20.1153,46.8978,82.0092],[20.0899,46.8815,84.792],[20.0889,46.875,80.7118],[20.0904,46.8701,84.409],[20.1088,46.8589,87.5514],[20.1103,46.8495,91.0963],[20.1089,46.8458,91.6307],[20.0485,46.8449,85.5927],[20.0216,46.8345,82.0184],[20.0143,46.8333,81.6501]]]]}
,"properties": {"GID_2": "HUN.11.3_1","GID_0": "HUN","country": "Hungary","GID_1": "HUN.11_1","province": "Jász-Nagykun-Szolnok","NL_NAME_1": "NA","county": "Kunszentmárton","VARNAME_2": "Kunszentmártoni","NL_NAME_2": "NA","TYPE_2": "Kistérség","ENGTYPE_2": "Subregion","CC_2": "NA","HASC_2": "NA","name": "Kunszentmárton.county","area_km2": 567.1645,"hist_schema_id": "Elevation0-9000","hist_area_km2": {"75": 494.8562,"100": 72.3083}}}