{"type": "Feature","bbox": [18.0241,46.6925,18.9708,47.5735],"geometry": {"type": "MultiPolygon","coordinates": [[[[18.8717,47.1614,95.5],[18.8694,47.1661,101.9851],[18.8685,47.202,97.022],[18.894,47.2214,99.7045],[18.899,47.2286,100.3055],[18.9029,47.2421,101.6641],[18.9018,47.2618,135.5802],[18.905,47.2734,149.1385],[18.8931,47.2762,147.7797],[18.8679,47.2773,144.2518],[18.8663,47.2801,145.629],[18.865,47.2953,146.2558],[18.8614,47.2983,148.4169],[18.8488,47.3032,150.6101],[18.8466,47.3152,150.2065],[18.8367,47.3278,138.447],[18.825,47.3385,136.3505],[18.7943,47.3586,171.9655],[18.7854,47.367,173.0834],[18.7612,47.383,183.9776],[18.7548,47.3904,183.1852],[18.7498,47.3988,177.9636],[18.7494,47.4057,209.5264],[18.7529,47.4094,226.0497],[18.7699,47.4156,166.885],[18.7777,47.4247,180.3276],[18.7774,47.4525,155.3159],[18.7722,47.4623,172.0236],[18.7607,47.4762,146.6051],[18.7524,47.4811,170.6082],[18.7235,47.4904,183.8819],[18.7094,47.498,159.9079],[18.6825,47.533,167.9401],[18.6821,47.5482,220.5632],[18.6862,47.5591,204.9316],[18.6788,47.5663,227.1186],[18.6749,47.5735,223.3444],[18.6395,47.5671,293.944],[18.551,47.5695,242.2255],[18.5182,47.5594,249.1767],[18.5001,47.5591,283.7526],[18.4916,47.5566,209.9037],[18.4889,47.5539,214.7945],[18.4879,47.5452,253.4212],[18.4908,47.5337,212.3606],[18.4912,47.5208,232.2996],[18.4989,47.5111,231.9952],[18.5174,47.5006,291.937],[18.527,47.4907,274.3204],[18.5264,47.4858,206.1461],[18.516,47.4854,186.6649],[18.4983,47.4961,226.1745],[18.483,47.4971,342.8689],[18.4774,47.4947,396.2386],[18.4624,47.4783,364.823],[18.4554,47.477,364.7227],[18.4503,47.4785,412.9457],[18.444,47.4885,387.4661],[18.4303,47.4923,400.8442],[18.4213,47.492,387.3384],[18.4171,47.4894,397.8474],[18.4017,47.4693,335.3484],[18.3959,47.4651,359.6396],[18.3783,47.461,330.0269],[18.3588,47.4612,255.7127],[18.3387,47.4464,261.3287],[18.3377,47.4402,275.4241],[18.3478,47.4254,388.9095],[18.3469,47.4205,398.5642],[18.3321,47.4165,371.9037],[18.3165,47.4183,314.702],[18.3031,47.4073,380.9472],[18.2862,47.4069,300.3837],[18.2822,47.4082,292.5982],[18.2653,47.423,255.4241],[18.2577,47.433,241.7923],[18.238,47.4416,188.093],[18.2321,47.456,213.4341],[18.2314,47.4644,213.6404],[18.228,47.4681,224.6061],[18.2068,47.4764,257.1965],[18.1831,47.4764,233.206],[18.1825,47.454,268.5948],[18.1802,47.4502,227.5341],[18.1515,47.4434,270.793],[18.1245,47.4529,253.4334],[18.114,47.4499,243.8288],[18.1097,47.447,236.8255],[18.1081,47.4432,231.3984],[18.108,47.4277,234.7166],[18.0971,47.4131,228.8734],[18.097,47.3964,225.0559],[18.0915,47.3927,228.1254],[18.077,47.3871,245.8241],[18.0739,47.3839,221.093],[18.0743,47.3649,262.0811],[18.0727,47.3603,236.2554],[18.0689,47.3564,253.0701],[18.051,47.3517,253.3563],[18.0341,47.3451,243.4154],[18.0241,47.3359,247.2303],[18.0432,47.3189,234.149],[18.064,47.317,262.7908],[18.0647,47.3134,249.734],[18.06,47.3049,234.8466],[18.0481,47.3033,262.0389],[18.0457,47.3015,233.5962],[18.0458,47.2985,251.3862],[18.0496,47.2919,216.2741],[18.0501,47.2806,300.0929],[18.0736,47.2807,444.2376],[18.0765,47.2677,450.2979],[18.0861,47.2556,417.2506],[18.09,47.2539,423.5179],[18.0985,47.2541,428.14],[18.1165,47.2582,403.828],[18.1261,47.2631,405.4041],[18.1457,47.2634,350.2081],[18.1549,47.2605,319.192],[18.1606,47.2565,295.5878],[18.1674,47.2435,265.1099],[18.1771,47.2332,226.5031],[18.2053,47.2243,316.9553],[18.2077,47.1714,109.4167],[18.2123,47.1604,104.9556],[18.214,47.1365,117.0808],[18.2186,47.1262,139.8204],[18.2204,47.1023,196.5736],[18.2177,47.0966,196.8018],[18.2036,47.0895,190.5394],[18.2057,47.0718,186.2884],[18.2113,47.0582,173.517],[18.2209,47.0463,168.2332],[18.2359,47.033,178.4689],[18.2379,47.0272,150.2184],[18.2217,47.0123,113.0283],[18.2024,47.0038,112.4848],[18.2011,46.9831,127.9135],[18.1928,46.9709,147.5936],[18.177,46.9591,161.2172],[18.1819,46.9542,161.4736],[18.1884,46.9374,160.5415],[18.2004,46.9163,160.8467],[18.2005,46.8987,135.7462],[18.1931,46.8865,110.6593],[18.1925,46.8763,100.7561],[18.1937,46.8702,100.6952],[18.2013,46.8588,106.4394],[18.2011,46.8542,108.5851],[18.1974,46.8447,135.3832],[18.1978,46.8375,145.8186],[18.2012,46.8311,148.0601],[18.202,46.8259,148.3475],[18.1982,46.8151,151.3589],[18.1979,46.8056,158.8418],[18.199,46.8003,167.7706],[18.2048,46.7914,178.8008],[18.2236,46.7855,159.6088],[18.2484,46.7891,156.512],[18.2794,46.8127,141.4567],[18.3025,46.8208,114.7996],[18.3084,46.8203,117.3125],[18.3156,46.8168,128.559],[18.3166,46.8028,128.8068],[18.3191,46.7992,124.2342],[18.334,46.7924,114.9639],[18.3585,46.7845,145.733],[18.3892,46.7932,155.4897],[18.4004,46.8033,155.4619],[18.4099,46.807,161.8517],[18.4182,46.7938,153.1861],[18.4152,46.7816,149.998],[18.4255,46.7697,125.7441],[18.4214,46.7616,128.0684],[18.4217,46.7591,103.8488],[18.4341,46.7505,99.4714],[18.4495,46.746,97.8161],[18.4679,46.749,99.7368],[18.5112,46.7497,97.7232],[18.5129,46.7512,97.2412],[18.5127,46.7535,97.4662],[18.5061,46.756,102.4707],[18.5048,46.7582,105.1636],[18.5099,46.7688,128.7351],[18.5279,46.7705,131.4312],[18.542,46.7838,140.5152],[18.5556,46.7847,131.8503],[18.559,46.7835,130.1658],[18.5626,46.7793,133.9697],[18.5689,46.7675,118.0914],[18.5796,46.76,95.8707],[18.5985,46.7536,95.777],[18.6178,46.7517,95.7982],[18.6231,46.7435,95.694],[18.6244,46.7347,95.3902],[18.6283,46.7259,95.9431],[18.628,46.7171,95.1672],[18.6243,46.7091,95.2585],[18.6247,46.6998,94.2601],[18.6277,46.6975,94.3229],[18.6426,46.6925,97.6786],[18.6496,46.6927,102.0368],[18.6716,46.6989,154.8509],[18.6789,46.7024,156.5097],[18.6855,46.7109,161.4459],[18.6906,46.7146,150.8164],[18.7283,46.7251,135.0713],[18.7304,46.7287,127.7563],[18.7295,46.7384,132.8781],[18.7192,46.7471,118.0223],[18.7172,46.7505,118.2238],[18.717,46.7574,131.355],[18.7195,46.7611,136.0211],[18.7492,46.7714,145.6818],[18.7731,46.7714,192.477],[18.7871,46.7685,189.4511],[18.7924,46.7696,189.7401],[18.7938,46.772,187.3905],[18.7939,46.7846,177.7233],[18.7972,46.7905,174.0589],[18.8212,46.7996,168.1604],[18.8464,46.8169,124.4643],[18.873,46.8413,101.6308],[18.8735,46.8439,114.9858],[18.8702,46.8497,115.4778],[18.8712,46.8528,120.9384],[18.8918,46.8601,119.2778],[18.8973,46.8659,117.1286],[18.9012,46.8675,119.2102],[18.921,46.8643,97.8496],[18.9297,46.8602,98.3156],[18.9306,46.8668,100.2311],[18.9357,46.8768,93.0528],[18.9543,46.8935,102.0109],[18.9629,46.9052,94.5246],[18.9641,46.926,90.5],[18.9681,46.936,93.1631],[18.9679,46.9626,99.5598],[18.9668,46.9674,104.831],[18.9595,46.9807,96.6094],[18.9588,46.9873,96.4828],[18.9636,47.0024,94.0],[18.9708,47.0171,94.0],[18.9708,47.0376,102.8712],[18.9375,47.053,94.0],[18.9213,47.0671,112.707],[18.9126,47.0719,105.2569],[18.9007,47.076,98.1019],[18.8953,47.0808,94.5],[18.8846,47.0978,96.8718],[18.8809,47.1412,125.525],[18.8768,47.148,95.5],[18.875,47.1568,95.5],[18.8717,47.1614,95.5]]]]}
,"properties": {"GID_1": "HUN.7_1","GID_0": "HUN","country": "Hungary","province": "Fejér","VARNAME_1": "NA","NL_NAME_1": "NA","TYPE_1": "Megye","ENGTYPE_1": "County","CC_1": "NA","HASC_1": "HU.FE","ISO_1": "NA","name": "Fejér.province","area_km2": 4337.7,"hist_schema_id": "Elevation0-9000","hist_area_km2": {"100": 768.942,"125": 1289.162,"150": 1033.708,"175": 428.307,"200": 294.814,"225": 180.701,"250": 114.411,"275": 63.943,"300": 39.417,"325": 28.569,"350": 21.012,"375": 20.78,"400": 20.723,"425": 16.495,"450": 12.94,"475": 3.691,"500": 0.086}}}