{"type": "Feature","id": "3162","bbox": [18.09484,46.70206,18.96797,47.56185],"geometry": {"type": "Polygon","coordinates": [[[18.81939,47.35628,127.0815],[18.80705,47.36649,130.8213],[18.78038,47.41049,168.2019],[18.787,47.43897,193.8107],[18.77563,47.46452,167.6954],[18.72457,47.50762,164.2708],[18.68499,47.56185,206.2325],[18.51601,47.55529,275.6942],[18.48252,47.5388,202.741],[18.46195,47.50537,470.8373],[18.44655,47.49413,481.4557],[18.42723,47.48899,427.126],[18.3987,47.46925,331.6155],[18.34827,47.45209,256.3186],[18.33359,47.43752,271.8993],[18.34641,47.42847,389.173],[18.35602,47.41612,347.9133],[18.30279,47.40672,390.7809],[18.28543,47.41442,283.866],[18.27178,47.42925,232.1041],[18.21349,47.46346,244.5391],[18.19251,47.46392,265.2403],[18.17577,47.44548,263.1743],[18.15179,47.44095,281.0718],[18.12823,47.44021,232.9149],[18.11841,47.41669,206.026],[18.12068,47.38713,203.5763],[18.10973,47.3754,221.6235],[18.10322,47.35918,199.4435],[18.1365,47.31505,197.5692],[18.10084,47.30825,281.8633],[18.09484,47.28104,444.5336],[18.10652,47.25425,416.3593],[18.14921,47.2259,251.775],[18.18548,47.16978,107.1453],[18.21329,47.15841,105.0702],[18.22745,47.13392,122.0248],[18.21918,47.06793,194.591],[18.22962,47.0425,164.0538],[18.21525,46.99357,111.6011],[18.17711,46.9531,162.827],[18.19902,46.91424,162.0903],[18.21918,46.88864,149.126],[18.2167,46.88194,145.4336],[18.21215,46.8758,127.9824],[18.21132,46.81874,147.2099],[18.21804,46.79068,154.6223],[18.26992,46.80066,145.8806],[18.32098,46.8004,124.2342],[18.32946,46.80309,155.183],[18.3986,46.76386,116.7524],[18.44025,46.75043,101.401],[18.4819,46.74516,96.825],[18.49492,46.7466,96.8355],[18.50691,46.75694,106.8061],[18.51921,46.77265,112.3005],[18.53988,46.78304,148.7134],[18.55973,46.78446,134.8877],[18.63032,46.70743,95.148],[18.66018,46.70206,132.8423],[18.67827,46.70919,155.5925],[18.69698,46.71351,155.5572],[18.73956,46.73265,128.6078],[18.83723,46.81792,139.5659],[18.88074,46.83838,98.6187],[18.92673,46.84841,90.0],[18.84413,46.88824,132.7893],[18.82842,46.92162,129.5948],[18.84217,46.97659,145.9597],[18.89714,47.01586,148.0839],[18.95515,46.9947,93.5],[18.95433,47.00524,107.8945],[18.95691,47.01168,107.8443],[18.96208,47.01718,108.3537],[18.96673,47.02369,96.4614],[18.96797,47.03315,98.761],[18.91877,47.07403,110.511],[18.90306,47.08157,109.518],[18.89686,47.09025,117.9223],[18.88921,47.11035,111.8965],[18.87919,47.14924,110.304],[18.87888,47.16896,104.6804],[18.88136,47.18957,96.0],[18.88694,47.20813,101.4609],[18.90761,47.23743,96.5],[18.91877,47.28711,97.0],[18.90275,47.30375,134.4363],[18.86834,47.30709,149.4626],[18.85614,47.31794,148.9761],[18.84829,47.33238,130.1012],[18.81939,47.35628,127.0815]],
[[18.42918,47.06567,101.8733],[18.4174,47.09512,105.46],[18.40562,47.13242,122.4328],[18.37617,47.16776,104.7559],[18.32894,47.20406,108.244],[18.37814,47.24237,138.5753],[18.43311,47.27967,208.5954],[18.45863,47.30716,127.8458],[18.47827,47.30323,171.0808],[18.4979,47.27574,138.2162],[18.52539,47.27574,149.6366],[18.56269,47.25611,210.5621],[18.55287,47.22077,123.2509],[18.55287,47.19525,105.1396],[18.57643,47.17365,109.7155],[18.57643,47.14617,109.4686],[18.55876,47.11868,120.4689],[18.52342,47.07941,107.9906],[18.49005,47.09119,122.3347],[18.42918,47.06567,101.8733]]]}
,"properties": {"ISO3166-1-Alpha-3": "HUN","country": "Hungary","fill": "#FF0","name": "Fejér","area_km2": 3938.912,"hist_schema_id": "Elevation0-9000","hist_area_km2": {"100": 679.01,"125": 1112.06,"150": 983.226,"175": 413.938,"200": 270.798,"225": 157.873,"250": 96.901,"275": 58.352,"300": 39.994,"325": 29.72,"350": 21.647,"375": 21.372,"400": 21.615,"425": 15.285,"450": 12.287,"475": 4.333,"500": 0.502}}}