{"type":"Feature","properties":{"GID_2":"HUN.19.4_1","GID_0":"HUN","country":"Hungary","GID_1":"HUN.19_1","province":"Veszprém","NL_NAME_1":"NA","county":"Pápa","VARNAME_2":"Pápai","NL_NAME_2":"NA","TYPE_2":"Kistérség","ENGTYPE_2":"Subregion","CC_2":"NA","HASC_2":"NA","name":"Pápa.county"},
"geometry":{"type": "MultiPolygon","coordinates": [[[[17.1766,47.4321,135.3664],[17.1873,47.4211,134.1073],[17.1904,47.4051,139.7089],[17.2057,47.397,144.0813],[17.2003,47.3846,145.172],[17.2012,47.3757,153.9941],[17.2042,47.3718,148.0717],[17.2257,47.3596,151.845],[17.2348,47.357,143.984],[17.2492,47.3564,141.0325],[17.2634,47.3536,131.4089],[17.282,47.3479,128.3792],[17.2922,47.3419,125.4778],[17.3024,47.3318,122.7349],[17.2999,47.3262,121.8688],[17.295,47.3234,127.1457],[17.2563,47.3224,124.8308],[17.2351,47.3145,122.0313],[17.2301,47.3063,134.9922],[17.231,47.2864,136.7688],[17.2119,47.2773,123.7879],[17.2131,47.2608,129.5856],[17.2282,47.2571,134.2726],[17.2447,47.2651,140.8235],[17.2746,47.2654,148.5355],[17.2836,47.2622,147.3822],[17.2961,47.2526,141.2374],[17.3027,47.245,146.5558],[17.3064,47.243899999999996,148.5768],[17.3333,47.2475,139.7687],[17.3354,47.2508,134.3193],[17.3314,47.2591,137.0418],[17.3355,47.2631,138.2875],[17.3566,47.2637,157.5014],[17.3729,47.2523,146.8448],[17.3763,47.2363,151.1053],[17.3971,47.2292,156.6901],[17.4039,47.2248,170.297],[17.4054,47.2214,168.3014],[17.4062,47.2097,165.8678],[17.4104,47.2053,176.5279],[17.423,47.204,171.652],[17.4411,47.1993,183.6067],[17.4446,47.2009,182.5209],[17.4494,47.208,182.6914],[17.4537,47.2104,187.9781],[17.4919,47.2113,220.1595],[17.5106,47.2187,224.1243],[17.5206,47.2159,238.0963],[17.5319,47.2067,254.9721],[17.548,47.2059,290.0504],[17.5604,47.2091,299.4225],[17.5712,47.2158,271.0456],[17.5746,47.2164,300.116],[17.5854,47.2096,312.9294],[17.5882,47.201,284.1257],[17.5973,47.1918,345.0808],[17.606,47.1871,361.8654],[17.6224,47.1897,346.416],[17.6445,47.1872,413.4586],[17.6654,47.1962,411.1364],[17.6716,47.2009,444.5427],[17.6857,47.2007,440.9792],[17.6883,47.2071,364.8934],[17.6916,47.2102,358.2963],[17.7051,47.2144,398.7856],[17.7134,47.2226,369.5711],[17.7287,47.229,297.8647],[17.727,47.2335,308.6616],[17.7192,47.2427,298.6541],[17.7087,47.2449,361.0776],[17.7066,47.2468,383.8668],[17.7068,47.2527,441.304],[17.7156,47.2651,278.2202],[17.7205,47.2671,435.5444],[17.7335,47.2674,383.0463],[17.7397,47.2663,379.804],[17.748,47.2623,345.7028],[17.7549,47.262,427.4297],[17.7592,47.2643,433.5293],[17.7676,47.2739,396.9379],[17.7675,47.2851,446.3505],[17.7589,47.2975,639.2217],[17.7573,47.3138,490.3628],[17.7371,47.3199,373.6607],[17.7348,47.3267,334.9091],[17.7274,47.3364,253.1291],[17.7268,47.3426,240.3893],[17.7321,47.3506,245.5799],[17.7499,47.3577,242.2203],[17.7581,47.3662,239.3176],[17.7735,47.3775,249.7733],[17.7786,47.3851,227.7034],[17.7796,47.3953,206.0355],[17.7901,47.405,193.949],[17.7803,47.4217,174.2863],[17.7688,47.433,156.9766],[17.7572,47.4505,197.4383],[17.747,47.46,225.708],[17.737,47.4624,212.3911],[17.7326,47.452,181.6064],[17.7292,47.4502,184.8198],[17.7062,47.4502,188.297],[17.7029,47.4533,193.2808],[17.7019,47.4683,176.2761],[17.6982,47.4702,171.179],[17.6729,47.464,206.1693],[17.6695,47.4611,172.1275],[17.6676,47.4538,177.1667],[17.6554,47.4504,148.8597],[17.6438,47.4532,135.6638],[17.6276,47.4599,135.2971],[17.6127,47.4568,137.7401],[17.5924,47.4633,135.9997],[17.5876,47.4635,135.6265],[17.5799,47.4599,139.8847],[17.5798,47.4567,143.5177],[17.5832,47.4517,142.5433],[17.5824,47.4487,144.8222],[17.5677,47.4421,148.452],[17.5532,47.4478,150.7634],[17.5374,47.4571,157.745],[17.5227,47.4623,150.5054],[17.5121,47.4547,143.6714],[17.5083,47.4481,141.3348],[17.5074,47.4406,129.028],[17.5027,47.4335,138.6959],[17.4947,47.4275,131.5032],[17.487,47.4259,131.6518],[17.4759,47.4283,130.205],[17.4605,47.4286,126.3559],[17.4547,47.431,125.9035],[17.4493,47.4379,124.8365],[17.4468,47.4512,123.1186],[17.4347,47.4609,124.5986],[17.4325,47.4783,119.5079],[17.427,47.4802,119.5117],[17.4165,47.4774,117.8988],[17.3954,47.4761,116.4998],[17.3821,47.4535,124.2988],[17.3677,47.4457,127.5594],[17.317,47.4439,120.1335],[17.2985,47.4317,121.1629],[17.293,47.4297,127.4451],[17.2567,47.4346,134.5556],[17.2152,47.4343,126.806],[17.1947,47.4412,129.9694],[17.1856,47.4385,129.6335],[17.1766,47.4321,135.3664]]]]}}