{"type": "Feature","bbox": [20.9853,47.6845,21.256,47.9665],"geometry": {"type": "MultiPolygon","coordinates": [[[[20.9881,47.7438,90.1545],[21.0112,47.7335,89.1968],[21.0231,47.7214,89.1501],[21.0497,47.7158,90.8364],[21.0643,47.7173,90.5183],[21.0752,47.7036,91.4754],[21.0857,47.696,91.2716],[21.0947,47.6906,90.1671],[21.1137,47.6845,89.6044],[21.1652,47.6847,89.8177],[21.1765,47.6896,104.1553],[21.1952,47.6939,90.5117],[21.2045,47.7016,90.0394],[21.2246,47.7021,89.8778],[21.2393,47.7212,89.1739],[21.2394,47.7775,89.2895],[21.2443,47.7884,90.0983],[21.2548,47.8028,90.4392],[21.256,47.807,90.6182],[21.2555,47.813,90.1182],[21.2524,47.8185,91.3014],[21.2507,47.8276,91.0467],[21.2281,47.8323,90.2988],[21.2257,47.8357,90.4668],[21.2262,47.8475,91.429],[21.2305,47.8559,91.9365],[21.2438,47.8618,91.4016],[21.2464,47.8659,94.2637],[21.2421,47.8776,91.8064],[21.2425,47.8877,91.0649],[21.2297,47.9016,91.194],[21.229,47.9041,90.6976],[21.2393,47.9173,90.9891],[21.251,47.9256,90.8184],[21.2498,47.9281,91.8319],[21.2353,47.935,100.2381],[21.2285,47.9428,100.7222],[21.2188,47.9499,98.231],[21.1992,47.9603,97.1323],[21.1806,47.9665,91.081],[21.1561,47.9662,89.8809],[21.1296,47.9591,98.1837],[21.1153,47.9587,92.5366],[21.1135,47.9393,93.4313],[21.1067,47.9325,93.4748],[21.0979,47.9275,92.9105],[21.0963,47.9243,112.5228],[21.0993,47.9206,107.4428],[21.1135,47.9147,91.8738],[21.1153,47.9111,91.246],[21.1147,47.9058,90.9687],[21.0951,47.9003,91.5558],[21.0911,47.8954,91.5451],[21.089,47.8799,94.2691],[21.0777,47.8702,94.264],[21.0752,47.8604,91.1533],[21.0622,47.858,100.4009],[21.0552,47.852,92.4165],[21.0542,47.8362,92.1247],[21.0499,47.8334,91.9953],[21.069,47.8232,89.5898],[21.0715,47.8203,89.5089],[21.0563,47.7995,90.6095],[21.0543,47.782,90.2743],[21.0493,47.7718,89.7125],[21.0385,47.7651,90.1751],[21.0364,47.7575,90.8475],[21.0315,47.7489,89.4996],[21.0283,47.7487,90.51],[21.013,47.7551,90.4146],[20.9929,47.7533,89.3007],[20.9853,47.75,98.0597],[20.9881,47.7438,90.1545]]]]}
,"properties": {"GID_2": "HUN.9.8_1","GID_0": "HUN","country": "Hungary","GID_1": "HUN.9_1","province": "Hajdú-Bihar","NL_NAME_1": "NA","county": "Polgár","VARNAME_2": "NA","NL_NAME_2": "NA","TYPE_2": "Kistérség","ENGTYPE_2": "Subregion","CC_2": "NA","HASC_2": "NA","name": "Polgár.county","area_km2": 383.802,"hist_schema_id": "Elevation0-9000","hist_area_km2": {"75": 0.0285,"100": 383.2327,"125": 0.5408}}}