{"type": "Feature","bbox": [20.8232,46.5599,21.2988,46.7795],"geometry": {"type": "MultiPolygon","coordinates": [[[[20.8873,46.7707,87.6253],[20.8768,46.7588,87.9484],[20.8764,46.7547,87.8478],[20.8795,46.7488,87.0693],[20.8762,46.7451,87.6552],[20.8696,46.7448,88.7344],[20.8456,46.7509,87.5923],[20.8386,46.7485,87.8376],[20.8346,46.7409,87.3012],[20.8413,46.7338,86.5671],[20.8442,46.7275,87.2489],[20.8232,46.7066,86.6035],[20.8416,46.6928,87.344],[20.8557,46.6791,88.0362],[20.8689,46.663,88.6409],[20.8783,46.6455,88.9272],[20.8926,46.6306,91.4934],[20.8986,46.6215,90.4554],[20.9122,46.6133,91.1168],[20.912,46.6109,91.3679],[20.9036,46.6073,91.168],[20.9017,46.6036,91.2574],[20.9051,46.596,91.427],[20.906,46.5868,93.7072],[20.9108,46.5763,94.6747],[20.9179,46.5791,91.8556],[20.9233,46.5791,92.0557],[20.9257,46.5771,92.6431],[20.9261,46.5704,93.4641],[20.928,46.5681,93.0663],[20.9452,46.5663,94.2277],[20.97,46.5599,93.296],[20.9756,46.5673,93.4401],[20.9757,46.5793,93.1822],[20.9724,46.5825,93.054],[20.9587,46.5877,91.8061],[20.9574,46.5905,91.3756],[20.9812,46.6066,91.799],[21.0033,46.6169,90.9345],[21.049,46.6158,90.1053],[21.0518,46.6182,89.5383],[21.0523,46.6274,89.1444],[21.0541,46.6296,89.1606],[21.0777,46.633,86.6693],[21.1027,46.6424,85.7549],[21.116,46.643,85.3016],[21.1217,46.6478,76.0386],[21.1359,46.6448,85.7048],[21.1462,46.645,86.0294],[21.1513,46.6498,86.0956],[21.1657,46.67,85.7079],[21.1707,46.6728,89.4198],[21.1855,46.672,88.0037],[21.1953,46.6641,85.5156],[21.2211,46.6661,86.5223],[21.2231,46.6695,93.7065],[21.2195,46.677,84.7016],[21.2196,46.6846,84.6888],[21.2282,46.6964,85.8119],[21.2471,46.6977,86.1244],[21.2693,46.7024,99.3167],[21.2656,46.7128,99.8268],[21.2661,46.7159,97.6838],[21.2931,46.726,87.1556],[21.2981,46.7347,85.9422],[21.2988,46.7394,84.7794],[21.2984,46.7496,84.9809],[21.2947,46.7591,85.4876],[21.2964,46.7689,86.0369],[21.2722,46.767,83.7803],[21.2409,46.7788,85.0255],[21.2312,46.7795,84.4133],[21.2194,46.7758,85.692],[21.2148,46.7694,85.1526],[21.2046,46.7645,84.5134],[21.2033,46.7363,85.4364],[21.2008,46.7337,85.7186],[21.1892,46.7299,83.8198],[21.1859,46.7298,83.7835],[21.174,46.7345,85.0761],[21.1302,46.7356,85.3034],[21.1216,46.7308,84.7995],[21.1141,46.7194,84.3748],[21.0867,46.7198,83.96],[21.083,46.7225,84.1666],[21.0826,46.739,85.1143],[21.0688,46.7415,84.6783],[21.0624,46.7484,85.3709],[21.0594,46.7493,84.6339],[21.033,46.7411,85.0904],[20.9934,46.7216,88.0174],[20.9891,46.7221,88.0738],[20.978,46.7289,87.7927],[20.9611,46.73,87.2722],[20.9506,46.7297,89.1329],[20.9335,46.7234,88.9156],[20.9272,46.7264,89.3807],[20.9184,46.7339,89.393],[20.9168,46.7479,88.0346],[20.9097,46.7558,87.3565],[20.9031,46.7685,87.2656],[20.8961,46.7725,87.2224],[20.8873,46.7707,87.6253]]]]}
,"properties": {"GID_2": "HUN.3.1_1","GID_0": "HUN","country": "Hungary","GID_1": "HUN.3_1","province": "Békés","NL_NAME_1": "NA","county": "Békéscsabai","VARNAME_2": "NA","NL_NAME_2": "NA","TYPE_2": "Kistérség","ENGTYPE_2": "Subregion","CC_2": "NA","HASC_2": "NA","name": "Békéscsabai.county","area_km2": 395.6279,"hist_schema_id": "Elevation0-9000","hist_area_km2": {"75": 144.6086,"100": 250.8739,"125": 0.1454}}}