{"type":"Feature","properties":{"GID_2":"HUN.1.4_1","GID_0":"HUN","country":"Hungary","GID_1":"HUN.1_1","province":"Bács-Kiskun","NL_NAME_1":"NA","county":"Kalocsa","VARNAME_2":"Kalocsai","NL_NAME_2":"NA","TYPE_2":"Kistérség","ENGTYPE_2":"Subregion","CC_2":"NA","HASC_2":"NA","name":"Kalocsa.county"},
"geometry":{"type": "MultiPolygon","coordinates": [[[[19.1607,46.316,153.4087],[19.2113,46.3393,152.3828],[19.2143,46.342,155.211],[19.2038,46.3578,138.5442],[19.2039,46.3633,142.086],[19.2075,46.369,148.5267],[19.1813,46.4058,114.4269],[19.1684,46.4103,110.8782],[19.1521,46.4054,91.9939],[19.1404,46.4051,96.1369],[19.136,46.4073,91.3245],[19.1324,46.414,91.7477],[19.1335,46.4279,91.1664],[19.1419,46.4382,94.5589],[19.1531,46.4411,92.0787],[19.1555,46.453,93.1427],[19.1869,46.4548,107.9956],[19.1916,46.4598,100.1699],[19.1967,46.4722,99.7818],[19.1971,46.5088,96.4761],[19.1893,46.5217,92.575],[19.1891,46.5491,93.2105],[19.1815,46.5689,91.8237],[19.1895,46.5849,95.1749],[19.1906,46.5984,96.2883],[19.2027,46.6058,95.8067],[19.2032,46.6266,92.7071],[19.1979,46.6327,92.1336],[19.167,46.6485,92.0065],[19.1619,46.6555,92.0994],[19.157,46.6706,92.0],[19.1575,46.6796,92.0507],[19.1624,46.6895,92.0502],[19.1743,46.7033,92.4481],[19.1668,46.7222,92.3275],[19.1668,46.7262,92.4433],[19.1848,46.7389,93.1527],[19.1873,46.7426,92.8704],[19.176,46.7688,93.2497],[19.1754,46.7921,92.317],[19.1558,46.8153,94.3591],[19.1447,46.8193,98.2494],[19.1212,46.8211,94.9754],[19.117,46.8258,101.3208],[19.1143,46.8329,97.7376],[19.1095,46.8374,93.7835],[19.1021,46.838,94.0625],[19.0883,46.8359,94.8034],[19.0858,46.8376,95.1345],[19.0813,46.8456,94.6684],[19.0775,46.8473,95.1761],[19.0613,46.8434,95.1953],[19.0573,46.844,95.3939],[19.0513,46.8518,94.3287],[19.0516,46.856,99.0784],[19.0551,46.8617,96.0101],[19.0545,46.8642,96.8206],[19.0522,46.8655,95.6246],[19.0346,46.8651,95.5342],[19.0221,46.8519,102.1202],[18.985,46.8466,93.9494],[18.9671,46.8526,94.1856],[18.9624,46.8595,94.6262],[18.9556,46.8646,95.0932],[18.9342,46.8736,98.5808],[18.9306,46.8668,100.2311],[18.9297,46.8602,98.3156],[18.9346,46.8432,94.8379],[18.934,46.8341,114.9572],[18.9303,46.8273,110.2131],[18.9306,46.8217,100.8672],[18.9349,46.8175,105.4457],[18.9455,46.8129,110.161],[18.9535,46.8075,108.2289],[18.9634,46.7944,97.7252],[18.9742,46.7709,109.7653],[18.9938,46.743899999999996,94.7621],[19.0026,46.7257,93.9692],[19.0037,46.7165,89.75],[19.0069,46.7111,89.25],[19.0076,46.7055,89.0],[18.9979,46.6804,104.8412],[18.9792,46.6558,94.0717],[18.9556,46.6504,90.1265],[18.9376,46.6402,88.7093],[18.8917,46.6392,92.6403],[18.8757,46.6318,86.5],[18.8673,46.6217,86.5],[18.8674,46.5974,96.6499],[18.8823,46.5822,86.3141],[18.8876,46.5714,86.0],[18.8885,46.5306,94.5786],[18.904,46.5148,98.197],[18.9162,46.498,93.3362],[18.9175,46.4936,85.5],[18.9164,46.4544,98.7271],[18.9076,46.4364,85.5],[18.8851,46.4057,85.5],[18.8834,46.4008,85.125],[18.884,46.3883,102.2873],[18.8911,46.3749,89.3508],[18.8922,46.363,91.6714],[18.8956,46.3562,85.0],[18.8964,46.3362,85.0],[18.9053,46.3205,110.2499],[18.9126,46.3135,102.6762],[18.9158,46.3182,84.5],[18.9173,46.3258,114.0391],[18.9222,46.3358,98.125],[18.9293,46.3453,89.3039],[18.9341,46.3471,96.26],[18.9469,46.3471,89.1074],[18.9527,46.3454,89.5117],[18.9687,46.3343,89.0731],[18.976,46.3244,88.4307],[18.98,46.3218,88.0344],[18.99,46.3214,88.9075],[19.0028,46.3246,89.9364],[19.0044,46.3261,88.9184],[19.0042,46.3299,89.532],[18.9928,46.346,89.3133],[18.9931,46.3493,89.4852],[18.9964,46.3546,89.8226],[18.9959,46.3587,89.409],[18.986,46.3666,90.0629],[18.9776,46.3761,90.8728],[18.993,46.3909,90.4553],[19.0034,46.396,90.551],[19.0326,46.3862,92.4559],[19.0443,46.3673,89.1119],[19.063,46.3611,90.6734],[19.0701,46.3483,90.0656],[19.0829,46.3519,96.2679],[19.1091,46.3691,92.2716],[19.128,46.364,112.1069],[19.1351,46.356,123.5622],[19.137,46.3444,135.6809],[19.1607,46.316,153.4087]]]]}}