{"type":"Feature","properties":{"GID_2":"HUN.12.5_1","GID_0":"HUN","country":"Hungary","GID_1":"HUN.12_1","province":"Komárom-Esztergom","NL_NAME_1":"NA","county":"Oroszlány","VARNAME_2":"Oroszlányi","NL_NAME_2":"NA","TYPE_2":"Kistérség","ENGTYPE_2":"Subregion","CC_2":"NA","HASC_2":"NA","name":"Oroszlány.county"},
"geometry":{"type": "MultiPolygon","coordinates": [[[[18.3588,47.4612,255.7127],[18.364,47.4708,243.5557],[18.3644,47.4749,247.6621],[18.3582,47.4849,224.0763],[18.3533,47.4991,210.5472],[18.3497,47.505,233.9512],[18.3451,47.5079,231.8417],[18.3283,47.512,175.822],[18.3124,47.5227,162.7005],[18.3098,47.5266,164.5808],[18.3103,47.5365,159.701],[18.3091,47.5387,159.5143],[18.3058,47.539,170.7395],[18.289,47.5337,178.9506],[18.285,47.5345,200.3566],[18.2853,47.5468,220.2554],[18.289,47.5566,178.8592],[18.2698,47.5748,199.2858],[18.24,47.5638,206.2619],[18.2257,47.5633,199.6462],[18.2155,47.5653,179.8251],[18.2024,47.5657,178.8356],[18.1817,47.5706,179.7262],[18.1791,47.5787,177.9719],[18.1757,47.582,171.3011],[18.168,47.5865,172.3875],[18.1526,47.5919,165.5821],[18.1284,47.5851,145.9893],[18.1226,47.5813,148.9785],[18.116,47.5738,149.9108],[18.1306,47.567,168.0765],[18.1326,47.564,169.2664],[18.1333,47.5548,181.3955],[18.1375,47.5483,183.7355],[18.1606,47.5317,184.8212],[18.1626,47.5198,181.3604],[18.1736,47.5102,198.1537],[18.1747,47.4974,215.2335],[18.1831,47.4764,233.206],[18.2068,47.4764,257.1965],[18.2293,47.4673,220.5384],[18.2314,47.4644,213.6404],[18.2321,47.456,213.4341],[18.2369,47.4426,186.4449],[18.2577,47.433,241.7923],[18.2653,47.423,255.4241],[18.2822,47.4082,292.5982],[18.2862,47.4069,300.3837],[18.3031,47.4073,380.9472],[18.3165,47.4183,314.702],[18.3321,47.4165,371.9037],[18.3469,47.4205,398.5642],[18.3478,47.4254,388.9095],[18.3381,47.4396,275.4241],[18.3376,47.4444,259.2912],[18.3406,47.4482,254.9203],[18.3588,47.4612,255.7127]]]]}}