{"type": "Feature","bbox": [19.5807,47.5927,19.879,47.8211],"geometry": {"type": "MultiPolygon","coordinates": [[[[19.7284,47.8211,322.5641],[19.7079,47.8182,234.4009],[19.6878,47.8177,135.6522],[19.6786,47.8076,133.7564],[19.6588,47.8124,136.6261],[19.6525,47.811,133.2189],[19.6481,47.8075,148.792],[19.6469,47.804,149.8659],[19.6513,47.7911,144.4615],[19.6508,47.7859,142.7087],[19.647,47.7783,140.565],[19.6497,47.7703,139.3535],[19.649,47.7681,139.8036],[19.6148,47.7668,160.0864],[19.6101,47.7625,157.3634],[19.6077,47.7561,157.0367],[19.6032,47.7509,155.6462],[19.5807,47.745,151.1674],[19.5897,47.7343,144.8143],[19.6024,47.7275,145.5997],[19.6111,47.7148,134.6779],[19.6111,47.7086,136.5849],[19.6071,47.7008,123.6536],[19.6063,47.6831,138.0947],[19.6068,47.6786,135.8927],[19.6111,47.6692,132.5102],[19.627,47.6544,126.6096],[19.6456,47.647,120.3152],[19.6472,47.6439,120.8314],[19.648,47.6348,118.5453],[19.6589,47.6221,115.136],[19.6544,47.6032,112.1147],[19.6496,47.5927,112.4358],[19.6767,47.597,111.096],[19.6935,47.5971,115.5603],[19.7066,47.5949,110.7998],[19.7088,47.5962,110.9645],[19.7093,47.5986,111.0099],[19.7053,47.6071,111.7681],[19.7088,47.6117,111.9862],[19.7305,47.6186,114.1507],[19.746,47.6202,114.6825],[19.7555,47.6232,130.3024],[19.7633,47.6229,128.883],[19.8038,47.6104,120.1473],[19.8254,47.6124,112.8108],[19.834,47.6262,112.9412],[19.8404,47.6314,113.0792],[19.8581,47.6397,111.4498],[19.8713,47.648,109.5683],[19.879,47.6673,111.0837],[19.8524,47.6778,114.9894],[19.8514,47.6912,129.8892],[19.8333,47.7052,129.9932],[19.8344,47.7075,141.6127],[19.8435,47.713,153.8644],[19.85,47.7196,167.6157],[19.8535,47.7245,181.857],[19.8526,47.7267,184.4601],[19.8367,47.7325,200.9116],[19.7934,47.7563,221.7361],[19.7796,47.7586,211.9105],[19.7651,47.7654,153.9366],[19.7629,47.7696,171.7973],[19.7641,47.7904,193.7926],[19.7611,47.7963,212.5739],[19.7606,47.8052,197.0012],[19.7568,47.8117,216.2508],[19.7508,47.8173,295.1294],[19.7284,47.8211,322.5641]]]]}
,"properties": {"GID_2": "HUN.10.5_1","GID_0": "HUN","country": "Hungary","GID_1": "HUN.10_1","province": "Heves","NL_NAME_1": "NA","county": "Hatvani","VARNAME_2": "NA","NL_NAME_2": "NA","TYPE_2": "Kistérség","ENGTYPE_2": "Subregion","CC_2": "NA","HASC_2": "NA","name": "Hatvani.county","area_km2": 336.1519,"hist_schema_id": "Elevation0-9000","hist_area_km2": {"100": 9.5161,"125": 201.8564,"150": 54.0657,"175": 25.4255,"200": 18.9447,"225": 14.3362,"250": 6.9949,"275": 2.2215,"300": 1.2531,"325": 0.8686,"350": 0.4841,"375": 0.1566,"400": 0.0285}}}