{"type": "Feature","id": "4914","bbox": [18.6146,46.29872,18.88748,46.41649],"geometry": {"type": "Polygon","coordinates": [[[18.7693,46.36103,102.0197],[18.76228,46.38054,90.9241],[18.75797,46.39636,89.5218],[18.73927,46.41649,93.041],[18.71626,46.41361,93.4246],[18.70763,46.39492,93.3569],[18.68175,46.39204,91.8558],[18.6635,46.39643,89.8396],[18.64867,46.38198,130.5101],[18.6271,46.36903,96.1236],[18.61703,46.35465,109.6684],[18.6146,46.34113,193.6544],[18.62023,46.3304,177.2334],[18.62994,46.32171,268.1989],[18.65191,46.33091,245.0023],[18.65651,46.33909,196.3069],[18.66162,46.33909,142.6285],[18.66417,46.3258,183.9088],[18.66826,46.31098,248.8797],[18.68104,46.30332,200.6779],[18.70045,46.29872,89.8487],[18.71732,46.31558,88.624],[18.72652,46.33193,89.0154],[18.73622,46.34215,87.7578],[18.75871,46.33551,88.5705],[18.78324,46.32989,88.3153],[18.80572,46.32785,89.4283],[18.83178,46.32325,89.3018],[18.85478,46.31865,100.5108],[18.87828,46.31916,109.2311],[18.88748,46.33091,118.983],[18.88595,46.34062,96.8851],[18.87794,46.34772,88.8126],[18.86451,46.34577,88.7239],[18.85198,46.34113,106.8458],[18.851,46.35114,89.0215],[18.8471,46.35631,89.2028],[18.84051,46.35895,89.8813],[18.83147,46.36103,99.0994],[18.82244,46.35493,94.8639],[18.81764,46.35045,114.101],[18.81764,46.34797,95.9273],[18.81292,46.35045,103.4696],[18.80738,46.35493,96.7589],[18.80348,46.35924,103.0281],[18.80348,46.36103,96.0292],[18.7693,46.36103,102.0197]]]}
,"properties": {"ISO3166-1-Alpha-3": "HUN","country": "Hungary","fill": "#F0F","name": "Szekszárd","area_km2": 120.56837,"hist_schema_id": "Elevation0-9000","hist_area_km2": {"75": 0.84888,"100": 83.30478,"125": 9.79151,"150": 6.16171,"175": 6.65974,"200": 5.18115,"225": 4.71279,"250": 2.81006,"275": 1.0392,"300": 0.05856}}}