{"type":"Feature","properties":{"GID_2":"HUN.17.4_1","GID_0":"HUN","country":"Hungary","GID_1":"HUN.17_1","province":"Tolna","NL_NAME_1":"NA","county":"Szekszárd","VARNAME_2":"Szekszárdi","NL_NAME_2":"NA","TYPE_2":"Kistérség","ENGTYPE_2":"Subregion","CC_2":"NA","HASC_2":"NA","name":"Szekszárd.county"},
"geometry":{"type": "MultiPolygon","coordinates": [[[[18.9126,46.3135,102.6762],[18.9053,46.3205,110.2499],[18.8964,46.3362,85.0],[18.8956,46.3562,85.0],[18.8922,46.363,91.6714],[18.8911,46.3749,89.3508],[18.884,46.3883,102.2873],[18.8833,46.3945,85.0],[18.8843,46.4045,85.5],[18.9076,46.4364,85.5],[18.911,46.4432,93.0021],[18.8812,46.4533,90.6925],[18.8718,46.463,89.6385],[18.8489,46.4951,90.3183],[18.8438,46.4999,90.4931],[18.8127,46.506,90.8881],[18.7679,46.5062,102.1646],[18.7552,46.5102,104.8651],[18.7536,46.5124,106.5562],[18.7542,46.5141,111.6296],[18.7715,46.5222,99.1715],[18.7737,46.5271,100.5396],[18.7704,46.5331,108.4975],[18.769,46.543,130.0421],[18.7644,46.5523,150.6974],[18.748,46.5637,148.4734],[18.7174,46.5725,149.9055],[18.7063,46.5723,143.4115],[18.6972,46.5689,119.1549],[18.688,46.5603,107.9349],[18.6512,46.5407,114.2766],[18.6419,46.5379,108.9111],[18.6299,46.5391,107.0466],[18.5997,46.5286,97.2053],[18.5974,46.5297,92.1635],[18.5965,46.5323,91.2731],[18.596,46.5727,93.7332],[18.5922,46.5747,97.5352],[18.5767,46.575,202.2957],[18.5686,46.5784,157.3941],[18.5596,46.5719,115.8534],[18.5544,46.5632,137.7101],[18.5544,46.5452,165.4875],[18.5505,46.5355,170.0014],[18.554,46.5254,128.403],[18.5472,46.512,160.4792],[18.5466,46.5077,158.067],[18.5474,46.502,137.3201],[18.5547,46.4894,132.2318],[18.5538,46.4856,111.9914],[18.5422,46.4818,112.8594],[18.5141,46.4912,170.2414],[18.5093,46.4913,147.8853],[18.493,46.481,183.6691],[18.4802,46.4793,206.1972],[18.4708,46.4761,218.8621],[18.4543,46.4657,194.1021],[18.4702,46.4544,229.5797],[18.4789,46.4435,193.7938],[18.505,46.4306,149.2115],[18.5117,46.4161,141.5768],[18.5202,46.4044,143.8319],[18.5278,46.3986,140.8146],[18.5401,46.3925,140.5202],[18.5445,46.3861,137.5415],[18.5461,46.3755,105.3064],[18.5533,46.3695,135.375],[18.5601,46.3671,99.4818],[18.5732,46.3701,102.0424],[18.5807,46.3767,97.903],[18.5837,46.3775,100.8566],[18.6144,46.365,96.4268],[18.6083,46.3534,175.9967],[18.6089,46.3331,168.5951],[18.6139,46.3274,233.195],[18.627,46.325,211.0941],[18.6319,46.318,268.4051],[18.6221,46.2993,202.541],[18.621,46.283,223.0668],[18.6086,46.2759,182.5793],[18.6065,46.2708,178.9639],[18.611,46.2616,137.8657],[18.6151,46.2573,153.396],[18.6302,46.2589,251.6208],[18.6411,46.2519,155.4985],[18.6437,46.2402,136.7069],[18.6548,46.2216,154.5804],[18.6559,46.2149,160.9818],[18.6545,46.2098,224.6467],[18.6463,46.2033,201.2516],[18.611,46.188,286.4567],[18.6188,46.178,252.3017],[18.6339,46.1705,238.821],[18.6448,46.16,193.2711],[18.6672,46.1474,177.3586],[18.6793,46.1365,174.8428],[18.7051,46.1289,148.3006],[18.7148,46.1201,142.4192],[18.7294,46.1133,143.2849],[18.7573,46.1124,139.7366],[18.7853,46.1019,82.0],[18.8064,46.1104,82.0],[18.8086,46.125,87.5745],[18.8197,46.135,88.6085],[18.8319,46.1586,103.3434],[18.8331,46.1858,89.689],[18.8388,46.1909,112.0006],[18.8475,46.1948,117.9684],[18.8496,46.1992,104.8686],[18.8473,46.2039,95.5794],[18.8192,46.207,91.0243],[18.8172,46.2081,88.3742],[18.8172,46.2105,87.614],[18.822,46.2167,87.6198],[18.8313,46.2231,90.4113],[18.8456,46.2299,99.8214],[18.8624,46.2343,88.079],[18.8696,46.2378,100.3276],[18.8698,46.2472,90.615],[18.8596,46.262,109.7879],[18.8634,46.269,113.9304],[18.868,46.27,98.3649],[18.8892,46.2629,101.4292],[18.8989,46.2642,102.6159],[18.903199999999998,46.2725,103.0451],[18.9048,46.28,92.3509],[18.9119,46.2907,95.9924],[18.9126,46.3135,102.6762]]]]}}