{"type": "Feature","bbox": [18.1378,47.5633,18.4901,47.7595],"geometry": {"type": "MultiPolygon","coordinates": [[[[18.4312,47.7595,103.0],[18.416,47.754,103.0],[18.3879,47.7509,103.0],[18.3463,47.7408,103.0],[18.3008,47.7337,103.0],[18.2924,47.7288,103.25],[18.2829,47.7257,115.6839],[18.264,47.7291,110.3446],[18.2357,47.7273,109.3312],[18.2329,47.7223,110.4983],[18.2362,47.7117,112.3854],[18.2246,47.6988,125.9095],[18.2264,47.692,126.1378],[18.223,47.6844,123.7861],[18.2223,47.6714,128.4327],[18.2234,47.6672,129.8158],[18.2372,47.6492,152.5133],[18.2371,47.6458,157.0605],[18.2117,47.6375,129.0309],[18.1942,47.6296,149.1493],[18.1802,47.6258,139.8475],[18.1724,47.6262,132.1477],[18.1641,47.6331,138.3746],[18.156,47.6328,136.0096],[18.1391,47.6238,129.8996],[18.1378,47.6175,138.1675],[18.1392,47.6121,146.3711],[18.1497,47.5981,157.7972],[18.1526,47.5919,165.5821],[18.168,47.5865,172.3875],[18.1757,47.582,171.3011],[18.1791,47.5787,177.9719],[18.1817,47.5706,179.7262],[18.2024,47.5657,178.8356],[18.2155,47.5653,179.8251],[18.2257,47.5633,199.6462],[18.2432,47.5644,214.052],[18.2868,47.5823,191.6008],[18.3025,47.5844,187.832],[18.3119,47.5999,172.2361],[18.3363,47.6171,158.1618],[18.345,47.6205,138.696],[18.3611,47.6187,134.6907],[18.3695,47.6305,149.2651],[18.3764,47.6333,156.6956],[18.3964,47.6333,312.6445],[18.4117,47.6284,480.1126],[18.4243,47.6266,515.6304],[18.4306,47.618899999999996,458.9463],[18.4343,47.6092,359.4528],[18.4352,47.5952,363.5581],[18.4443,47.5912,252.4309],[18.4592,47.5915,241.8839],[18.4625,47.5938,242.8336],[18.4766,47.6121,306.1647],[18.478,47.6275,337.7644],[18.4718,47.6398,337.9968],[18.4738,47.6427,354.9757],[18.4835,47.6481,319.9662],[18.4854,47.6604,442.9246],[18.4901,47.67,591.2477],[18.4751,47.6861,460.0697],[18.452,47.6996,275.8345],[18.4471,47.7178,207.4057],[18.4301,47.7332,177.0283],[18.4312,47.7595,103.0]]]]}
,"properties": {"GID_2": "HUN.12.6_1","GID_0": "HUN","country": "Hungary","GID_1": "HUN.12_1","province": "Komárom-Esztergom","NL_NAME_1": "NA","county": "Tata","VARNAME_2": "Tatai","NL_NAME_2": "NA","TYPE_2": "Kistérség","ENGTYPE_2": "Subregion","CC_2": "NA","HASC_2": "NA","name": "Tata.county","area_km2": 312.3757,"hist_schema_id": "Elevation0-9000","hist_area_km2": {"100": 18.9118,"125": 63.45,"150": 77.0367,"175": 40.3347,"200": 18.396,"225": 11.3311,"250": 12.1767,"275": 12.1344,"300": 15.0782,"325": 9.4526,"350": 7.4112,"375": 5.4839,"400": 4.9123,"425": 5.3261,"450": 3.3127,"475": 1.8709,"500": 0.9855,"525": 1.2428,"550": 2.1999,"575": 0.6569,"600": 0.5282,"625": 0.1428}}}