{"type": "Feature","bbox": [18.9309,47.8224,19.3859,48.035],"geometry": {"type": "MultiPolygon","coordinates": [[[[18.9898,48.0178,496.1638],[18.9895,48.0016,408.7765],[18.9801,47.987,502.7209],[18.9759,47.9847,424.3181],[18.9514,47.9784,533.2913],[18.9413,47.9727,595.2912],[18.9309,47.9629,813.9067],[18.9312,47.9513,684.8968],[18.9452,47.9336,760.246],[18.955,47.9282,617.7761],[18.9721,47.9225,440.7505],[18.9821,47.9118,322.5181],[18.9968,47.9028,299.6838],[19.0253,47.8929,269.8663],[19.0358,47.8833,232.4475],[19.0373,47.8717,330.912],[19.04,47.8681,319.9514],[19.0515,47.8641,312.7189],[19.0677,47.8621,192.3077],[19.0695,47.859,220.91309999999999],[19.0696,47.8489,283.8518],[19.0719,47.8465,278.9194],[19.0828,47.8463,279.2758],[19.0958,47.853,251.7023],[19.1056,47.8558,223.7401],[19.1272,47.8558,313.0897],[19.1585,47.8497,265.2625],[19.199,47.8482,300.4327],[19.2123,47.8406,258.7502],[19.2219,47.8305,303.0519],[19.2261,47.8288,311.8011],[19.2882,47.8283,300.6158],[19.3123,47.8334,261.3345],[19.3226,47.8338,277.419],[19.3416,47.8303,236.2371],[19.3646,47.8231,190.5675],[19.3821,47.8224,219.2006],[19.3822,47.8288,205.22],[19.3857,47.8347,213.2078],[19.3859,47.838,215.0168],[19.374,47.8482,243.2307],[19.3762,47.8544,201.9153],[19.3752,47.8575,216.6437],[19.3643,47.864,238.9947],[19.3474,47.8657,237.2483],[19.3445,47.8793,236.0182],[19.323,47.8904,235.0414],[19.3148,47.9001,255.5276],[19.3144,47.9131,229.0149],[19.3185,47.9193,269.3753],[19.3234,47.9208,291.6488],[19.3332,47.9187,286.0891],[19.339,47.9197,299.9183],[19.3442,47.9233,285.543],[19.3481,47.9283,281.2801],[19.3483,47.9326,281.906],[19.3374,47.9448,275.4363],[19.3114,47.9535,269.6334],[19.3056,47.9634,263.2743],[19.3039,47.9706,261.9677],[19.2948,47.9772,252.2315],[19.2881,47.9787,275.239],[19.2784,47.9759,220.1032],[19.2634,47.9656,235.7411],[19.2327,47.9652,149.6703],[19.2144,47.9602,180.2545],[19.2017,47.9607,190.0596],[19.1827,47.9668,199.6255],[19.1732,47.9725,202.6276],[19.1653,47.9896,180.2621],[19.1601,47.993899999999996,185.0346],[19.1205,48.0051,173.7297],[19.1111,48.01,192.534],[19.1065,48.0146,214.1308],[19.1053,48.0291,173.4779],[19.1012,48.0318,176.3256],[19.0898,48.035,180.4278],[19.0685,48.0349,180.0939],[19.0571,48.0241,201.8124],[19.0223,48.0106,327.0539],[18.9995,48.0139,380.1641],[18.9898,48.0178,496.1638]]]]}
,"properties": {"GID_2": "HUN.13.4_1","GID_0": "HUN","country": "Hungary","GID_1": "HUN.13_1","province": "Nógrád","NL_NAME_1": "NA","county": "Rétság","VARNAME_2": "Rétsági","NL_NAME_2": "NA","TYPE_2": "Kistérség","ENGTYPE_2": "Subregion","CC_2": "NA","HASC_2": "NA","name": "Rétság.county","area_km2": 438.408,"hist_schema_id": "Elevation0-9000","hist_area_km2": {"150": 6.8174,"175": 31.0038,"200": 67.3475,"225": 89.7682,"250": 71.5343,"275": 48.4611,"300": 30.4386,"325": 17.9528,"350": 10.5446,"375": 7.644,"400": 6.0934,"425": 5.2834,"450": 4.0039,"475": 4.0033,"500": 4.0604,"525": 4.7699,"550": 4.1737,"575": 3.9041,"600": 3.8474,"625": 2.5558,"650": 2.3146,"675": 2.1159,"700": 1.8177,"725": 1.7041,"750": 1.5478,"775": 1.0224,"800": 1.0224,"825": 0.8662,"850": 0.6816,"875": 0.4828,"900": 0.3976,"925": 0.1846,"950": 0.0426}}}