{"type": "Feature","bbox": [19.64,46.119,20.7765,46.8174],"geometry": {"type": "MultiPolygon","coordinates": [[[[20.7574,46.3547,93.0204],[20.7587,46.3657,94.2997],[20.7433,46.3824,93.6944],[20.7377,46.3915,92.8723],[20.7329,46.3947,93.3437],[20.6983,46.3963,91.806],[20.6913,46.395,91.1195],[20.6847,46.3878,91.8305],[20.6777,46.3685,90.9843],[20.6749,46.3666,91.2246],[20.6503,46.3632,90.5127],[20.5966,46.3629,86.7156],[20.589,46.3658,86.6855],[20.58,46.3786,86.1581],[20.5588,46.3881,85.4766],[20.5482,46.4038,84.8165],[20.5487,46.4118,85.6858],[20.5507,46.415,86.2407],[20.5688,46.4224,85.0286],[20.5793,46.4308,85.6831],[20.5811,46.453,84.9435],[20.5778,46.4608,85.5664],[20.5783,46.4647,85.3067],[20.603,46.474,86.0421],[20.5972,46.4952,86.0989],[20.606,46.5079,86.0655],[20.6084,46.5295,86.469],[20.6194,46.5397,88.1478],[20.6168,46.5456,87.19],[20.6105,46.5529,87.779],[20.5917,46.5618,87.0243],[20.5768,46.5832,85.9443],[20.5775,46.6301,85.8044],[20.5732,46.6412,85.8103],[20.5727,46.6623,87.2],[20.5686,46.6712,86.2661],[20.5679,46.6875,85.6519],[20.5705,46.6929,84.0187],[20.584,46.6997,83.1644],[20.5764,46.7114,82.8867],[20.5758,46.7391,83.5268],[20.577,46.7435,82.9387],[20.5875,46.7592,82.1304],[20.5885,46.7688,81.4619],[20.586,46.773,82.1435],[20.5735,46.7783,81.3883],[20.5659,46.7852,81.0894],[20.5613,46.7872,81.5345],[20.4897,46.785,81.0831],[20.4861,46.7869,81.1414],[20.4775,46.7969,83.1755],[20.4546,46.805,82.8963],[20.4392,46.8078,83.7076],[20.4185,46.8071,83.0292],[20.4054,46.7933,83.4553],[20.347,46.785,84.332],[20.3398,46.7826,83.9333],[20.3377,46.7789,84.3182],[20.3414,46.771,83.9563],[20.3378,46.7685,84.6169],[20.3001,46.7693,83.6702],[20.2648,46.7844,84.6563],[20.254,46.7937,83.3484],[20.2451,46.797,82.9778],[20.2335,46.8003,82.8858],[20.2126,46.8008,81.1658],[20.2085,46.7982,82.6222],[20.2152,46.7836,80.8664],[20.2145,46.7814,81.1612],[20.1914,46.7802,80.5225],[20.1874,46.7777,81.3832],[20.1826,46.771,79.6917],[20.1655,46.7641,80.0408],[20.1591,46.7623,80.2329],[20.1548,46.7629,80.1825],[20.129,46.7776,80.358],[20.1151,46.7815,80.8688],[20.1083,46.7783,80.5137],[20.1066,46.7702,81.7828],[20.1033,46.766,80.0179],[20.0968,46.7645,81.5794],[20.079,46.7689,84.6509],[20.0785,46.7904,79.1544],[20.0751,46.7932,80.8741],[20.0575,46.8006,82.3527],[20.0583,46.8153,80.4482],[20.0548,46.8174,83.9625],[20.0479,46.8126,82.0949],[20.0346,46.7962,80.9136],[20.0093,46.7704,93.4198],[19.9927,46.7577,89.075],[19.9618,46.7392,88.052],[19.9589,46.7355,88.7731],[19.963,46.7275,89.5372],[19.9687,46.7213,86.8627],[19.9912,46.7119,87.0743],[19.9944,46.7078,86.3758],[19.9937,46.6847,85.5538],[19.9778,46.6639,84.7969],[19.9766,46.6598,84.6205],[19.9771,46.6419,83.0],[19.9854,46.628,85.9007],[19.9852,46.597,88.2075],[19.974,46.5858,86.7152],[19.9494,46.5687,90.5413],[19.9425,46.5587,89.185],[19.9394,46.5567,89.7614],[19.9298,46.5591,97.6165],[19.8934,46.577,90.6532],[19.8759,46.5767,90.8461],[19.8579,46.57,92.1632],[19.829,46.5557,103.4073],[19.8005,46.5448,103.9673],[19.7867,46.5378,105.0004],[19.776,46.5298,108.6325],[19.7828,46.5206,103.8851],[19.8032,46.5067,99.6474],[19.8088,46.5056,111.0256],[19.8456,46.5059,110.1529],[19.8674,46.4969,101.3338],[19.8877,46.4829,99.9796],[19.8896,46.4782,96.3917],[19.889,46.4626,91.6434],[19.8784,46.4531,96.7654],[19.8748,46.4468,97.1294],[19.878,46.4413,96.9063],[19.8887,46.4296,94.8226],[19.8893,46.4153,95.267],[19.8749,46.4043,97.1718],[19.8722,46.3949,95.1931],[19.8648,46.3846,99.8506],[19.8532,46.3805,99.6892],[19.8431,46.3805,111.4934],[19.8152,46.3919,107.0497],[19.7961,46.3791,106.8578],[19.7698,46.3708,119.4645],[19.7601,46.3611,116.5863],[19.7534,46.3574,113.1193],[19.7396,46.3571,116.1423],[19.7305,46.3625,115.6115],[19.6969,46.3615,118.7364],[19.691,46.3596,119.6152],[19.6815,46.3536,118.9261],[19.6577,46.3484,124.889],[19.6561,46.3434,124.7246],[19.6575,46.3345,131.3067],[19.6743,46.3223,126.3907],[19.6872,46.309,123.2303],[19.6824,46.3022,126.0864],[19.6429,46.2741,133.5115],[19.64,46.2692,134.808],[19.6428,46.2641,130.0494],[19.6438,46.2551,129.5486],[19.6482,46.2459,127.3819],[19.667,46.2284,123.702],[19.679,46.2118,129.7922],[19.6812,46.203,127.3673],[19.6896,46.1908,115.5822],[19.6946,46.1872,115.632],[19.6968,46.1884,114.5461],[19.7114,46.1801,111.5662],[19.7147,46.1743,111.2776],[19.7198,46.1717,113.1909],[19.7271,46.1699,111.1867],[19.7323,46.1717,111.0589],[19.7394,46.1681,112.3619],[19.7573,46.1486,108.2508],[19.7781,46.1462,105.5485],[19.7932,46.1414,104.6639],[19.7987,46.1376,104.5801],[19.8164,46.1303,105.1915],[19.841,46.144,103.5853],[19.8511,46.152,122.6806],[19.8663,46.153,100.55],[19.9173,46.167,93.8882],[19.9344,46.1773,88.4143],[20.0199,46.1788,82.7709],[20.0251,46.1754,79.8467],[20.0267,46.1626,76.7234],[20.0297,46.1538,76.955],[20.0361,46.1481,79.0212],[20.0424,46.147,78.9263],[20.057,46.1512,77.1588],[20.0626,46.1506,78.0613],[20.0653,46.1483,77.0165],[20.086,46.1715,81.459],[20.0941,46.1781,91.1387],[20.1025,46.1803,81.1762],[20.1077,46.1763,80.0425],[20.1059,46.1741,79.4991],[20.1064,46.1674,76.6018],[20.1197,46.1582,76.4886],[20.1312,46.1541,77.2126],[20.1344,46.1499,79.5081],[20.1415,46.1468,77.4485],[20.1738,46.1565,78.545],[20.1813,46.1625,76.3207],[20.2089,46.146,80.0853],[20.2106,46.1377,79.3716],[20.2312,46.132,79.2753],[20.234,46.1261,78.6006],[20.2488,46.1328,79.4569],[20.2511,46.13,79.7269],[20.25,46.1229,78.7878],[20.2542,46.119,80.5178],[20.2608,46.1267,79.8231],[20.2655,46.1247,79.0656],[20.2669,46.1254,79.6039],[20.2659,46.1267,78.5133],[20.2718,46.1275,78.8942],[20.2733,46.1331,79.0182],[20.2771,46.1339,79.4085],[20.2847,46.1421,78.4785],[20.2985,46.1525,77.9793],[20.3008,46.1522,78.0602],[20.3109,46.1568,77.8502],[20.3142,46.1506,78.4151],[20.3572,46.1699,78.69],[20.3701,46.1533,79.5437],[20.3791,46.1581,79.4965],[20.3826,46.1583,80.2639],[20.3959,46.153,80.0406],[20.3989,46.1578,80.3051],[20.411,46.1515,79.5679],[20.428,46.1456,79.5138],[20.4468,46.1422,80.0287],[20.4607,46.1432,80.1332],[20.4969,46.1715,81.7972],[20.4948,46.1743,81.9607],[20.498,46.1786,82.1508],[20.4935,46.1813,82.3489],[20.4997,46.1849,82.9721],[20.4971,46.1864,82.6626],[20.4983,46.1892,88.1729],[20.5018,46.1886,89.6283],[20.5032,46.1903,81.418],[20.5251,46.1817,79.5],[20.5374,46.181,84.813],[20.5511,46.1775,86.8906],[20.5555,46.1724,80.0],[20.5637,46.17,83.7993],[20.5794,46.1596,81.5298],[20.5908,46.1546,84.5273],[20.5952,46.1504,84.2484],[20.6114,46.1465,86.4205],[20.6161,46.1406,84.7863],[20.6194,46.1404,82.7998],[20.6258,46.1362,90.3434],[20.6297,46.1302,83.0573],[20.6354,46.1271,102.2462],[20.6401,46.127,87.4485],[20.6509,46.1351,92.1982],[20.6512,46.1449,88.8748],[20.6547,46.1488,83.4287],[20.6652,46.1513,82.5],[20.6737,46.1499,87.244],[20.6783,46.1462,86.9947],[20.6883,46.1457,86.4759],[20.6936,46.1502,83.9749],[20.6965,46.159,93.6582],[20.7067,46.161,83.8188],[20.7105,46.1651,88.7405],[20.7155,46.1663,89.2082],[20.724,46.1878,88.6221],[20.7265,46.1876,88.9734],[20.733,46.1908,89.9797],[20.7357,46.1941,89.2714],[20.7273,46.1968,89.0203],[20.7301,46.2054,90.1179],[20.729,46.2078,90.916],[20.7634,46.2048,91.5766],[20.7504,46.251,92.1021],[20.7765,46.2757,94.6158],[20.7745,46.2778,102.9686],[20.7594,46.2839,93.5373],[20.7551,46.288,92.9138],[20.7468,46.3042,92.1088],[20.748,46.3293,92.9288],[20.7574,46.3547,93.0204]]]]}
,"properties": {"GID_1": "HUN.6_1","GID_0": "HUN","country": "Hungary","province": "Csongrád","VARNAME_1": "NA","NL_NAME_1": "NA","TYPE_1": "Megye","ENGTYPE_1": "County","CC_1": "NA","HASC_1": "HU.CS","ISO_1": "NA","name": "Csongrád.province","area_km2": 4309.734,"hist_schema_id": "Elevation0-9000","hist_area_km2": {"75": 3047.783,"100": 1057.573,"125": 201.769,"150": 2.609}}}