{"type": "Feature","id": "3172","bbox": [19.6531,46.10809,20.78737,46.80335],"geometry": {"type": "MultiPolygon","coordinates": [[[[20.70202,46.39376,92.2035],[20.64942,46.38428,89.0315],[20.59929,46.38451,86.4995],[20.58187,46.35586,86.013],[20.54653,46.32641,84.4698],[20.51905,46.27144,84.2822],[20.47193,46.24592,80.0228],[20.41303,46.24984,79.2358],[20.36983,46.26555,78.1545],[20.32664,46.26555,77.9847],[20.26896,46.25888,77.5118],[20.27093,46.23532,86.2709],[20.24317,46.23399,81.1312],[20.20851,46.23884,78.3694],[20.19632,46.22354,80.8226],[20.19828,46.20783,82.6679],[20.21203,46.19016,77.029],[20.23166,46.17838,79.4157],[20.2297,46.15679,80.0494],[20.20614,46.15286,79.7097],[20.18847,46.17838,79.2767],[20.16491,46.19802,77.3516],[20.14135,46.19998,79.6076],[20.1276,46.1882,76.7329],[20.11477,46.15222,82.102],[20.12015,46.14923,82.3219],[20.13038,46.13936,81.2059],[20.13803,46.13646,81.0444],[20.14536,46.13708,80.6551],[20.17048,46.1455,80.0036],[20.18846,46.14039,79.3063],[20.24283,46.10809,77.7097],[20.28324,46.1438,79.1342],[20.44416,46.1469,79.0012],[20.46855,46.17413,81.0874],[20.50937,46.16767,83.3524],[20.54896,46.15615,84.1423],[20.5781,46.13755,85.0636],[20.58802,46.13284,85.7785],[20.60012,46.12964,84.8292],[20.60756,46.12949,84.7009],[20.66399,46.13775,86.8663],[20.68352,46.14468,85.9097],[20.69882,46.15646,88.2878],[20.70419,46.16633,88.7576],[20.70437,46.16853,90.3759],[20.70533,46.18064,88.3503],[20.71029,46.18809,88.9462],[20.71784,46.19,90.0441],[20.72714,46.18772,89.6284],[20.73665,46.18669,90.298],[20.74471,46.19227,90.267],[20.74481,46.20028,90.7884],[20.73551,46.2225,91.2789],[20.73499,46.23191,91.7679],[20.73933,46.23749,89.4484],[20.7785,46.26007,94.4344],[20.78737,46.26339,95.0042],[20.78708,46.26369,95.0042],[20.7753,46.27594,96.619],[20.75659,46.28604,93.5062],[20.74915,46.30154,92.2206],[20.75742,46.32583,92.5072],[20.75907,46.34952,93.7868],[20.7474,46.36885,93.8461],[20.73076,46.38358,92.6935],[20.71112,46.38216,90.6695],[20.70202,46.39376,92.2035]]],
[[[20.55454,46.77402,81.7168],[20.50462,46.78319,82.1342],[20.42318,46.80335,84.1835],[20.3899,46.78944,83.8062],[20.35476,46.78205,83.716],[20.32251,46.76436,83.3475],[20.28582,46.77146,83.7587],[20.24996,46.79446,82.8665],[20.13472,46.76826,80.8582],[20.06134,46.80066,80.951],[20.01163,46.77032,95.8214],[19.96853,46.7286,90.0142],[19.9891,46.71777,86.5884],[19.99736,46.69973,86.2591],[19.97897,46.59049,88.4979],[19.94393,46.56408,89.0625],[19.85711,46.57349,91.9674],[19.81949,46.55514,102.3915],[19.82094,46.51411,110.7144],[19.86828,46.49117,105.3709],[19.87964,46.44466,100.9604],[19.8628,46.39926,97.0146],[19.84967,46.37929,102.2438],[19.82828,46.38017,102.6679],[19.79727,46.37304,106.2488],[19.76937,46.35888,110.5254],[19.74022,46.35681,117.3805],[19.71294,46.36298,119.8824],[19.68979,46.3612,121.4993],[19.66974,46.35066,120.0357],[19.67222,46.3271,125.6357],[19.67129,46.30456,124.8144],[19.65609,46.28333,127.6633],[19.6531,46.25495,124.7645],[19.67201,46.22041,122.4015],[19.69681,46.18829,114.5461],[19.71189,46.15871,123.5527],[19.77298,46.13155,113.9483],[19.79045,46.12907,106.2345],[19.87365,46.15299,98.9718],[19.88895,46.15739,95.4713],[19.92915,46.16354,88.2677],[19.99313,46.15941,75.8348],[20.03498,46.14297,78.2443],[20.06341,46.1453,72.0],[20.0687,46.21569,78.1729],[20.07852,46.22747,80.9922],[20.0687,46.25299,88.767],[20.0098,46.26477,86.3432],[20.01373,46.31778,86.4856],[20.053,46.33545,87.0025],[20.1119,46.3276,79.0],[20.14724,46.35508,81.1632],[20.16687,46.34134,79.2815],[20.1865,46.31582,80.1923],[20.21673,46.31684,78.5728],[20.21095,46.33165,81.4757],[20.21559,46.34797,79.902],[20.20354,46.35554,82.8781],[20.1985,46.36599,74.0],[20.19508,46.38898,81.0532],[20.18898,46.41002,81.0602],[20.18824,46.43366,78.0931],[20.19825,46.46731,78.4251],[20.22062,46.45599,81.4089],[20.23829,46.41476,80.062],[20.26185,46.43832,80.1029],[20.28148,46.49722,80.9143],[20.29719,46.52078,86.9252],[20.33253,46.51882,82.3221],[20.37572,46.509,81.5001],[20.46211,46.53256,83.472],[20.49745,46.51685,83.2224],[20.53083,46.48937,84.0577],[20.56617,46.46384,85.2355],[20.58565,46.44807,85.4137],[20.59578,46.46096,85.2656],[20.58916,46.48104,85.7145],[20.61097,46.50649,86.1902],[20.6242,46.53881,87.1811],[20.59495,46.54775,87.7048],[20.57924,46.56786,87.5595],[20.57573,46.6423,85.373],[20.58937,46.68989,83.7415],[20.58648,46.75368,82.1451],[20.55454,46.77402,81.7168]]]]}
,"properties": {"ISO3166-1-Alpha-3": "HUN","country": "Hungary","fill": "#FF0","name": "Csongrád","area_km2": 3415.535,"hist_schema_id": "Elevation0-9000","hist_area_km2": {"75": 2150.683,"100": 1061.557,"125": 201.17,"150": 2.125}}}