{"type": "Feature","bbox": [16.4227,47.3992,17.0122,47.7608],"geometry": {"type": "MultiPolygon","coordinates": [[[[16.6251,47.7575,192.9355],[16.6105,47.7608,169.7849],[16.6,47.7566,154.922],[16.5937,47.7595,159.8005],[16.5892,47.7559,173.7811],[16.5677,47.752,236.8308],[16.5492,47.752,256.6575],[16.5488,47.7497,279.9893],[16.5472,47.7498,262.5722],[16.5495,47.7464,294.268],[16.5478,47.7457,282.5618],[16.55,47.7436,302.6247],[16.5388,47.7404,271.5924],[16.54,47.7387,262.3359],[16.5377,47.7371,267.6527],[16.5534,47.723,222.9615],[16.5458,47.7175,223.0139],[16.5423,47.7126,231.595],[16.5287,47.7108,236.6068],[16.5218,47.7127,239.6561],[16.5181,47.7074,254.9916],[16.5122,47.7074,253.8667],[16.5055,47.704,257.0904],[16.501,47.7052,260.314],[16.4949,47.6991,270.2726],[16.4876,47.6979,277.7026],[16.4855,47.6955,281.5349],[16.4872,47.6932,291.8672],[16.4858,47.6919,288.2144],[16.4774,47.6908,310.2766],[16.4759,47.6817,372.3348],[16.4721,47.6828,341.3864],[16.4675,47.6813,359.5319],[16.4631,47.6831,365.5181],[16.4611,47.6846,365.3173],[16.4552,47.6973,324.6914],[16.4485,47.6967,349.3849],[16.4488,47.6921,407.8016],[16.4437,47.6778,496.8385],[16.4445,47.6745,499.7703],[16.4227,47.6657,560.8439],[16.4291,47.6612,563.6793],[16.441,47.6571,534.4363],[16.4526,47.6562,559.666],[16.4638,47.6517,557.6747],[16.4812,47.6503,495.5313],[16.4885,47.6422,495.8866],[16.4938,47.6427,526.6544],[16.4981,47.6398,481.7403],[16.5036,47.6405,457.3063],[16.5077,47.6388,464.1588],[16.5156,47.6466,490.8929],[16.5243,47.6416,420.4087],[16.53,47.6419,486.2485],[16.55,47.634,375.5466],[16.5737,47.6203,247.424],[16.5928,47.6181,195.3462],[16.6145,47.623,182.1759],[16.62,47.6262,178.4454],[16.6301,47.6285,201.5301],[16.6365,47.6282,209.0234],[16.654,47.6228,200.3358],[16.6607,47.6065,179.0461],[16.6727,47.6067,169.2907],[16.6743,47.6054,168.7768],[16.6676,47.5967,176.5679],[16.6763,47.5829,205.6516],[16.6763,47.5792,218.0353],[16.6725,47.5756,229.9241],[16.6723,47.5717,260.3713],[16.6653,47.5698,277.3589],[16.6646,47.5683,283.3077],[16.673,47.5603,262.9809],[16.6852,47.5617,254.5501],[16.6901,47.5599,259.4213],[16.6922,47.5583,256.7249],[16.6912,47.556,251.3758],[16.6994,47.5461,227.0159],[16.7053,47.5462,221.5709],[16.7071,47.5428,216.1703],[16.7124,47.5435,211.6089],[16.715699999999998,47.5401,232.0135],[16.7044,47.5336,227.0861],[16.7067,47.5233,259.0789],[16.6968,47.5186,257.5182],[16.696,47.5157,261.4639],[16.691,47.5108,248.8119],[16.6701,47.504,246.3878],[16.6637,47.5094,241.7321],[16.6591,47.5069,273.0819],[16.6535,47.5007,264.0322],[16.6635,47.4837,215.7919],[16.6694,47.4797,209.8374],[16.6717,47.4747,204.0316],[16.6636,47.4667,202.3107],[16.663,47.4632,197.8157],[16.6611,47.4622,198.1996],[16.6632,47.4561,195.0363],[16.6503,47.4517,243.9052],[16.6528,47.4493,238.86],[16.6474,47.447,252.9459],[16.6375,47.4462,257.1923],[16.628,47.442,270.9616],[16.626,47.4386,255.9213],[16.6331,47.4316,242.8842],[16.6457,47.4229,248.2223],[16.6969,47.4128,182.9734],[16.7125,47.4209,183.5794],[16.7349,47.4262,186.5768],[16.7575,47.4372,191.0534],[16.7885,47.4386,172.3782],[16.8063,47.4341,176.2714],[16.8147,47.4339,169.733],[16.8189,47.4354,166.7432],[16.8254,47.4442,175.353],[16.8318,47.4456,176.069],[16.8418,47.4428,175.4787],[16.851,47.4378,172.957],[16.8743,47.4168,176.7355],[16.9066,47.4162,155.5628],[16.9183,47.4126,153.1838],[16.929,47.4042,149.1526],[16.9498,47.3992,144.3185],[16.9586,47.4064,145.8667],[16.9651,47.4165,143.2422],[16.9688,47.4196,142.5615],[17.0018,47.4368,138.0604],[17.0122,47.4395,137.2626],[16.994,47.4544,137.8449],[16.9985,47.4629,135.1087],[16.9982,47.4649,134.3857],[16.9744,47.4797,146.1997],[16.9629,47.4941,142.9416],[16.9639,47.4982,151.7735],[16.9701,47.5049,139.2833],[16.9717,47.5149,136.5104],[16.9973,47.5265,128.7148],[16.9994,47.5285,128.2995],[16.9993,47.5312,127.8818],[16.9941,47.5337,138.1622],[16.985,47.5326,146.0097],[16.9736,47.5382,148.8512],[16.9599,47.5393,140.9987],[16.9521,47.5421,137.4904],[16.9515,47.5444,143.0078],[16.9538,47.5507,146.782],[16.9498,47.5563,140.3598],[16.9477,47.5725,136.673],[16.9396,47.5858,133.6553],[16.94,47.592,129.0126],[16.9283,47.5985,125.2309],[16.9086,47.5988,123.016],[16.9057,47.6027,122.5494],[16.9062,47.6062,123.489],[16.909,47.6089,121.7477],[16.9203,47.6108,118.615],[16.9228,47.6126,118.4687],[16.9221,47.6163,118.2854],[16.9151,47.6216,119.2668],[16.9136,47.625,118.7957],[16.9142,47.6283,117.8938],[16.9196,47.6356,118.1164],[16.942,47.6487,115.5924],[16.9578,47.655,117.8748],[16.9726,47.6657,128.6182],[16.9795,47.6749,114.1089],[16.9811,47.6855,123.0095],[17.0086,47.691,121.4579],[17.0098,47.694,122.3547],[17.0064,47.6984,121.5726],[16.9138,47.6881,116.0368],[16.8764,47.6888,115.1786],[16.8729,47.6905,114.3988],[16.8701,47.7218,116.079],[16.8681,47.7221,115.7838],[16.8568,47.7115,114.9323],[16.8403,47.705,115.2696],[16.8296,47.6832,114.371],[16.7502,47.6819,112.0],[16.7227,47.723,115.5778],[16.7222,47.7358,112.0],[16.6728,47.7409,116.2278],[16.6594,47.7437,148.1156],[16.6572,47.7421,161.8261],[16.6409,47.7487,246.7201],[16.6396,47.755,262.1471],[16.6355,47.7595,212.7615],[16.6251,47.7575,192.9355]]]]}
,"properties": {"GID_2": "HUN.8.6_1","GID_0": "HUN","country": "Hungary","GID_1": "HUN.8_1","province": "Gyor-Moson-Sopron","NL_NAME_1": "NA","county": "Sopron-Fertőd","VARNAME_2": "NA","NL_NAME_2": "NA","TYPE_2": "Kistérség","ENGTYPE_2": "Subregion","CC_2": "NA","HASC_2": "NA","name": "Sopron-Fertőd.county","area_km2": 855.5964,"hist_schema_id": "Elevation0-9000","hist_area_km2": {"100": 11.0735,"125": 231.1341,"150": 189.1111,"175": 143.6714,"200": 129.5771,"225": 58.1132,"250": 31.2328,"275": 11.3805,"300": 6.5796,"325": 4.7821,"350": 4.5405,"375": 6.3681,"400": 5.4689,"425": 5.4835,"450": 5.2695,"475": 4.827,"500": 4.6414,"525": 1.7851,"550": 0.5284,"575": 0.0286}}}