{"type":"Feature","properties":{"GID_2":"HUN.15.3_1","GID_0":"HUN","country":"Hungary","GID_1":"HUN.15_1","province":"Somogy","NL_NAME_1":"NA","county":"Csurgó","VARNAME_2":"Csurgói","NL_NAME_2":"NA","TYPE_2":"Kistérség","ENGTYPE_2":"Subregion","CC_2":"NA","HASC_2":"NA","name":"Csurgó.county"},
"geometry":{"type": "MultiPolygon","coordinates": [[[[16.9694,46.2416,125.3529],[16.9719,46.242,125.1888],[16.9705,46.2327,124.8955],[16.9726,46.2245,124.1337],[16.9923,46.2247,122.81],[16.9944,46.2231,122.1926],[17.0024,46.2236,122.7509],[17.0126,46.2205,122.1968],[17.0553,46.2011,119.7826],[17.0638,46.2001,121.0248],[17.0684,46.1949,119.3655],[17.0778,46.1926,118.4388],[17.0831,46.189,118.5387],[17.1004,46.1875,117.7165],[17.1043,46.183,117.8962],[17.1094,46.1803,117.5505],[17.1225,46.1805,116.4596],[17.1278,46.1739,116.8242],[17.1332,46.1727,115.6081],[17.1434,46.1748,142.9467],[17.1565,46.1735,139.9936],[17.1596,46.1712,133.5774],[17.1581,46.1663,115.2309],[17.1589,46.1619,114.031],[17.1638,46.1596,113.8669],[17.1697,46.1596,114.5349],[17.1796,46.1535,120.6887],[17.1759,46.1495,114.8556],[17.1801,46.1407,113.5277],[17.1834,46.1387,134.9983],[17.1994,46.1444,114.7096],[17.2182,46.1539,145.1746],[17.2501,46.1499,149.8695],[17.2603,46.147,141.619],[17.2578,46.154,151.2013],[17.2506,46.1638,149.2567],[17.2488,46.1799,146.6142],[17.2421,46.1849,158.4632],[17.2355,46.2009,171.2868],[17.2286,46.2105,165.8948],[17.2315,46.2153,156.672],[17.2577,46.2251,152.8763],[17.2627,46.2277,150.8344],[17.2642,46.2307,148.259],[17.2586,46.2473,150.4332],[17.2547,46.2477,149.0485],[17.2469,46.2452,156.3106],[17.2389,46.2474,169.2075],[17.2353,46.2512,155.9039],[17.2347,46.2741,159.2666],[17.2424,46.2899,164.2691],[17.2413,46.2948,165.8904],[17.2354,46.3002,153.5259],[17.2339,46.3037,159.4229],[17.2338,46.3123,159.8351],[17.2365,46.3204,158.5211],[17.2134,46.3312,163.2048],[17.2052,46.3333,160.1166],[17.1859,46.3249,163.3083],[17.181,46.3295,170.231],[17.1798,46.3347,178.0392],[17.1799,46.3546,174.0002],[17.1879,46.3598,178.7526],[17.2007,46.3601,162.0769],[17.2062,46.3565,164.574],[17.2097,46.3508,165.4933],[17.2153,46.3498,163.0501],[17.2274,46.352,172.6552],[17.2289,46.3607,165.951],[17.2314,46.3629,168.8981],[17.2395,46.3635,171.601],[17.248,46.36,156.6077],[17.2486,46.3701,170.1866],[17.2455,46.3776,178.6139],[17.2525,46.3861,173.6434],[17.2517,46.4132,173.2674],[17.2231,46.4214,167.4267],[17.2026,46.4217,156.5853],[17.1995,46.4238,134.4308],[17.1899,46.4371,123.504],[17.1863,46.4373,128.61],[17.158,46.4354,154.3275],[17.1459,46.4268,148.476],[17.1392,46.419,150.5684],[17.1329,46.4169,157.6422],[17.1223,46.4169,171.8955],[17.0949,46.4242,221.5883],[17.0905,46.4233,200.0472],[17.0834,46.4152,235.3008],[17.0764,46.4123,203.299],[17.0706,46.4129,179.0425],[17.0517,46.4204,182.1305],[17.0369,46.4194,201.5291],[17.0339,46.4168,215.7698],[17.0332,46.4139,214.3764],[17.0345,46.4002,172.1424],[17.0501,46.379,187.6507],[17.06,46.3602,188.1601],[17.0596,46.3559,202.5881],[17.0551,46.3462,175.4482],[17.0486,46.3387,209.7621],[17.0482,46.3241,237.8236],[17.046,46.3204,226.2034],[17.0366,46.3162,194.7419],[17.0241,46.315,190.6527],[17.0157,46.3156,201.5867],[17.0046,46.3204,187.3638],[16.9886,46.32,214.5666],[16.9767,46.3156,215.2985],[16.9683,46.3069,197.7245],[16.9636,46.305,215.417],[16.9543,46.3081,214.4058],[16.9483,46.3176,191.811],[16.9442,46.319,188.183],[16.9061,46.3178,187.8548],[16.8781,46.3083,137.0428],[16.8864,46.2962,132.1772],[16.8878,46.2824,130.8591],[16.8915,46.2793,134.662],[16.9039,46.2748,129.1788],[16.9107,46.2655,131.8357],[16.9164,46.2622,125.5313],[16.9356,46.2552,136.3444],[16.9487,46.2433,126.0792],[16.9629,46.2404,126.0585],[16.9694,46.2416,125.3529]]]]}}