{"type":"Feature","properties":{"GID_2":"HUN.4.13_1","GID_0":"HUN","country":"Hungary","GID_1":"HUN.4_1","province":"Borsod-Abaúj-Zemplén","NL_NAME_1":"NA","county":"Szikszó","VARNAME_2":"NA","NL_NAME_2":"NA","TYPE_2":"Kistérség","ENGTYPE_2":"Subregion","CC_2":"NA","HASC_2":"NA","name":"Szikszó.county"},
"geometry":{"type": "MultiPolygon","coordinates": [[[[21.1347,48.2601,182.0674],[21.1046,48.2649,265.2345],[21.0938,48.2724,127.9752],[21.0859,48.273,126.0709],[21.0792,48.2703,125.441],[21.0679,48.2574,125.8975],[21.0588,48.2536,125.1531],[21.033,48.2618,123.5048],[21.0179,48.2721,123.3364],[21.0176,48.2753,124.1995],[21.0199,48.2804,136.6352],[21.0146,48.287,158.9298],[21.024,48.2931,160.1041],[21.0196,48.3022,190.8309],[21.0288,48.3099,181.629],[21.048,48.312,178.5278],[21.0495,48.3263,213.472],[21.0482,48.3302,215.1683],[21.0406,48.3335,253.9386],[21.0296,48.3365,214.7037],[21.007,48.3369,195.1928],[21.0029,48.3388,213.4844],[21.0013,48.3412,211.7512],[21.0016,48.357,226.4535],[20.998,48.3659,217.6878],[21.0048,48.3747,231.5861],[21.0028,48.3852,203.4367],[21.0057,48.3949,284.0034],[20.9875,48.4053,293.5826],[20.9834,48.4097,296.5208],[20.9928,48.4149,246.1329],[21.0078,48.4274,229.7523],[21.0096,48.4422,264.1863],[21.0136,48.4489,246.0895],[21.0128,48.4526,276.725],[21.0029,48.4558,278.0064],[20.9894,48.4513,253.8082],[20.9781,48.4535,290.7629],[20.9574,48.4538,249.5318],[20.9353,48.4479,255.537],[20.9201,48.4479,245.9278],[20.9185,48.4418,226.6354],[20.9134,48.4363,252.8786],[20.9026,48.4295,261.465],[20.8874,48.4257,296.7273],[20.8831,48.423,294.4247],[20.883,48.4202,255.0837],[20.8871,48.4176,292.0774],[20.9051,48.4176,267.9179],[20.9093,48.415,279.3548],[20.9086,48.3995,259.5418],[20.8998,48.3863,270.6963],[20.8985,48.369,220.749],[20.8872,48.3613,172.9839],[20.8963,48.3563,242.2953],[20.9111,48.3433,188.3934],[20.9111,48.3349,174.1405],[20.903,48.3279,201.4151],[20.9098,48.3199,155.4436],[20.9067,48.3133,194.8638],[20.9069,48.3098,197.9767],[20.9136,48.3037,145.4479],[20.9147,48.3004,138.062],[20.912,48.2972,136.6264],[20.8976,48.2927,155.0873],[20.8959,48.2753,150.3709],[20.8849,48.2653,211.9225],[20.8865,48.2603,158.1044],[20.8859,48.2563,171.1633],[20.8744,48.2514,223.6937],[20.8652,48.2409,219.7263],[20.8642,48.2367,235.4911],[20.8648,48.2328,203.0372],[20.8777,48.2289,232.5382],[20.8811,48.2259,210.0897],[20.8814,48.2024,228.795],[20.889,48.1913,231.2345],[20.8932,48.1826,222.9465],[20.8944,48.1721,194.8397],[20.8995,48.1654,173.2919],[20.9045,48.1639,130.1164],[20.9158,48.1663,115.8306],[20.9307,48.1664,115.9213],[20.9701,48.1575,119.3356],[20.9755,48.1684,115.1711],[20.9912,48.1712,221.9092],[20.9977,48.1751,214.4354],[20.9996,48.1785,190.0205],[21.0014,48.1911,196.4611],[21.0075,48.1983,177.2477],[21.0202,48.2066,222.512],[21.0288,48.2085,244.4176],[21.0814,48.2092,220.2495],[21.0914,48.2192,180.6296],[21.1076,48.2295,169.1504],[21.1179,48.2342,169.5131],[21.1222,48.2401,171.5983],[21.1339,48.2408,184.2202],[21.1347,48.2601,182.0674]]]]}}