{"type":"Feature","properties":{"GID_2":"HUN.9.9_1","GID_0":"HUN","country":"Hungary","GID_1":"HUN.9_1","province":"Hajdú-Bihar","NL_NAME_1":"NA","county":"Püspökladány","VARNAME_2":"NA","NL_NAME_2":"NA","TYPE_2":"Kistérség","ENGTYPE_2":"Subregion","CC_2":"NA","HASC_2":"NA","name":"Püspökladány.county"},
"geometry":{"type": "MultiPolygon","coordinates": [[[[21.2752,47.1523,92.704],[21.2862,47.1499,84.7533],[21.3076,47.1492,87.4381],[21.3416,47.1444,86.5283],[21.3513,47.1444,87.1086],[21.3675,47.1481,86.9787],[21.3778,47.1583,87.586],[21.3857,47.1636,88.89],[21.4041,47.1682,89.204],[21.4057,47.1713,89.5926],[21.4051,47.1801,89.0838],[21.3977,47.1877,88.9716],[21.3971,47.1917,89.2057],[21.4,47.1949,89.2398],[21.4085,47.1977,89.7257],[21.4107,47.2044,88.9142],[21.4173,47.2115,89.9751],[21.4177,47.2305,90.8644],[21.4124,47.2419,91.5788],[21.4013,47.249,91.1084],[21.3964,47.2619,90.9874],[21.3971,47.2708,92.0143],[21.4131,47.2933,89.3663],[21.4166,47.2957,89.4923],[21.4315,47.2919,89.774],[21.4449,47.2909,94.886],[21.4518,47.2812,95.1066],[21.4573,47.2798,89.7048],[21.4629,47.281,89.6813],[21.4662,47.2881,90.4272],[21.4864,47.2926,91.858],[21.4777,47.306399999999996,92.2742],[21.4746,47.3158,93.594],[21.4601,47.3253,93.0192],[21.4447,47.3312,92.3538],[21.4354,47.3326,96.2574],[21.4336,47.3386,91.4665],[21.4353,47.3469,91.7541],[21.4122,47.354,91.4539],[21.3967,47.3554,91.3309],[21.3924,47.3599,91.3264],[21.3897,47.367,92.3952],[21.3851,47.3713,92.6075],[21.3774,47.3717,92.3096],[21.3667,47.368899999999996,92.0534],[21.3599,47.3699,91.1017],[21.3424,47.3842,90.4355],[21.3148,47.3941,91.0184],[21.3004,47.4094,90.6257],[21.2773,47.418,89.9255],[21.2753,47.4277,90.7248],[21.2681,47.4387,90.4308],[21.2752,47.4526,89.0482],[21.275,47.4574,89.2063],[21.2695,47.4627,88.7012],[21.2509,47.4673,90.0757],[21.2509,47.4716,88.9018],[21.258,47.4784,89.393],[21.2584,47.484,89.8142],[21.2418,47.5025,88.6149],[21.2247,47.5036,88.3378],[21.2171,47.5024,88.7741],[21.2161,47.4988,89.1187],[21.2192,47.4926,89.2844],[21.2124,47.4821,89.6106],[21.2111,47.47,89.9181],[21.1906,47.4656,90.8026],[21.1807,47.4667,88.7166],[21.1613,47.479,87.4774],[21.1554,47.4797,87.1271],[21.1458,47.4771,87.1193],[21.1398,47.4774,86.7684],[21.1046,47.4925,87.3643],[21.1002,47.4848,87.2923],[21.095,47.4799,87.2736],[21.056,47.4788,87.233],[21.0514,47.4764,86.9308],[21.0449,47.469,86.4745],[21.0349,47.4684,86.4527],[21.0301,47.4695,86.5812],[21.0263,47.4736,86.3971],[21.0245,47.4832,87.515],[21.0227,47.4855,87.4868],[20.9972,47.4922,87.3344],[20.991,47.4821,86.3169],[20.9903,47.4694,86.295],[20.994,47.4639,86.4786],[20.999,47.4512,86.4434],[21.0001,47.4315,86.0659],[21.0121,47.4147,85.9131],[21.0127,47.3999,86.1513],[21.0166,47.3916,86.0961],[21.0176,47.3782,86.4314],[21.029,47.36,85.8211],[21.0343,47.3479,90.8754],[21.0261,47.3267,85.6339],[21.0263,47.2846,84.8563],[21.0224,47.275,84.7682],[21.0219,47.2624,84.3548],[21.0172,47.2556,84.3428],[21.0066,47.2452,84.4718],[21.0037,47.2388,84.9057],[21.0302,47.228,84.7563],[21.032,47.225,85.116],[21.0324,47.2116,84.8936],[21.0375,47.2072,84.8873],[21.0488,47.2013,85.2748],[21.0684,47.2063,84.0314],[21.113,47.188,83.6124],[21.1222,47.1829,83.6552],[21.1985,47.1676,83.7601],[21.2329,47.1506,84.0605],[21.2538,47.1499,84.9729],[21.264,47.1521,85.4781],[21.2752,47.1523,92.704]]]]}}