{"type":"Feature","properties":{"GID_2":"HUN.16.3_1","GID_0":"HUN","country":"Hungary","GID_1":"HUN.16_1","province":"Szabolcs-Szatmár-Bereg","NL_NAME_1":"NA","county":"Fehérgyarmat","VARNAME_2":"Fehérgyarmati","NL_NAME_2":"NA","TYPE_2":"Kistérség","ENGTYPE_2":"Subregion","CC_2":"NA","HASC_2":"NA","name":"Fehérgyarmat.county"},
"geometry":{"type": "MultiPolygon","coordinates": [[[[22.7601,47.8865,118.7706],[22.7614,47.8876,119.4023],[22.7586,47.8906,118.2851],[22.762,47.8951,118.6921],[22.7649,47.893,118.6693],[22.7678,47.8951,118.3004],[22.7708,47.8931,119.0415],[22.7848,47.8941,122.3938],[22.7946,47.8912,119.8212],[22.8076,47.8985,119.9508],[22.8162,47.9008,119.4467],[22.8273,47.908,120.7296],[22.8341,47.9096,121.5042],[22.8486,47.9084,121.0956],[22.8586,47.9171,119.4818],[22.8595,47.9205,121.7354],[22.8679,47.9253,122.177],[22.8681,47.9293,122.0537],[22.8741,47.9327,121.9794],[22.8743,47.9367,122.0052],[22.8816,47.9438,121.9252],[22.8868,47.945,121.2329],[22.8888,47.9519,121.1683],[22.8933,47.9536,121.2672],[22.8965,47.9522,121.991],[22.898,47.9543,126.8604],[22.903199999999998,47.955,123.0069],[22.9026,47.9581,122.8973],[22.9045,47.9574,122.6017],[22.9056,47.9615,121.1122],[22.8947,47.9636,123.9583],[22.896,47.966,120.3931],[22.8853,47.9687,120.847],[22.8864,47.9705,120.0123],[22.8757,47.9738,119.6402],[22.8767,47.975,119.6402],[22.8719,47.9766,119.5936],[22.8693,47.9801,119.0594],[22.8667,47.9793,118.9349],[22.8605,47.9819,118.8455],[22.86,47.9841,118.8144],[22.8461,47.9884,118.592],[22.8455,47.9922,118.5614],[22.847,47.9952,118.5531],[22.8511,47.9955,118.8026],[22.8486,48.0013,119.3399],[22.8558,48.0018,119.1581],[22.8547,48.0057,120.8643],[22.857,48.0079,120.9103],[22.8617,48.0082,119.329],[22.8608,48.0121,119.3232],[22.865,48.0135,121.7035],[22.8671,48.0181,119.94],[22.8665,48.0245,119.4723],[22.8734,48.0263,123.6421],[22.8773,48.0332,121.3863],[22.8815,48.0335,120.1077],[22.8804,48.0411,122.0501],[22.8816,48.0539,123.199],[22.8749,48.0555,121.3261],[22.8747,48.0527,120.3712],[22.8673,48.0565,120.0533],[22.8652,48.0604,121.1453],[22.8633,48.0727,121.1237],[22.8575,48.0799,120.3746],[22.8509,48.0845,119.6183],[22.8402,48.0839,119.5499],[22.8402,48.0823,118.9448],[22.8373,48.085,122.0521],[22.840699999999998,48.0869,121.2724],[22.8355,48.0904,119.9579],[22.8351,48.0929,122.9704],[22.8382,48.0956,115.3023],[22.8297,48.0959,113.3352],[22.8284,48.1038,120.3941],[22.8311,48.1144,118.8275],[22.826,48.1198,119.3761],[22.8174,48.1216,118.8762],[22.8128,48.1197,119.138],[22.8126,48.1174,121.4718],[22.809,48.1171,118.4867],[22.808,48.123,118.9883],[22.8013,48.124,117.4259],[22.7954,48.1219,118.3091],[22.7878,48.1217,115.4997],[22.7797,48.1242,116.1631],[22.7744,48.1218,110.0353],[22.7764,48.1133,109.8736],[22.7697,48.1115,120.4145],[22.767,48.1123,114.8585],[22.7656,48.1196,116.644],[22.7449,48.1233,116.4636],[22.7345,48.1172,118.323],[22.7251,48.1194,116.4879],[22.708,48.1132,117.7766],[22.6849,48.0983,109.7438],[22.6761,48.0945,116.0726],[22.6519,48.0963,114.1125],[22.6474,48.0987,112.5365],[22.6392,48.0983,113.7488],[22.6279,48.1043,114.4174],[22.6276,48.1091,113.2556],[22.6181,48.1086,112.7314],[22.6183,48.1056,114.0825],[22.6087,48.1055,113.5108],[22.6085,48.1081,113.3052],[22.6016,48.1077,113.1824],[22.6038,48.104,113.6844],[22.5994,48.0916,112.2978],[22.5966,48.0893,113.314],[22.5902,48.0894,112.8161],[22.5844,48.0955,113.6198],[22.5783,48.0968,111.9183],[22.5715,48.0931,117.5478],[22.557,48.0916,111.5349],[22.5567,48.0864,113.7476],[22.5627,48.0815,111.9476],[22.56,48.0789,112.5981],[22.5503,48.0767,112.2109],[22.5325,48.0756,114.0826],[22.5309,48.0715,111.447],[22.5397,48.0671,114.2448],[22.5406,48.0656,112.0821],[22.5391,48.0637,112.1555],[22.5192,48.0636,112.0218],[22.5027,48.0692,110.959],[22.4956,48.0693,108.6058],[22.4736,48.0648,111.2757],[22.4733,48.0561,112.678],[22.4694,48.0537,110.6809],[22.465,48.0544,110.7428],[22.4609,48.0602,111.6124],[22.4633,48.0641,107.2366],[22.4694,48.0677,109.9526],[22.4676,48.0699,109.728],[22.4612,48.0702,108.8751],[22.4514,48.0661,110.6281],[22.4333,48.0634,112.0114],[22.4302,48.0648,110.0165],[22.4295,48.0675,107.9659],[22.4334,48.0714,110.3076],[22.4331,48.0736,113.9902],[22.4296,48.074,109.7338],[22.4147,48.0701,112.2372],[22.4016,48.0729,110.631],[22.3979,48.0747,113.1603],[22.389,48.0862,118.2574],[22.3836,48.087,118.8972],[22.3737,48.0844,109.2482],[22.3702,48.0806,113.1428],[22.3724,48.0774,109.6575],[22.383,48.0752,109.8375],[22.3838,48.0728,109.8471],[22.3824,48.0703,124.4549],[22.3574,48.0601,110.4702],[22.3636,48.0561,110.5272],[22.3745,48.0569,113.1386],[22.3802,48.0552,111.1836],[22.3856,48.0484,109.4157],[22.3882,48.042,108.0194],[22.3987,48.0314,110.9186],[22.4046,48.028,110.5423],[22.4227,48.0232,111.864],[22.4263,48.0203,108.9744],[22.4302,48.0117,106.9673],[22.4307,48.0008,110.8829],[22.4333,47.9941,110.522],[22.4302,47.9928,110.3862],[22.4102,47.9933,109.9449],[22.4068,47.9905,110.3517],[22.4061,47.9704,110.0411],[22.4103,47.9632,110.2558],[22.4132,47.9611,110.8565],[22.4243,47.9611,111.3522],[22.4489,47.9537,110.2438],[22.4684,47.9594,111.7618],[22.4785,47.9649,113.7693],[22.4846,47.9645,114.437],[22.4962,47.9588,114.2484],[22.507,47.9438,113.2278],[22.5162,47.9418,119.351],[22.5215,47.9366,115.2782],[22.541,47.9336,116.6301],[22.5509,47.9283,114.8106],[22.5569,47.9213,116.2813],[22.5615,47.9196,115.7788],[22.5658,47.9186,118.4316],[22.5711,47.9215,116.4828],[22.5758,47.9222,115.7599],[22.5868,47.9179,116.7473],[22.5886,47.913,117.9114],[22.5843,47.9055,115.4774],[22.5834,47.8915,115.9671],[22.5851,47.8895,116.8437],[22.5963,47.8861,116.9964],[22.6046,47.8867,116.815],[22.615,47.895,114.3196],[22.6269,47.8979,118.556],[22.6362,47.8955,117.4145],[22.6548,47.8942,116.4424],[22.6646,47.8867,116.9153],[22.6741,47.8841,117.0486],[22.6889,47.8918,115.9229],[22.7009,47.8906,118.6083],[22.7068,47.894,116.3739],[22.7284,47.9008,116.7667],[22.7375,47.8993,118.137],[22.7495,47.9001,117.7845],[22.752,47.8985,118.0483],[22.7541,47.8911,133.6709],[22.7601,47.8865,118.7706]]]]}}