{"type":"Feature","properties":{"GID_1":"HUN.9_1","GID_0":"HUN","country":"Hungary","province":"Hajdú-Bihar","VARNAME_1":"NA","NL_NAME_1":"NA","TYPE_1":"Megye","ENGTYPE_1":"County","CC_1":"NA","HASC_1":"HU.HB","ISO_1":"NA","name":"Hajdú-Bihar.province"},
"geometry":{"type": "MultiPolygon","coordinates": [[[[21.6363,47.0349,96.0836],[21.6475,47.0335,95.6544],[21.6514,47.0355,97.3257],[21.6508,47.041,95.6986],[21.6634,47.0417,96.5305],[21.6695,47.0445,96.3589],[21.6843,47.046,97.1697],[21.6851,47.0514,96.8216],[21.6912,47.0539,97.2059],[21.6902,47.0558,97.3889],[21.699,47.0583,98.1587],[21.6973,47.0608,97.6196],[21.7063,47.0637,97.986],[21.7028,47.0687,98.4008],[21.7077,47.0703,99.6191],[21.7068,47.0719,100.9339],[21.7177,47.0753,98.1845],[21.7142,47.0832,99.5092],[21.7253,47.0943,99.4181],[21.7277,47.0989,99.8028],[21.7532,47.1059,100.3608],[21.7726,47.1092,100.6972],[21.7941,47.1067,102.8112],[21.793,47.1097,102.6038],[21.7945,47.1117,102.9615],[21.7909,47.1134,99.8695],[21.7938,47.116,105.0853],[21.7909,47.117,106.7403],[21.7937,47.1201,101.1255],[21.7933,47.1245,104.5285],[21.7974,47.128,103.2776],[21.8003,47.1282,104.4342],[21.8021,47.131,105.7159],[21.8046,47.1367,104.7229],[21.8022,47.1376,103.9061],[21.8098,47.1568,101.5694],[21.8137,47.166,101.9631],[21.8191,47.1731,101.9492],[21.8307,47.175,102.1036],[21.8325,47.1792,101.2645],[21.8404,47.1777,101.3975],[21.8488,47.1848,101.4138],[21.8594,47.1875,102.9358],[21.8612,47.2043,103.4914],[21.8599,47.2205,104.1474],[21.8501,47.2223,104.0782],[21.8485,47.2242,104.1252],[21.8534,47.2395,100.7649],[21.8598,47.2448,100.9777],[21.8597,47.2469,100.6932],[21.8651,47.2523,100.9418],[21.8689,47.2598,101.7162],[21.8735,47.2636,101.0671],[21.8815,47.2652,101.0025],[21.8894,47.2724,101.9821],[21.8879,47.2755,102.5061],[21.8898,47.2781,100.7114],[21.8815,47.283,103.0056],[21.8798,47.2858,102.1483],[21.8803,47.2877,100.5854],[21.8877,47.2901,100.9181],[21.8864,47.2914,100.1116],[21.8903,47.295,101.0847],[21.8969,47.3151,125.0643],[21.9061,47.3225,130.2698],[21.9097,47.3291,132.5911],[21.9152,47.3328,132.3392],[21.9231,47.3418,130.8792],[21.9269,47.3539,124.9253],[21.9363,47.3607,124.9568],[21.9413,47.368,124.0812],[21.9401,47.3733,125.1229],[21.9469,47.3755,124.2709],[21.9546,47.375,125.6711],[21.9605,47.3782,127.8391],[21.9632,47.3815,128.4589],[21.9767,47.3805,129.3596],[21.977,47.3786,125.73],[21.9802,47.3786,128.6094],[21.9921,47.3818,128.085],[21.9968,47.3813,132.4222],[21.9985,47.3784,133.6405],[22.001,47.3775,134.3356],[22.0136,47.3761,143.5969],[22.0201,47.3869,139.769],[22.0251,47.3918,132.3107],[22.0371,47.4137,118.4441],[22.0366,47.4167,118.5279],[22.0313,47.423,121.8788],[22.0354,47.4245,122.8498],[22.0336,47.4265,123.646],[22.0369,47.4277,121.781],[22.0275,47.4427,123.3421],[22.0344,47.4513,121.8446],[22.0225,47.4548,123.3864],[22.0156,47.4658,127.1954],[22.0144,47.471,130.5586],[22.0091,47.4762,140.121],[22.0087,47.4836,137.9966],[22.0125,47.4911,139.6997],[22.0142,47.5017,139.8462],[22.0179,47.5054,133.2942],[22.0257,47.5202,139.1022],[22.0375,47.5294,133.1307],[22.0471,47.5401,147.1413],[22.0631,47.5293,138.0141],[22.073,47.5383,138.9194],[22.0563,47.5472,138.7959],[22.0597,47.5514,143.2454],[22.0808,47.5627,137.1944],[22.0883,47.5614,141.167],[22.0923,47.5577,144.5173],[22.0953,47.5584,134.871],[22.1024,47.5649,136.1626],[22.1067,47.5731,138.6052],[22.1159,47.5755,136.8578],[22.1219,47.5808,148.2799],[22.1267,47.5878,146.0045],[22.1307,47.5896,144.9569],[22.1312,47.5955,143.9524],[22.1298,47.5984,142.9504],[22.1402,47.5983,139.9528],[22.1324,47.6012,145.2276],[22.1295,47.6008,140.5437],[22.1325,47.6312,149.2767],[22.1301,47.6379,146.6399],[22.1296,47.6469,148.1697],[22.1137,47.6697,151.0175],[22.0874,47.6786,157.9714],[22.0824,47.6765,159.2826],[22.0801,47.67,156.1522],[22.0548,47.6394,159.0054],[22.0428,47.6381,151.4114],[22.0266,47.6447,150.9255],[22.0226,47.6492,156.8773],[22.0161,47.6793,163.7586],[22.0087,47.6866,158.0832],[21.9958,47.692,162.732],[21.9923,47.6952,162.8287],[21.9922,47.6985,166.417],[21.9952,47.7059,167.3717],[21.993,47.7179,162.4234],[21.9607,47.7262,153.7575],[21.9293,47.7432,148.16],[21.9071,47.7426,148.1793],[21.8852,47.7351,145.9529],[21.8831,47.731,154.0292],[21.8831,47.7126,152.0215],[21.8781,47.703,156.6076],[21.866,47.6934,150.7877],[21.8585,47.6843,160.6038],[21.8535,47.6818,159.8175],[21.8474,47.6811,152.8828],[21.8034,47.6815,148.4787],[21.7994,47.6833,153.6103],[21.7948,47.6915,145.4799],[21.7925,47.6927,146.9313],[21.7624,47.6935,146.9139],[21.7612,47.6962,145.3902],[21.7644,47.7006,145.5098],[21.7658,47.7069,146.5606],[21.7643,47.7125,144.0482],[21.715,47.7138,144.6764],[21.7098,47.7194,137.4563],[21.709,47.7261,140.7257],[21.7051,47.7336,143.8792],[21.6986,47.7393,131.1889],[21.6816,47.7391,131.83],[21.6681,47.732,134.8536],[21.6621,47.7308,136.3755],[21.6412,47.7341,140.5765],[21.6267,47.7392,131.5993],[21.6216,47.7445,128.6781],[21.6042,47.7724,125.1195],[21.5869,47.7815,123.2131],[21.5559,47.7921,117.3248],[21.5506,47.7965,117.133],[21.5436,47.8081,117.2102],[21.5442,47.824,117.802],[21.5523,47.8338,120.1025],[21.554,47.856,116.0463],[21.5618,47.8743,115.7727],[21.5627,47.8823,114.5144],[21.5616,47.8878,113.0847],[21.5526,47.8958,109.5409],[21.5511,47.8992,114.3077],[21.5544,47.9082,113.0594],[21.5548,47.923,114.8801],[21.558,47.9333,112.3227],[21.5546,47.9371,115.531],[21.546,47.9402,110.4759],[21.5192,47.9443,106.143],[21.5075,47.9367,103.723],[21.494,47.9322,101.1731],[21.4637,47.9278,100.4025],[21.4523,47.928,102.1648],[21.4395,47.9304,98.3121],[21.4235,47.9302,98.0483],[21.3888,47.9219,93.7785],[21.3295,47.9239,97.6354],[21.3088,47.9198,92.3812],[21.2935,47.9135,91.9439],[21.282,47.9117,91.7479],[21.2779,47.9124,91.7502],[21.2692,47.9178,91.6949],[21.2559,47.921,91.0707],[21.2487,47.9291,93.4214],[21.2353,47.935,100.2381],[21.2285,47.9428,100.7222],[21.2188,47.9499,98.231],[21.1992,47.9603,97.1323],[21.1826,47.9661,90.6231],[21.1561,47.9662,89.8809],[21.1296,47.9591,98.1837],[21.1153,47.9587,92.5366],[21.1135,47.9393,93.4313],[21.1067,47.9325,93.4748],[21.0979,47.9275,92.9105],[21.0963,47.9243,112.5228],[21.0993,47.9206,107.4428],[21.1135,47.9147,91.8738],[21.1153,47.9111,91.246],[21.115,47.9064,90.9687],[21.1127,47.9045,91.2375],[21.0951,47.9003,91.5558],[21.0911,47.8954,91.5451],[21.089,47.8799,94.2691],[21.0777,47.8702,94.264],[21.0752,47.8604,91.1533],[21.0622,47.858,100.4009],[21.0558,47.8534,93.0196],[21.0542,47.8362,92.1247],[21.0499,47.8334,91.9953],[21.069,47.8232,89.5898],[21.0715,47.8198,89.5089],[21.0563,47.7995,90.6095],[21.0543,47.782,90.2743],[21.0493,47.7718,89.7125],[21.0385,47.7651,90.1751],[21.0321,47.7493,89.4996],[21.0283,47.7487,90.51],[21.013,47.7551,90.4146],[20.9929,47.7533,89.3007],[20.9869,47.7514,91.8935],[20.9851,47.7488,98.0597],[20.9881,47.7438,90.1545],[20.987,47.7212,93.0375],[20.9864,47.7174,99.1088],[20.984,47.7148,89.9866],[20.9742,47.7128,89.3551],[20.9577,47.7172,94.6395],[20.9463,47.7147,98.9297],[20.9381,47.7066,100.5918],[20.9345,47.7013,102.3665],[20.9319,47.6935,89.5999],[20.9299,47.6924,97.9154],[20.9128,47.6908,88.0],[20.8973,47.6974,88.8965],[20.8933,47.6975,93.0002],[20.8917,47.6946,99.927],[20.8916,47.6778,93.8079],[20.8893,47.6749,89.0558],[20.8842,47.6752,103.051],[20.8633,47.6826,91.8345],[20.8595,47.6821,89.7393],[20.855,47.6742,112.1971],[20.8548,47.6697,98.7082],[20.8578,47.6659,107.3382],[20.8733,47.6564,89.0363],[20.8776,47.6471,89.6212],[20.8768,47.6433,86.7173],[20.8744,47.6412,90.4818],[20.8671,47.6409,89.3473],[20.8527,47.6468,88.3276],[20.8435,47.662,94.6134],[20.8393,47.6658,95.3859],[20.8339,47.6679,96.6286],[20.83,47.6684,96.8855],[20.8267,47.6652,89.6054],[20.8207,47.6518,88.1976],[20.8207,47.6438,87.8681],[20.8232,47.6368,87.6963],[20.8233,47.6257,88.8501],[20.8255,47.6183,88.1031],[20.8256,47.6049,87.1526],[20.8303,47.5959,87.4387],[20.8468,47.585,91.2738],[20.8666,47.5782,89.4146],[20.883,47.5774,88.5932],[20.8916,47.5781,89.5084],[20.9114,47.5856,88.9681],[20.9502,47.5852,90.647],[20.9607,47.5818,91.2524],[20.9795,47.5723,89.055],[20.9851,47.5681,89.6863],[20.9895,47.5617,89.4262],[20.9904,47.5402,89.1198],[20.9943,47.5315,87.9581],[20.9934,47.5283,87.4692],[20.9827,47.514,87.2487],[20.9919,47.4975,87.8512],[20.9972,47.4922,87.3344],[20.991,47.4821,86.3169],[20.9903,47.4694,86.295],[20.994,47.4639,86.4786],[20.999,47.4512,86.4434],[21.0001,47.4315,86.0659],[21.0121,47.4147,85.9131],[21.0127,47.3999,86.1513],[21.0166,47.3916,86.0961],[21.0176,47.3782,86.4314],[21.029,47.36,85.8211],[21.0343,47.3479,90.8754],[21.0261,47.3267,85.6339],[21.0263,47.2846,84.8563],[21.0224,47.275,84.7682],[21.0219,47.2624,84.3548],[21.0172,47.2556,84.3428],[21.0066,47.2452,84.4718],[21.0037,47.2388,84.9057],[21.0302,47.228,84.7563],[21.032,47.225,85.116],[21.0324,47.2116,84.8936],[21.0375,47.2072,84.8873],[21.0488,47.2013,85.2748],[21.0684,47.2063,84.0314],[21.113,47.188,83.6124],[21.1222,47.1829,83.6552],[21.1985,47.1676,83.7601],[21.2329,47.1506,84.0605],[21.2538,47.1499,84.9729],[21.264,47.1521,85.4781],[21.2752,47.1523,92.704],[21.2739,47.1468,85.6406],[21.2779,47.1389,86.1706],[21.2798,47.1002,108.3896],[21.2698,47.0869,87.2565],[21.2267,47.0678,85.8944],[21.2212,47.0638,86.1461],[21.2203,47.0598,86.4021],[21.2237,47.0529,86.0003],[21.2243,47.0447,87.2534],[21.2237,47.0387,87.9996],[21.22,47.0311,87.2056],[21.2207,47.0229,86.4375],[21.2244,47.02,86.3009],[21.2482,47.0111,88.5908],[21.2574,47.0091,86.3805],[21.2948,46.9952,84.1951],[21.3226,46.9879,85.9685],[21.3358,46.9799,88.0009],[21.3451,46.9765,86.4427],[21.367,46.9753,85.4641],[21.3795,46.9724,86.044],[21.4098,46.9713,88.0674],[21.4144,46.967,89.4835],[21.4142,46.9538,88.0525],[21.4423,46.9531,88.2507],[21.4708,46.945,88.661],[21.4887,46.9512,87.9093],[21.5056,46.952,89.631],[21.5179,46.9566,89.5282],[21.5484,46.9558,91.2767],[21.5508,46.958,91.2525],[21.5516,46.9626,90.2374],[21.5489,46.9725,90.3382],[21.5497,46.9785,89.8671],[21.562,46.9933,91.3379],[21.5752,47.0006,91.7174],[21.5916,46.9946,92.1971],[21.6123,47.0006,92.679],[21.6232,47.009,93.7554],[21.6277,47.0209,94.2875],[21.6363,47.0349,96.0836]]]]}}