{"type": "Feature","id": "3173","bbox": [20.81923,46.94075,22.15418,47.96054],"geometry": {"type": "Polygon","coordinates": [[[21.26943,47.90971,91.6067],[21.18675,47.95402,91.6391],[21.11368,47.96054,92.3669],[21.11161,47.95196,92.2966],[21.10624,47.93811,104.2986],[21.09807,47.92958,98.1746],[21.06521,47.90338,97.1283],[21.05642,47.89051,94.9142],[21.0557,47.88297,94.535],[21.05807,47.87351,94.2868],[21.05838,47.85496,92.288],[21.05528,47.8392,92.417],[21.04939,47.83134,96.1549],[21.02852,47.81628,90.5141],[21.0341,47.78592,90.7275],[21.03389,47.77982,94.1012],[20.97901,47.77303,99.5171],[20.9786,47.76546,104.3708],[20.95472,47.73362,90.7824],[20.94852,47.72835,93.6481],[20.94222,47.71859,94.425299999999993],[20.89209,47.68427,100.2783],[20.81923,47.67936,87.7755],[20.84258,47.62857,88.3255],[20.88113,47.60169,89.2444],[20.91328,47.59172,89.2206],[20.94573,47.58888,90.1036],[20.97663,47.56893,89.1031],[20.98986,47.52883,87.1063],[21.00175,47.44413,86.2689],[21.0187,47.3968,86.9628],[21.0279,47.34951,86.371],[21.02293,47.28603,85.0076],[20.99451,47.23598,84.9461],[21.11812,47.181,83.4688],[21.16081,47.17064,86.2327],[21.20587,47.1673,83.6507],[21.27108,47.14539,85.6912],[21.29144,47.11638,87.7901],[21.29051,47.04423,87.6593],[21.28834,47.01584,86.4619],[21.30126,46.99977,85.6023],[21.32493,46.99522,85.9632],[21.34395,46.98266,86.2031],[21.33496,46.95827,88.584],[21.35366,46.94564,85.2392],[21.38684,46.94075,86.6806],[21.4564,46.95419,88.4125],[21.49867,46.95367,89.2585],[21.56678,47.00121,90.8895],[21.60967,47.01532,92.7511],[21.63385,47.01935,94.2818],[21.63427,47.01942,94.0806],[21.63282,47.02269,93.4813],[21.67189,47.05473,97.7685],[21.69421,47.06917,97.5607],[21.74351,47.0916,100.1066],[21.76377,47.10521,102.0607],[21.77048,47.11402,101.4592],[21.77545,47.13167,101.5675],[21.77989,47.14074,101.0932],[21.7894,47.1503,101.6878],[21.81152,47.16469,101.7065],[21.81989,47.17273,101.937],[21.82599,47.18505,101.3865],[21.82568,47.19428,100.8286],[21.8233,47.20332,100.4105],[21.82361,47.21492,100.2198],[21.82774,47.22601,101.1487],[21.83932,47.24084,101.5518],[21.84459,47.24993,100.1619],[21.85606,47.28575,102.0065],[21.86216,47.29742,100.0095],[21.90081,47.33574,132.2301],[21.919,47.34967,128.5333],[21.93699,47.35716,125.1301],[21.98153,47.3661,131.642],[22.00158,47.39383,131.1383],[22.00024,47.42718,122.6129],[21.99145,47.46181,131.4916],[21.98887,47.49294,137.3598],[22.00789,47.51741,130.6112],[22.03745,47.53932,135.6061],[22.09956,47.57095,136.2945],[22.14855,47.57934,139.5993],[22.15418,47.58221,139.5409],[22.15382,47.58252,139.5409],[22.13243,47.60113,145.2276],[22.11248,47.6589,152.2104],[22.09512,47.67634,153.2534],[22.04871,47.64151,153.0897],[22.02256,47.6589,155.6044],[22.02835,47.68505,159.56],[21.99941,47.71985,161.0601],[21.92986,47.74618,145.9823],[21.89565,47.74494,146.4872],[21.87146,47.71667,149.5958],[21.85947,47.69585,155.9472],[21.84087,47.68314,148.2198],[21.81968,47.69143,151.9747],[21.8019,47.70642,156.0029],[21.78154,47.71236,149.1974],[21.76036,47.71244,143.8143],[21.71819,47.72282,139.256],[21.69866,47.73538,134.6725],[21.64977,47.74241,134.5154],[21.63334,47.75771,126.1935],[21.5397,47.80747,112.8408],[21.54383,47.86364,113.0469],[21.55613,47.91689,113.5364],[21.54611,47.93806,109.7755],[21.51458,47.9455,108.1294],[21.47614,47.92997,102.5616],[21.31418,47.92167,92.8704],[21.26943,47.90971,91.6067]],
[[21.41864,47.50102,109.9243],[21.41611,47.55164,113.4016],[21.43889,47.60986,115.1462],[21.48056,47.69179,109.0507],[21.52359,47.72216,114.5232],[21.54384,47.73228,116.3089],[21.53119,47.67913,130.9692],[21.54637,47.67154,140.6256],[21.55903,47.70191,130.7183],[21.60965,47.70697,139.7857],[21.62737,47.66141,164.6575],[21.65015,47.61585,139.2702],[21.67799,47.59054,131.6568],[21.72355,47.60826,137.8804],[21.75646,47.6361,151.359],[21.79189,47.64369,142.4477],[21.82986,47.61079,137.6465],[21.86276,47.57029,132.0102],[21.86023,47.50701,131.719],[21.83998,47.46905,119.3304],[21.77164,47.41589,111.6557],[21.73114,47.44373,117.6466],[21.69318,47.43867,115.9581],[21.63749,47.39058,103.513],[21.57675,47.39058,97.681],[21.56409,47.43108,101.4057],[21.53878,47.44373,99.3156],[21.50723,47.45293,100.6852],[21.48698,47.50102,109.1403],[21.41864,47.50102,109.9243]]]}
,"properties": {"ISO3166-1-Alpha-3": "HUN","country": "Hungary","fill": "#FF0","name": "Hajdú-Bihar","area_km2": 5498.947,"hist_schema_id": "Elevation0-9000","hist_area_km2": {"75": 679.032,"100": 3893.905,"125": 423.905,"150": 476.19,"175": 25.915}}}