{"type":"Feature","properties":{"GID_2":"HUN.14.9_1","GID_0":"HUN","country":"Hungary","GID_1":"HUN.14_1","province":"Pest","NL_NAME_1":"NA","county":"Nagykáta","VARNAME_2":"Nagykátai","NL_NAME_2":"NA","TYPE_2":"Kistérség","ENGTYPE_2":"Subregion","CC_2":"NA","HASC_2":"NA","name":"Nagykáta.county"},
"geometry":{"type": "MultiPolygon","coordinates": [[[[19.6737,47.5451,114.1323],[19.6625,47.5419,118.4723],[19.6413,47.5283,121.3846],[19.615,47.5275,121.0304],[19.5992,47.5293,139.2121],[19.5959,47.527,133.9308],[19.5837,47.5105,137.9203],[19.5649,47.5037,174.7672],[19.5431,47.4989,156.8765],[19.5279,47.4882,164.8509],[19.5392,47.4733,142.897],[19.5608,47.4625,138.1852],[19.5748,47.4581,133.6869],[19.5783,47.455,135.0751],[19.5787,47.4494,139.5676],[19.575,47.4424,132.8332],[19.5739,47.4331,147.1399],[19.5674,47.4267,172.8824],[19.5668,47.424,165.7485],[19.57,47.421,164.8235],[19.5866,47.4154,163.9729],[19.6004,47.4051,154.9725],[19.6006,47.4017,150.6616],[19.5968,47.3933,149.0755],[19.5975,47.3691,140.7045],[19.6233,47.3309,170.5674],[19.6229,47.3208,192.7449],[19.6131,47.3115,216.3042],[19.6224,47.3013,213.0358],[19.6329,47.2942,182.6924],[19.6553,47.3003,177.2968],[19.6632,47.3001,178.6096],[19.6758,47.295,157.5196],[19.6853,47.2833,124.7468],[19.6912,47.2792,118.5963],[19.7344,47.2674,110.4282],[19.7868,47.269,97.3789],[19.8042,47.2767,97.7106],[19.8136,47.2836,98.1576],[19.8229,47.294,98.7226],[19.8311,47.3061,103.4212],[19.8326,47.3139,100.0063],[19.8364,47.3218,101.6284],[19.8418,47.3241,97.8126],[19.8574,47.3236,98.839],[19.8683,47.3145,98.6093],[19.8836,47.3082,98.8201],[19.9035,47.3035,95.8546],[19.9082,47.304,94.5336],[19.9191,47.3114,92.3752],[19.9239,47.3119,92.6126],[19.9278,47.3094,93.5152],[19.9334,47.2994,91.5756],[19.9418,47.2962,91.2122],[19.9988,47.2885,89.5589],[20.0036,47.2947,88.3084],[20.0145,47.3111,87.9562],[20.0154,47.3156,87.7498],[20.0095,47.3233,87.5081],[19.99,47.3406,89.5751],[19.9882,47.3548,89.9952],[19.985,47.3597,90.9547],[19.9623,47.3752,92.9264],[19.9521,47.3847,93.0345],[19.9214,47.395,100.261],[19.8559,47.4209,104.9294],[19.8312,47.4376,103.4881],[19.8089,47.4667,103.112],[19.7687,47.485,109.8779],[19.7549,47.4944,107.5891],[19.7548,47.4983,106.9802],[19.7675,47.5159,107.1079],[19.7824,47.5307,106.4793],[19.7831,47.5333,106.4849],[19.7817,47.5357,109.0957],[19.7343,47.5354,108.0724],[19.7073,47.524,111.2376],[19.7004,47.5233,111.5257],[19.6955,47.5252,112.8456],[19.6876,47.5357,112.6216],[19.6737,47.5451,114.1323]]]]}}