{"type": "Feature","bbox": [19.0833,47.0817,19.411,47.4361],"geometry": {"type": "MultiPolygon","coordinates": [[[[19.2415,47.1187,96.9333],[19.2245,47.1308,95.1858],[19.2082,47.152,95.1297],[19.2062,47.1782,97.152],[19.2108,47.1852,95.8033],[19.2169,47.1908,96.0001],[19.2253,47.2045,96.1044],[19.2239,47.2086,96.2522],[19.2113,47.2234,96.099],[19.2115,47.2268,96.385],[19.2198,47.2329,97.0569],[19.239,47.2424,110.5218],[19.2552,47.2362,99.3017],[19.2668,47.2298,100.4131],[19.2732,47.2319,99.7531],[19.2881,47.2436,105.7084],[19.288,47.2598,106.0042],[19.2934,47.2683,121.8973],[19.33,47.2811,123.4846],[19.3347,47.2933,120.6629],[19.3339,47.2992,128.9693],[19.3294,47.3075,120.1065],[19.3284,47.321,125.0829],[19.3297,47.3251,122.1335],[19.3418,47.3311,124.9795],[19.3643,47.3468,121.8273],[19.3798,47.3542,129.6819],[19.3905,47.3578,128.6455],[19.4082,47.3585,132.9219],[19.411,47.3616,131.2312],[19.4056,47.3701,132.832],[19.3939,47.3812,132.8743],[19.3751,47.3907,130.597],[19.3577,47.402,128.0531],[19.3462,47.4138,128.4757],[19.3229,47.4149,132.5871],[19.3118,47.4181,142.4557],[19.3001,47.4224,125.0218],[19.2781,47.4361,138.4406],[19.258,47.4351,142.5076],[19.2489,47.4277,130.717],[19.2205,47.417,128.1947],[19.2175,47.413,126.7402],[19.215699999999998,47.4006,122.8937],[19.1905,47.391,117.7863],[19.1778,47.3761,108.6199],[19.1764,47.3709,106.9137],[19.1767,47.3559,112.3081],[19.1753,47.3527,110.6641],[19.1442,47.3514,108.216],[19.1338,47.3478,105.8003],[19.1355,47.3189,100.1858],[19.1288,47.3075,99.2698],[19.1282,47.3038,97.4628],[19.1293,47.2977,98.3903],[19.1335,47.2915,98.3147],[19.1333,47.2884,97.6039],[19.1253,47.2848,97.9137],[19.1036,47.2807,96.4861],[19.0987,47.2739,100.4398],[19.0862,47.2691,98.8504],[19.0833,47.2652,98.3105],[19.0856,47.2605,104.4494],[19.1042,47.2484,97.4917],[19.1074,47.2435,95.6553],[19.1072,47.2353,99.1097],[19.0961,47.2229,96.213],[19.0938,47.2192,100.4922],[19.0943,47.2168,96.4668],[19.118,47.2009,95.675299999999993],[19.1289,47.1858,95.0898],[19.1408,47.1781,95.0924],[19.1537,47.1722,94.9421],[19.1621,47.1632,94.9173],[19.1628,47.1583,95.0907],[19.1561,47.1445,95.1459],[19.1568,47.1337,94.5086],[19.1632,47.125,95.4848],[19.174,47.117,94.9966],[19.1801,47.1097,94.9054],[19.1826,47.0866,94.8164],[19.206,47.0849,95.1208],[19.2177,47.0817,94.800299999999993],[19.2244,47.0825,95.056],[19.2424,47.1041,98.8367],[19.2415,47.1187,96.9333]]]]}
,"properties": {"GID_2": "HUN.14.7_1","GID_0": "HUN","country": "Hungary","GID_1": "HUN.14_1","province": "Pest","NL_NAME_1": "NA","county": "Gyál","VARNAME_2": "Gyáli","NL_NAME_2": "NA","TYPE_2": "Kistérség","ENGTYPE_2": "Subregion","CC_2": "NA","HASC_2": "NA","name": "Gyál.county","area_km2": 403.5479,"hist_schema_id": "Elevation0-9000","hist_area_km2": {"100": 239.3643,"125": 161.3423,"150": 2.8413}}}