{"type": "Feature","id": "3164","bbox": [18.68499,46.94551,20.20211,48.05435],"geometry": {"type": "Polygon","coordinates": [[[19.0829,47.86013,236.2071],[18.95887,47.9194,514.1132],[18.93531,47.95475,774.6746],[18.97014,47.97562,497.9633],[18.96725,48.02226,397.1877],[18.9336,48.05435,182.3224],[18.83847,48.04001,136.5748],[18.821,48.03045,118.1387],[18.79423,47.99314,114.9979],[18.78472,47.98761,118.1357],[18.76529,47.98539,114.3207],[18.7562,47.98183,122.8083],[18.74318,47.97105,170.6],[18.74452,47.96736,128.7324],[18.75144,47.96335,114.0203],[18.75475,47.9518,111.5447],[18.74473,47.91051,113.0005],[18.74225,47.88946,112.4218],[18.74876,47.87072,110.1776],[18.77801,47.85145,253.4767],[18.81645,47.83256,220.5384],[18.81492,47.83219,181.5736],[18.81728,47.83186,171.7487],[18.84818,47.81706,102.0],[18.88332,47.81217,110.1028],[18.90575,47.78825,101.0],[18.91567,47.77122,103.6466],[18.92146,47.74132,566.0556],[18.93469,47.73241,467.4081],[18.9165,47.72169,490.8269],[18.89376,47.72678,531.1435],[18.85304,47.71709,638.9618],[18.86369,47.66608,285.2152],[18.81129,47.67022,214.2959],[18.75909,47.66484,236.3349],[18.76891,47.65249,193.8865],[18.77501,47.63807,232.0225],[18.74762,47.6243,269.9834],[18.72592,47.605,282.1032],[18.71041,47.5787,228.0464],[18.68499,47.56185,206.2325],[18.72457,47.50762,164.2708],[18.77563,47.46452,167.6954],[18.787,47.43897,193.8107],[18.78038,47.41049,168.2019],[18.80705,47.36649,130.8213],[18.81939,47.35628,127.0815],[18.86185,47.38722,132.1993],[18.84418,47.4206,247.4969],[18.83829,47.45398,272.2964],[18.86382,47.46183,198.6008],[18.8913,47.4422,171.7318],[18.92468,47.42845,217.2669],[18.95546,47.4045,138.0025],[18.97469,47.43416,165.3756],[18.97386,47.44687,124.0673],[18.93862,47.51503,272.3923],[18.92963,47.57374,326.7103],[18.99029,47.57994,186.2571],[19.01768,47.58878,189.9046],[19.04094,47.60464,142.7494],[19.08858,47.60681,102.7959],[19.1323,47.58828,112.7836],[19.15462,47.5688,120.8396],[19.19193,47.55149,147.3051],[19.19524,47.53942,153.3208],[19.21736,47.54206,173.8974],[19.29332,47.50227,161.7867],[19.31286,47.49702,151.5272],[19.32671,47.48609,194.5421],[19.30418,47.4476,147.9076],[19.25694,47.42284,137.3514],[19.23772,47.4062,122.1992],[19.14264,47.36016,115.4281],[19.11308,47.36269,114.4607],[19.06274,47.38377,102.2148],[18.94895,47.36925,100.838],[18.94235,47.34403,159.1433],[18.92861,47.31851,102.116],[18.90275,47.30375,134.4363],[18.91877,47.28711,97.0],[18.90761,47.23743,96.5],[18.88694,47.20813,101.4609],[18.88136,47.18957,96.0],[18.87888,47.16896,104.6804],[18.87919,47.14924,110.304],[18.88921,47.11035,111.8965],[18.89686,47.09025,117.9223],[18.90306,47.08157,109.518],[18.91877,47.07403,110.511],[18.96797,47.03315,98.761],[18.98936,47.06664,96.2926],[19.0367,47.0685,96.6153],[19.08321,47.07801,95.9135],[19.15752,47.11883,95.3108],[19.26532,47.15164,108.4346],[19.30139,47.14526,98.8859],[19.33022,47.12436,99.1178],[19.33436,47.09542,99.009],[19.31058,47.06901,97.0357],[19.30283,47.04108,96.5422],[19.32299,47.01956,97.2773],[19.35255,47.02656,101.4988],[19.37435,47.05578,111.7432],[19.40277,47.06857,119.3822],[19.43326,47.07682,131.69],[19.44546,47.09098,119.0456],[19.44753,47.11097,122.6343],[19.46231,47.12348,128.3662],[19.53062,47.11619,147.9807],[19.56835,47.09051,139.1989],[19.62364,47.02788,138.3516],[19.64671,47.01207,131.8706],[19.69268,46.98057,126.7327],[19.76916,46.94825,120.0397],[19.80151,46.94918,113.6365],[19.81908,46.94551,113.2455],[19.83872,46.94651,111.1404],[19.85598,46.96248,111.1943],[19.8843,46.9806,109.2378],[19.91592,46.98571,102.0031],[19.94548,46.97036,99.2005],[19.97711,46.9629,96.7195],[20.01855,46.99765,91.91],[20.04697,47.01139,89.4654],[20.07633,47.02039,86.1026],[20.1094,47.00669,85.4673],[20.1464,46.9793,82.4358],[20.20211,47.00762,83.0424],[20.13906,47.02447,89.9667],[20.08346,47.05814,86.5345],[20.05111,47.10364,87.5502],[20.05638,47.15195,88.646],[20.08294,47.19746,87.6151],[20.04749,47.23717,89.2874],[20.02238,47.24913,88.3727],[20.00481,47.26766,101.4638],[20.00253,47.28166,106.8021],[20.00667,47.29685,87.5829],[20.00667,47.31489,87.6897],[19.9986,47.32895,87.6654],[19.81856,47.45002,104.7882],[19.79965,47.46741,103.2286],[19.758,47.49224,108.2647],[19.7581,47.50857,106.6821],[19.75293,47.52707,107.4068],[19.71542,47.52462,110.5358],[19.68369,47.5387,114.0934],[19.66457,47.56635,121.6687],[19.6748,47.59585,111.8392],[19.66043,47.60828,115.9712],[19.65919,47.6251,114.9678],[19.6316,47.65642,124.7894],[19.61258,47.67079,132.0221],[19.60194,47.68939,142.4932],[19.61392,47.70244,125.756],[19.61992,47.71559,126.0005],[19.60731,47.71773,133.1431],[19.59532,47.72169,141.3862],[19.58075,47.73724,151.0831],[19.51894,47.72939,194.6435],[19.45859,47.70603,185.9015],[19.44897,47.77166,163.2682],[19.416,47.8222,203.0664],[19.37725,47.83419,234.5172],[19.16372,47.86147,294.3225],[19.0829,47.86013,236.2071]]]}
,"properties": {"ISO3166-1-Alpha-3": "HUN","country": "Hungary","fill": "#000","name": "Pest","area_km2": 6274.385,"hist_schema_id": "Elevation0-9000","hist_area_km2": {"75": 39.058,"100": 2129.546,"125": 1347.344,"150": 756.857,"175": 464.901,"200": 404.197,"225": 309.943,"250": 211.98,"275": 142.153,"300": 95.316,"325": 64.793,"350": 51.827,"375": 41.746,"400": 37.62,"425": 32.855,"450": 29.588,"475": 22.925,"500": 19.316,"525": 16.793,"550": 12.872,"575": 8.38,"600": 6.258,"625": 5.546,"650": 5.876,"675": 4.936,"700": 3.513,"725": 2.56,"750": 1.919,"775": 1.165,"800": 1.151,"825": 0.881,"850": 0.369,"875": 0.142}}}