{"type": "Feature","bbox": [18.6749,46.9452,20.099,48.0579],"geometry": {"type": "MultiPolygon","coordinates": [[[[20.0696,47.0175,87.1997],[20.0816,47.0138,86.4901],[20.0963,47.0225,85.9066],[20.0987,47.0262,86.1429],[20.099,47.0413,87.7472],[20.0947,47.0502,86.7694],[20.0611,47.1012,87.709],[20.057,47.1109,87.2702],[20.0561,47.1202,86.4503],[20.0529,47.1272,88.1924],[20.053,47.147,93.4921],[20.0539,47.1513,88.9705],[20.0597,47.159,88.4891],[20.0709,47.1667,88.6242],[20.0837,47.1729,88.1079],[20.0937,47.1862,88.5508],[20.0946,47.2005,88.1338],[20.09,47.2095,88.1361],[20.0808,47.2202,88.7011],[20.0587,47.2371,88.2364],[20.0387,47.249,89.7239],[20.0298,47.2526,89.0913],[20.0024,47.2577,93.0523],[19.9988,47.2597,88.0923],[19.9945,47.2652,91.9781],[19.9945,47.269,88.3033],[20.0009,47.2789,94.4263],[20.0007,47.2845,89.6265],[19.9988,47.2885,89.5589],[20.0145,47.3111,87.9562],[20.0154,47.3156,87.7498],[20.0095,47.3233,87.5081],[19.99,47.3406,89.5751],[19.9882,47.3548,89.9952],[19.985,47.3597,90.9547],[19.9623,47.3752,92.9264],[19.9521,47.3847,93.0345],[19.9214,47.395,100.261],[19.8559,47.4209,104.9294],[19.8312,47.4376,103.4881],[19.8089,47.4667,103.112],[19.7687,47.485,109.8779],[19.7559,47.4933,112.6589],[19.7543,47.4955,107.3719],[19.7548,47.4983,106.9802],[19.7675,47.5159,107.1079],[19.782,47.5301,105.6161],[19.7831,47.5333,106.4849],[19.7817,47.5357,109.0957],[19.7343,47.5354,108.0724],[19.7073,47.524,111.2376],[19.7004,47.5233,111.5257],[19.6955,47.5252,112.8456],[19.6855,47.5374,113.4437],[19.6665,47.55,115.2572],[19.6567,47.5547,115.6424],[19.6512,47.5663,115.7627],[19.6496,47.5927,112.4358],[19.6544,47.6032,112.1147],[19.6589,47.6221,115.136],[19.648,47.6348,118.5453],[19.6472,47.6439,120.8314],[19.6456,47.647,120.3152],[19.627,47.6544,126.6096],[19.6111,47.6692,132.5102],[19.6068,47.6786,135.8927],[19.6063,47.6831,138.0947],[19.6071,47.7008,123.6536],[19.6111,47.7086,136.5849],[19.6111,47.7148,134.6779],[19.6024,47.7275,145.5997],[19.5897,47.7343,144.8143],[19.5807,47.745,151.1674],[19.5623,47.7471,161.201],[19.544,47.7459,173.3886],[19.5289,47.7277,175.9575],[19.511,47.7254,160.5928],[19.5034,47.7202,165.7431],[19.5031,47.7154,213.8996],[19.511,47.7016,203.9331],[19.5094,47.6964,221.3881],[19.4954,47.6915,198.0449],[19.482,47.6917,227.0953],[19.479,47.6927,236.7462],[19.4802,47.7035,245.304],[19.4757,47.7106,236.8481],[19.4602,47.719,279.3152],[19.4419,47.7368,284.3571],[19.4324,47.7486,306.8929],[19.4341,47.7528,315.3278],[19.4479,47.7581,212.2403],[19.453,47.7673,201.7111],[19.4497,47.771,163.2682],[19.4409,47.7737,190.3122],[19.4235,47.7735,246.0959],[19.4223,47.78,222.2185],[19.4232,47.7855,212.4316],[19.4424,47.808,211.1376],[19.4357,47.8178,226.054],[19.4125,47.8171,254.4489],[19.396,47.8224,170.5297],[19.3668,47.8227,179.9079],[19.3416,47.8303,236.2371],[19.3226,47.8338,277.419],[19.3123,47.8334,261.3345],[19.2882,47.8283,300.6158],[19.2261,47.8288,311.8011],[19.2219,47.8305,303.0519],[19.2123,47.8406,258.7502],[19.199,47.8482,300.4327],[19.1585,47.8497,265.2625],[19.1272,47.8558,313.0897],[19.1056,47.8558,223.7401],[19.0958,47.853,251.7023],[19.0828,47.8463,279.2758],[19.0719,47.8465,278.9194],[19.0696,47.8489,283.8518],[19.0695,47.859,220.91309999999999],[19.0677,47.8621,192.3077],[19.0515,47.8641,312.7189],[19.04,47.8681,319.9514],[19.0373,47.8717,330.912],[19.0358,47.8833,232.4475],[19.0253,47.8929,269.8663],[18.9968,47.9028,299.6838],[18.9821,47.9118,322.5181],[18.9721,47.9225,440.7505],[18.955,47.9282,617.7761],[18.9452,47.9336,760.246],[18.9319,47.9501,659.6608],[18.9304,47.9546,702.917],[18.9309,47.9629,813.9067],[18.9413,47.9727,595.2912],[18.9514,47.9784,533.2913],[18.9759,47.9847,424.3181],[18.9801,47.987,502.7209],[18.9895,48.0016,408.7765],[18.9898,48.0178,496.1638],[18.988,48.022,495.4795],[18.9836,48.0244,374.183],[18.974,48.0271,376.786],[18.9571,48.0285,313.1021],[18.9348,48.0357,296.2214],[18.9272,48.0471,182.5457],[18.926,48.0569,148.5828],[18.9224,48.0545,149.9941],[18.913,48.0533,156.7301],[18.9025,48.0544,152.8281],[18.8935,48.0579,148.3398],[18.8861,48.0562,143.0874],[18.8755,48.0472,174.7707],[18.8676,48.0476,164.5053],[18.8481,48.0525,132.1461],[18.8388,48.049,131.3012],[18.8362,48.0438,134.6794],[18.8273,48.0423,126.7441],[18.8282,48.0303,128.1011],[18.8191,48.0236,121.0065],[18.8172,48.0156,117.8907],[18.8208,48.0073,119.7499],[18.8192,47.9998,145.9514],[18.8174,47.9968,139.2024],[18.8142,47.9985,116.8461],[18.8086,47.9956,115.1062],[18.8128,47.9925,116.0269],[18.7981,47.9883,114.9177],[18.7879,47.9893,114.5653],[18.7762,47.9864,115.2958],[18.7721,47.989,113.6631],[18.766,47.9866,114.8132],[18.7664,47.9832,115.9532],[18.7624,47.9833,113.7243],[18.7533,47.9757,120.5681],[18.7567,47.971,113.5506],[18.7716,47.966,118.5969],[18.7776,47.958,116.0019],[18.7755,47.9546,119.22],[18.7704,47.9549,112.4592],[18.7734,47.9484,113.895],[18.774,47.9407,119.9721],[18.7723,47.9362,110.9296],[18.7686,47.9305,110.7914],[18.7579,47.922,109.4299],[18.7586,47.9171,109.7713],[18.7626,47.912,112.298],[18.7593,47.9076,119.359],[18.7621,47.904,108.9837],[18.759,47.8987,108.4073],[18.7683,47.8839,108.6017],[18.7634,47.8828,108.5604],[18.7633,47.8733,107.5379],[18.7686,47.8719,106.7972],[18.7706,47.8696,106.7339],[18.7792,47.8699,106.5563],[18.7832,47.8673,105.9746],[18.7923,47.8668,109.5713],[18.797,47.8599,106.1052],[18.8154,47.8546,107.7059],[18.8222,47.8492,107.0598],[18.8307,47.8331,106.0869],[18.836,47.8303,105.7341],[18.8506,47.8307,104.3297],[18.8557,47.8281,107.2725],[18.8494,47.8221,108.6442],[18.8488,47.8195,105.2531],[18.8627,47.8171,112.7668],[18.8703,47.8131,102.0],[18.8784,47.8114,101.5],[18.8949,47.8135,127.8596],[18.8987,47.8122,127.956],[18.9072,47.8003,101.5],[18.9095,47.7838,101.0],[18.9129,47.7818,120.5215],[18.9196,47.7815,261.4428],[18.9221,47.7534,322.1044],[18.9354,47.7443,333.5847],[18.9373,47.7412,409.2798],[18.9339,47.729,579.58],[18.9281,47.7233,472.9714],[18.9125,47.7231,494.1425],[18.9039,47.7328,356.9047],[18.9013,47.7337,438.6324],[18.886,47.7286,621.1016],[18.8611,47.7246,481.3925],[18.861,47.7157,625.7844],[18.8532,47.7016,703.5399],[18.8676,47.6835,524.2142],[18.8686,47.6761,334.1783],[18.8659,47.6723,296.2682],[18.8368,47.6683,314.164],[18.8155,47.6719,196.1892],[18.7916,47.6788,204.0814],[18.7753,47.677,188.4684],[18.7733,47.674,191.5249],[18.7768,47.6692,185.4914],[18.7762,47.6669,216.134],[18.7616,47.664,219.4646],[18.7592,47.6621,238.0762],[18.7729,47.6516,235.81],[18.774,47.6491,210.635],[18.7728,47.6459,231.2994],[18.7475,47.634,233.7863],[18.739,47.6242,232.5291],[18.7357,47.615,265.3385],[18.7176,47.6079,248.1724],[18.7193,47.5968,283.5788],[18.7174,47.592,273.4962],[18.6909,47.5844,214.9928],[18.6749,47.5735,223.3444],[18.6788,47.5663,227.1186],[18.6862,47.5591,204.9316],[18.6821,47.5482,220.5632],[18.6825,47.533,167.9401],[18.7094,47.498,159.9079],[18.7235,47.4904,183.8819],[18.7524,47.4811,170.6082],[18.7607,47.4762,146.6051],[18.7722,47.4623,172.0236],[18.7774,47.4525,155.3159],[18.7777,47.4247,180.3276],[18.7699,47.4156,166.885],[18.7529,47.4094,226.0497],[18.7494,47.4057,209.5264],[18.7498,47.3988,177.9636],[18.7548,47.3904,183.1852],[18.7612,47.383,183.9776],[18.7854,47.367,173.0834],[18.7943,47.3586,171.9655],[18.825,47.3385,136.3505],[18.8367,47.3278,138.447],[18.8466,47.3152,150.2065],[18.8488,47.3032,150.6101],[18.8614,47.2983,148.4169],[18.865,47.2953,146.2558],[18.8663,47.2801,145.629],[18.8679,47.2773,144.2518],[18.8931,47.2762,147.7797],[18.905,47.2734,149.1385],[18.9018,47.2618,135.5802],[18.9029,47.2421,101.6641],[18.899,47.2286,100.3055],[18.894,47.2214,99.7045],[18.8697,47.204,97.273],[18.8681,47.1999,97.2621],[18.8694,47.1661,101.9851],[18.875,47.1568,95.5],[18.8768,47.148,95.5],[18.8809,47.1412,125.525],[18.8846,47.0978,96.8718],[18.8903,47.0871,94.5],[18.8993,47.0768,94.5],[18.9189,47.0687,101.9799],[18.9375,47.053,94.0],[18.9708,47.0376,102.8712],[18.9691,47.0585,104.8196],[18.9704,47.0609,96.7185],[18.9742,47.0619,96.4857],[19.0073,47.06,96.9965],[19.0286,47.0511,96.5385],[19.0795,47.0397,95.3819],[19.1101,47.0443,94.3048],[19.1115,47.0468,94.2291],[19.1101,47.0595,94.7793],[19.1115,47.0628,94.3081],[19.1472,47.063,95.4763],[19.1531,47.0659,94.8859],[19.1547,47.0751,94.9761],[19.1693,47.0763,94.8239],[19.1826,47.0866,94.8164],[19.206,47.0849,95.1208],[19.2177,47.0817,94.800299999999993],[19.2244,47.0825,95.056],[19.2424,47.1041,98.8367],[19.2415,47.1187,96.9333],[19.2929,47.1167,117.0574],[19.3111,47.112,98.3022],[19.3331,47.0979,98.6451],[19.3451,47.0927,100.8982],[19.3574,47.0783,101.7646],[19.3486,47.0663,102.4809],[19.3288,47.0504,100.0944],[19.3209,47.0378,97.8807],[19.3168,47.0276,96.2863],[19.3171,47.0181,96.8338],[19.319,47.0139,97.596],[19.3392,46.9997,118.167],[19.3497,47.0024,111.921],[19.3603,47.0101,102.4137],[19.3691,47.0137,102.1191],[19.4057,47.0198,118.1201],[19.4192,47.0271,126.1745],[19.4317,47.0363,124.1828],[19.4463,47.0438,131.1102],[19.4653,47.0448,134.3004],[19.4803,47.0424,128.61],[19.4974,47.0439,135.9092],[19.506,47.0568,132.9462],[19.5021,47.0663,132.2591],[19.5021,47.072,136.3085],[19.5125,47.0885,135.6428],[19.5138,47.097,136.1758],[19.5189,47.1028,145.0112],[19.5427,47.1039,146.3116],[19.5612,47.0989,153.1353],[19.5804,47.0993,136.6901],[19.5877,47.1022,138.3469],[19.5995,47.1125,141.638],[19.6164,47.0972,140.7406],[19.6265,47.0802,138.7088],[19.6414,47.0631,143.365],[19.6462,47.0532,136.4427],[19.6475,47.0433,139.298],[19.6558,47.0282,138.7786],[19.6854,46.9959,128.4554],[19.7139,46.9762,124.84],[19.7246,46.9726,123.4117],[19.7361,46.9719,122.5033],[19.7452,46.9691,122.0803],[19.7638,46.9537,123.1609],[19.7831,46.9452,122.2629],[19.8149,46.9517,113.8804],[19.8315,46.947,110.5026],[19.8495,46.9453,109.7474],[19.857,46.9679,109.5019],[19.8794,46.9899,109.2005],[19.8867,46.9941,106.4898],[19.8914,46.9936,105.4621],[19.9075,46.9862,103.4861],[19.9586,46.9685,101.19],[19.9835,46.9648,97.2516],[19.992,46.9768,96.2267],[19.9931,46.9946,92.69],[20.0027,47.0028,91.6453],[20.0172,47.0071,91.1691],[20.0334,47.0083,91.033],[20.0499,47.0119,90.4137],[20.0602,47.0173,86.7118],[20.0696,47.0175,87.1997]],
[[19.029,47.6158,159.6617],[19.0298,47.6183,146.5929],[19.0395,47.6207,120.3386],[19.0606,47.6199,102.7708],[19.0669,47.6089,102.1425],[19.0638,47.5978,109.9669],[19.0734,47.5937,105.3041],[19.0784,47.5954,98.0],[19.0871,47.6047,98.0],[19.0931,47.6179,113.9656],[19.0968,47.6197,114.9779],[19.1093,47.619,102.0354],[19.1105,47.6129,107.9004],[19.1133,47.6109,105.8982],[19.1427,47.6096,120.3174],[19.149,47.5995,119.8954],[19.15,47.5814,118.8549],[19.1647,47.5724,127.257],[19.1681,47.5619,126.0044],[19.173,47.5551,129.6896],[19.1791,47.5504,135.3027],[19.1867,47.5473,148.3412],[19.2123,47.5466,167.8631],[19.2308,47.5412,220.2634],[19.2509,47.5394,216.4677],[19.2575,47.5315,188.5155],[19.267,47.5116,159.6032],[19.2727,47.508,166.997],[19.2908,47.5079,174.4989],[19.3125,47.5163,222.3783],[19.3264,47.5161,242.9638],[19.3289,47.5127,230.426],[19.3285,47.5039,198.1585],[19.3218,47.4921,150.3522],[19.3307,47.4827,197.8158],[19.3386,47.477,190.2095],[19.3399,47.474,186.8254],[19.3343,47.4684,225.2685],[19.3332,47.4627,225.0473],[19.3223,47.4624,223.1317],[19.3079,47.4593,198.7085],[19.2899,47.4529,138.8328],[19.2781,47.4361,138.4406],[19.258,47.4351,142.5076],[19.2489,47.4277,130.717],[19.2205,47.417,128.1947],[19.2175,47.413,126.7402],[19.215699999999998,47.4006,122.8937],[19.193,47.3925,116.7876],[19.1882,47.3894,120.7108],[19.1817,47.3816,113.8009],[19.1768,47.374,109.1205],[19.1765,47.3545,109.321],[19.1736,47.3519,108.4458],[19.1442,47.3514,108.216],[19.1338,47.3478,105.8003],[19.1071,47.3655,108.3307],[19.0943,47.3716,101.2597],[19.0896,47.3781,100.6159],[19.0882,47.386,101.2429],[19.0838,47.3928,97.9147],[19.0761,47.3991,101.1149],[19.0705,47.4015,101.4919],[19.0346,47.3895,102.7278],[19.0146,47.3858,107.3407],[18.9944,47.3849,104.0774],[18.9745,47.381,97.0],[18.9467,47.3708,97.9316],[18.9324,47.3809,106.1114],[18.9466,47.3967,107.6946],[18.9406,47.4074,135.6709],[18.9409,47.4196,207.5348],[18.9449,47.4237,216.234],[18.9583,47.4285,218.1177],[18.9623,47.4315,212.6085],[18.9644,47.4544,126.2074],[18.9757,47.4663,172.6093],[18.9645,47.4838,385.506],[18.959,47.4883,442.9341],[18.9277,47.497,251.2916],[18.928,47.4994,266.8845],[18.9351,47.5098,272.9268],[18.9286,47.5177,258.7146],[18.9277,47.5219,279.9931],[18.9299,47.5778,307.6561],[18.9324,47.5817,286.5839],[18.9398,47.5857,202.811],[18.9716,47.586,152.7359],[18.9827,47.5913,126.3267],[19.0087,47.5917,157.1929],[19.0206,47.5951,190.1841],[19.028,47.5993,210.8153],[19.029,47.6158,159.6617]]]]}
,"properties": {"GID_1": "HUN.14_1","GID_0": "HUN","country": "Hungary","province": "Pest","VARNAME_1": "NA","NL_NAME_1": "NA","TYPE_1": "Megye","ENGTYPE_1": "County","CC_1": "NA","HASC_1": "HU.PE","ISO_1": "HU-PE","name": "Pest.province","area_km2": 6471.711,"hist_schema_id": "Elevation0-9000","hist_area_km2": {"75": 22.282,"100": 2251.193,"125": 1415.86,"150": 784.261,"175": 478.153,"200": 408.556,"225": 308.195,"250": 209.289,"275": 136.706,"300": 89.004,"325": 60.477,"350": 49.971,"375": 42.283,"400": 38.655,"425": 34.307,"450": 30.541,"475": 23.506,"500": 19.814,"525": 16.822,"550": 12.802,"575": 8.182,"600": 6.103,"625": 5.334,"650": 5.393,"675": 4.496,"700": 3.116,"725": 2.191,"750": 1.507,"775": 0.881,"800": 0.881,"825": 0.653,"850": 0.256}}}