{"type": "Feature","bbox": [16.1138,46.8561,16.5129,47.0143],"geometry": {"type": "MultiPolygon","coordinates": [[[[16.2943,47.0131,297.6129],[16.2937,47.0143,318.8514],[16.2903,47.0137,362.535],[16.2839,47.0047,338.7136],[16.2829,47.0002,325.9857],[16.2846,46.9979,321.2791],[16.2769,46.9846,228.4326],[16.2786,46.9692,218.6917],[16.2775,46.963,220.1919],[16.2704,46.9616,218.8263],[16.2642,46.964,218.5],[16.2564,46.9646,220.7728],[16.2505,46.9617,224.7689],[16.2439,46.9564,227.1703],[16.2481,46.9494,223.6587],[16.2461,46.9494,222.9687],[16.2467,46.9471,223.3689],[16.2387,46.9473,224.1991],[16.235,46.9453,224.776],[16.2338,46.9423,226.119],[16.2295,46.9435,226.7438],[16.2302,46.9417,226.515],[16.2252,46.9406,225.9725],[16.2231,46.936,227.2337],[16.2185,46.9365,227.1597],[16.2187,46.9412,227.1279],[16.217,46.9395,229.9237],[16.2129,46.9406,228.1779],[16.2111,46.9429,233.4923],[16.2116,46.9408,233.6493],[16.2088,46.9392,230.4737],[16.207,46.9429,229.7785],[16.201,46.9422,230.2318],[16.1945,46.9361,233.5704],[16.1888,46.9227,294.1091],[16.1815,46.9128,304.0568],[16.1803,46.907,331.6943],[16.1751,46.9063,286.226],[16.1723,46.9038,302.9453],[16.1641,46.9052,296.1714],[16.1632,46.9026,317.2062],[16.1601,46.9008,310.0094],[16.1596,46.8976,317.3694],[16.1544,46.8968,335.7122],[16.1551,46.894,337.0013],[16.1498,46.8934,306.8099],[16.1495,46.8905,311.9216],[16.1463,46.8864,350.7408],[16.1398,46.8855,378.9097],[16.1343,46.8761,367.6035],[16.1138,46.8696,383.8391],[16.1223,46.865,381.5359],[16.1261,46.8596,377.2432],[16.1489,46.858,342.9499],[16.1527,46.8561,370.5781],[16.162,46.8621,354.0073],[16.1725,46.8597,379.7357],[16.1785,46.8611,364.5505],[16.1819,46.8656,338.7977],[16.2204,46.8714,350.6193],[16.2323,46.8777,353.3666],[16.241,46.8782,337.234],[16.2586,46.8746,328.4856],[16.2939,46.8737,336.4793],[16.3018,46.8638,328.804],[16.3093,46.8583,309.8287],[16.3184,46.8768,314.9575],[16.3262,46.8825,292.4725],[16.3412,46.8864,305.2006],[16.3544,46.8869,299.4844],[16.3705,46.8803,291.5843],[16.3821,46.8777,296.5189],[16.3846,46.8792,294.9276],[16.3845,46.881,289.5593],[16.3778,46.8842,284.4355],[16.376,46.8878,285.6246],[16.3803,46.8946,254.6378],[16.3904,46.9019,278.718],[16.4037,46.9041,264.3457],[16.4216,46.9097,280.2638],[16.4309,46.9089,273.1929],[16.4493,46.9112,269.4948],[16.4675,46.9073,242.5599],[16.4692,46.9094,249.8116],[16.4697,46.9177,225.844],[16.4758,46.9238,260.9749],[16.4766,46.9358,238.5113],[16.4993,46.9468,207.1871],[16.5041,46.9543,199.9817],[16.5129,46.9601,196.7884],[16.5116,46.9627,196.7596],[16.5029,46.964,196.6937],[16.4957,46.9747,202.9547],[16.4846,46.9803,212.9821],[16.4788,46.9901,253.0254],[16.4729,46.9955,204.5408],[16.4674,46.9987,211.8228],[16.4642,46.9977,199.753],[16.4611,47.0021,205.6807],[16.4575,47.0014,206.1113],[16.4526,47.0046,199.8347],[16.4472,47.0029,217.0144],[16.4481,46.9997,252.4494],[16.4466,46.9936,262.5412],[16.4335,46.993,277.4177],[16.421,46.9966,267.5933],[16.4182,47.0017,282.9635],[16.4137,47.0051,282.1276],[16.3946,47.0037,275.2209],[16.3842,46.9991,301.9667],[16.3775,47.0005,285.1994],[16.374,46.9988,263.657],[16.3684,47.0066,269.4236],[16.3652,47.0077,265.6128],[16.3607,47.0059,292.4285],[16.351,47.0108,308.5686],[16.345,47.0043,279.9771],[16.3465,47.0025,258.5432],[16.3439,46.9994,255.5435],[16.3452,46.9984,237.9306],[16.3445,46.997,239.6256],[16.3429,46.9965,263.2142],[16.3236,47.0029,308.5728],[16.3034,46.9988,341.5851],[16.2997,47.0017,341.9796],[16.3005,47.0088,270.0141],[16.2943,47.0131,297.6129]]]]}
,"properties": {"GID_2": "HUN.18.7_1","GID_0": "HUN","country": "Hungary","GID_1": "HUN.18_1","province": "Vas","NL_NAME_1": "NA","county": "Szentgotthárd","VARNAME_2": "Szentgotthárdi","NL_NAME_2": "NA","TYPE_2": "Kistérség","ENGTYPE_2": "Subregion","CC_2": "NA","HASC_2": "NA","name": "Szentgotthárd.county","area_km2": 267.4024,"hist_schema_id": "Elevation0-9000","hist_area_km2": {"200": 37.118,"225": 50.7205,"250": 31.5659,"275": 48.7897,"300": 49.0662,"325": 34.043,"350": 12.2582,"375": 3.6378,"400": 0.2029}}}