{"type":"Feature","properties":{"ISO3166-1-Alpha-3":"HUN","country":"Hungary","fill":"#F00","id":"3158","name":"Veszprém"},
"geometry":{"type": "Polygon","coordinates": [[[17.88245,47.45478,214.8683],[17.85145,47.47752,197.3521],[17.81641,47.49317,185.1993],[17.81548,47.47436,175.5819],[17.79739,47.47987,177.5376],[17.77858,47.48155,222.6772],[17.76122,47.47075,202.8534],[17.72587,47.48232,237.3823],[17.67978,47.47178,214.4802],[17.6374,47.44946,137.9651],[17.59741,47.46157,136.4148],[17.56867,47.44943,138.8424],[17.5171,47.45452,137.6125],[17.49695,47.43364,132.2767],[17.47431,47.42884,129.1898],[17.45209,47.42855,125.7854],[17.43773,47.41987,123.5107],[17.41974,47.42021,120.751],[17.40321,47.42439,123.6021],[17.36941,47.44093,129.3329],[17.3321,47.43868,123.4922],[17.295,47.43067,122.3434],[17.27691,47.43318,129.6368],[17.26823,47.42271,125.942],[17.24084,47.40806,139.8591],[17.20188,47.3984,144.7502],[17.24673,47.36068,139.0414],[17.30233,47.33422,122.3971],[17.23578,47.31386,122.0313],[17.2274,47.30797,124.5607],[17.22751,47.29303,139.5865],[17.22017,47.28161,124.8383],[17.20766,47.27303,133.0162],[17.19588,47.24828,125.1803],[17.20374,47.21996,126.1256],[17.19981,47.17182,126.718],[17.22038,47.0671,140.2919],[17.09801,47.04684,165.7181],[17.10855,47.03612,170.3254],[17.12064,47.02716,166.1839],[17.14679,47.0194,167.2118],[17.15309,47.00969,170.955],[17.14793,46.99868,147.7906],[17.13966,46.98866,156.0096],[17.13573,46.97607,171.8668],[17.14865,46.75053,158.612],[17.13583,46.68103,105.5846],[17.16663,46.64925,118.4046],[17.22038,46.66459,106.0404],[17.25862,46.71015,104.4317],[17.29923,46.73338,103.5],[17.366,46.73046,103.5],[17.40662,46.74498,103.5],[17.45829,46.74958,103.5],[17.6619,46.80882,103.5],[17.84204,46.88251,103.5],[17.8869,46.89122,143.6243],[17.92628,46.9199,103.5],[17.94984,46.93031,103.5],[17.9763,46.93496,103.5],[18.07262,46.97197,103.5],[18.12678,46.96881,103.5],[18.17711,46.9531,162.827],[18.21525,46.99357,111.6011],[18.22962,47.0425,164.0538],[18.21918,47.06793,194.591],[18.22745,47.13392,122.0248],[18.21329,47.15841,105.0702],[18.18548,47.16978,107.1453],[18.14921,47.2259,251.775],[18.10652,47.25425,416.3593],[18.09484,47.28104,444.5336],[18.10084,47.30825,281.8633],[18.1365,47.31505,197.5692],[18.10322,47.35918,199.4435],[17.98922,47.34243,256.2017],[17.96638,47.34569,278.1006],[17.95511,47.36388,230.7656],[17.94932,47.38501,269.2538],[17.91708,47.38848,252.4957],[17.87904,47.39881,193.3539],[17.88545,47.42646,215.2824],[17.88245,47.45478,214.8683]],
[[17.92514,47.01022,265.0424],[17.87965,47.0174,320.2568],[17.85093,47.0581,302.7571],[17.82459,47.0964,327.6805],[17.84374,47.12753,266.478],[17.84614,47.15386,318.4676],[17.82699,47.17062,490.5394],[17.82938,47.18738,599.7481],[17.88684,47.18977,413.4286],[17.89881,47.2209,412.9304],[17.93232,47.22808,437.9786],[17.96105,47.20653,358.9237],[17.99218,47.16344,225.6446],[18.00415,47.12035,207.937],[18.00654,47.0581,241.7975],[17.96584,47.06768,287.0178],[17.94669,47.02458,276.818],[17.92514,47.01022,265.0424]]]}}