{"type": "Feature","id": "4909","bbox": [17.82459,47.01022,18.00654,47.22808],"geometry": {"type": "Polygon","coordinates": [[[18.00654,47.0581,241.7975],[18.00415,47.12035,207.937],[17.99218,47.16344,225.6446],[17.96105,47.20653,358.9237],[17.93232,47.22808,437.9786],[17.89881,47.2209,412.9304],[17.88684,47.18977,413.4286],[17.82938,47.18738,599.7481],[17.82699,47.17062,490.5394],[17.84614,47.15386,318.4676],[17.84374,47.12753,266.478],[17.82459,47.0964,327.6805],[17.85093,47.0581,302.7571],[17.87965,47.0174,320.2568],[17.92514,47.01022,265.0424],[17.94669,47.02458,276.818],[17.96584,47.06768,287.0178],[18.00654,47.0581,241.7975]]]}
,"properties": {"ISO3166-1-Alpha-3": "HUN","country": "Hungary","fill": "#F0F","name": "Veszprém","area_km2": 226.8499,"hist_schema_id": "Elevation0-9000","hist_area_km2": {"175": 4.7311,"200": 19.4446,"225": 26.1239,"250": 34.0046,"275": 38.3648,"300": 37.6675,"325": 20.4399,"350": 13.6786,"375": 9.2549,"400": 6.7292,"425": 6.2667,"450": 2.8961,"475": 2.4063,"500": 1.7003,"525": 0.9366,"550": 0.6773,"575": 0.7781,"600": 0.4755,"625": 0.245,"650": 0.0288}}}