{"type": "Feature","bbox": [17.0992,46.7637,18.2379,47.4802],"geometry": {"type": "MultiPolygon","coordinates": [[[[17.6608,46.8203,103.5],[17.6824,46.825,103.5],[17.715,46.841,103.5],[17.7602,46.8585,103.5],[17.818,46.8692,103.5],[17.8467,46.8823,103.5],[17.8835,46.884,103.5],[17.9008,46.8899,103.5],[17.9072,46.893,103.5],[17.9116,46.901,103.5],[17.9117,46.9226,103.5],[17.9135,46.9262,103.5],[17.9203,46.9289,103.5],[17.9445,46.9333,103.5],[17.9576,46.9379,103.5],[18.0274,46.9517,103.5],[18.061,46.9712,103.5],[18.069,46.9719,103.5],[18.1472,46.9626,103.5],[18.1635,46.9624,147.3087],[18.177,46.9591,161.2172],[18.1895,46.9682,154.6146],[18.1938,46.9721,140.8829],[18.2015,46.9837,127.9135],[18.2024,47.0038,112.4848],[18.2217,47.0123,113.0283],[18.2379,47.0272,150.2184],[18.2359,47.033,178.4689],[18.2209,47.0463,168.2332],[18.2113,47.0582,173.517],[18.2057,47.0718,186.2884],[18.2036,47.0895,190.5394],[18.2177,47.0966,196.8018],[18.2204,47.1023,196.5736],[18.2186,47.1262,139.8204],[18.214,47.1365,117.0808],[18.2123,47.1604,104.9556],[18.2077,47.1714,109.4167],[18.2053,47.2243,316.9553],[18.1771,47.2332,226.5031],[18.1674,47.2435,265.1099],[18.1606,47.2565,295.5878],[18.1549,47.2605,319.192],[18.1457,47.2634,350.2081],[18.1291,47.2636,404.8965],[18.1165,47.2582,403.828],[18.0985,47.2541,428.14],[18.0874,47.2548,414.8556],[18.0765,47.2677,450.2979],[18.0736,47.2807,444.2376],[18.0501,47.2806,300.0929],[18.0496,47.2919,216.2741],[18.0458,47.2985,251.3862],[18.0457,47.3015,233.5962],[18.0481,47.3033,262.0389],[18.06,47.3049,234.8466],[18.0647,47.3134,249.734],[18.0634,47.3175,248.0473],[18.0432,47.3189,234.149],[18.0241,47.3359,247.2303],[18.0092,47.3389,252.715],[17.9996,47.3386,271.8305],[17.9818,47.3327,270.1396],[17.9588,47.3358,286.7617],[17.9573,47.3381,291.4716],[17.9566,47.3473,275.4622],[17.9543,47.3501,264.8052],[17.9285,47.3578,310.4949],[17.9303,47.3615,335.584],[17.9457,47.3661,263.0639],[17.9478,47.368899999999996,224.3741],[17.946,47.3774,246.7221],[17.9378,47.3831,252.1045],[17.9322,47.3849,234.6789],[17.9163,47.3844,210.1074],[17.8994,47.3789,284.1528],[17.8806,47.379,229.9378],[17.8692,47.3709,216.1169],[17.849,47.3663,311.3498],[17.8447,47.3612,397.3177],[17.840699999999998,47.3484,454.8401],[17.840699999999998,47.3355,353.0192],[17.8391,47.3321,326.4254],[17.8307,47.323,420.9439],[17.8234,47.3192,420.7058],[17.7883,47.3178,415.6506],[17.7869,47.3139,385.1549],[17.7889,47.2754,492.38],[17.7837,47.2732,478.9354],[17.7676,47.2739,396.9379],[17.7675,47.2851,446.3505],[17.7589,47.2975,639.2217],[17.7573,47.3138,490.3628],[17.7371,47.3199,373.6607],[17.7348,47.3267,334.9091],[17.7274,47.3364,253.1291],[17.7268,47.3426,240.3893],[17.7321,47.3506,245.5799],[17.7499,47.3577,242.2203],[17.7581,47.3662,239.3176],[17.7735,47.3775,249.7733],[17.7786,47.3851,227.7034],[17.7796,47.3953,206.0355],[17.7891,47.4031,197.5653],[17.79,47.4063,191.8395],[17.7848,47.4159,185.1011],[17.7761,47.4268,158.51],[17.7688,47.433,156.9766],[17.7582,47.4493,202.1547],[17.7483,47.459,212.1493],[17.7437,47.4613,229.5234],[17.737,47.4624,212.3911],[17.7309,47.4506,181.6064],[17.7062,47.4502,188.297],[17.7029,47.4533,193.2808],[17.7019,47.4683,176.2761],[17.7,47.4698,174.4514],[17.6945,47.47,165.0449],[17.6729,47.464,206.1693],[17.6695,47.4611,172.1275],[17.6676,47.4538,177.1667],[17.6534,47.4504,142.3651],[17.6276,47.4599,135.2971],[17.6127,47.4568,137.7401],[17.5886,47.4636,135.6],[17.5799,47.4599,139.8847],[17.5798,47.4567,143.5177],[17.5832,47.4517,142.5433],[17.5824,47.4487,144.8222],[17.5677,47.4421,148.452],[17.5532,47.4478,150.7634],[17.5374,47.4571,157.745],[17.5227,47.4623,150.5054],[17.5121,47.4547,143.6714],[17.5083,47.4481,141.3348],[17.5074,47.4406,129.028],[17.5027,47.4335,138.6959],[17.4947,47.4275,131.5032],[17.487,47.4259,131.6518],[17.4759,47.4283,130.205],[17.4605,47.4286,126.3559],[17.4547,47.431,125.9035],[17.4493,47.4379,124.8365],[17.4468,47.4512,123.1186],[17.4347,47.4609,124.5986],[17.4325,47.4783,119.5079],[17.427,47.4802,119.5117],[17.4165,47.4774,117.8988],[17.3954,47.4761,116.4998],[17.3821,47.4535,124.2988],[17.3677,47.4457,127.5594],[17.317,47.4439,120.1335],[17.2985,47.4317,121.1629],[17.293,47.4297,127.4451],[17.2567,47.4346,134.5556],[17.2152,47.4343,126.806],[17.1955,47.4412,129.9694],[17.1816,47.4361,130.2785],[17.1766,47.4321,135.3664],[17.1873,47.4211,134.1073],[17.1904,47.4051,139.7089],[17.2018,47.4,143.099],[17.2059,47.3964,141.6993],[17.2003,47.3846,145.172],[17.2012,47.3757,153.9941],[17.2042,47.3718,148.0717],[17.2257,47.3596,151.845],[17.2348,47.357,143.984],[17.2492,47.3564,141.0325],[17.2634,47.3536,131.4089],[17.282,47.3479,128.3792],[17.2922,47.3419,125.4778],[17.3024,47.3312,122.7349],[17.2999,47.3262,121.8688],[17.295,47.3234,127.1457],[17.2563,47.3224,124.8308],[17.2363,47.3154,122.0313],[17.2301,47.3063,134.9922],[17.231,47.2864,136.7688],[17.2119,47.2773,123.7879],[17.2194,47.1906,134.7479],[17.2155,47.18,139.0565],[17.2058,47.1681,130.7353],[17.2054,47.1634,131.6687],[17.2072,47.1594,133.3629],[17.218,47.1511,133.8053],[17.2255,47.1319,133.1911],[17.2342,47.122,134.3115],[17.2266,47.1096,131.9884],[17.2272,47.1049,131.6638],[17.231,47.099,133.802],[17.2304,47.0946,135.899],[17.2212,47.0893,133.3338],[17.2165,47.0769,135.4983],[17.2141,47.0755,136.428],[17.2007,47.0782,133.7598],[17.1782,47.0857,147.287],[17.1559,47.0861,149.4408],[17.1477,47.0853,151.9285],[17.1365,47.0784,165.0787],[17.1232,47.075,154.7565],[17.0992,47.0749,157.535],[17.1031,47.0535,169.5925],[17.1286,47.0371,144.9975],[17.141,47.0312,144.3511],[17.1566,47.0177,147.0479],[17.1673,47.0133,143.4232],[17.2258,47.0125,142.0814],[17.237,47.0086,138.5712],[17.2538,46.9875,148.7132],[17.2554,46.9806,144.1714],[17.2556,46.9654,145.7552],[17.2416,46.9443,151.6966],[17.2419,46.939,155.2363],[17.2478,46.9332,176.2101],[17.2602,46.9307,198.9601],[17.3025,46.9302,208.7135],[17.3196,46.9195,191.7275],[17.3212,46.9085,180.2492],[17.3332,46.9024,175.2741],[17.3369,46.8982,145.9417],[17.3388,46.8547,239.2348],[17.3444,46.8428,220.3642],[17.3514,46.8348,207.0568],[17.367,46.8266,163.4508],[17.369,46.8138,197.7715],[17.3712,46.8106,171.8717],[17.3903,46.7978,110.5189],[17.3999,46.7939,103.6647],[17.411,46.7867,103.5],[17.417,46.7802,103.5],[17.4296,46.7712,103.5],[17.4331,46.7637,103.5],[17.4929,46.766,103.5],[17.5296,46.7791,103.5],[17.5543,46.7837,103.5],[17.5829,46.7939,103.5],[17.5921,46.7957,103.5],[17.6241,46.8071,103.5],[17.6361,46.8143,103.5],[17.6443,46.8173,103.5],[17.6608,46.8203,103.5]]]]}
,"properties": {"GID_1": "HUN.19_1","GID_0": "HUN","country": "Hungary","province": "Veszprém","VARNAME_1": "NA","NL_NAME_1": "NA","TYPE_1": "Megye","ENGTYPE_1": "County","CC_1": "NA","HASC_1": "HU.VE","ISO_1": "NA","name": "Veszprém.province","area_km2": 4301.172,"hist_schema_id": "Elevation0-9000","hist_area_km2": {"100": 316.512,"125": 546.573,"150": 735.08,"175": 458.554,"200": 367.154,"225": 269.586,"250": 215.422,"275": 210.01,"300": 203.822,"325": 189.943,"350": 151.037,"375": 144.136,"400": 143.942,"425": 130.179,"450": 94.044,"475": 61.246,"500": 30.001,"525": 14.807,"550": 7.547,"575": 5.084,"600": 3.484,"625": 1.973,"650": 0.936,"675": 0.086}}}