{"type":"Feature","properties":{"GID_2":"HUN.2.9_1","GID_0":"HUN","country":"Hungary","GID_1":"HUN.2_1","province":"Baranya","NL_NAME_1":"NA","county":"Szigetvári","VARNAME_2":"NA","NL_NAME_2":"NA","TYPE_2":"Kistérség","ENGTYPE_2":"Subregion","CC_2":"NA","HASC_2":"NA","name":"Szigetvári.county"},
"geometry":{"type": "MultiPolygon","coordinates": [[[[17.9159,46.2418,177.0538],[17.8837,46.2419,147.3948],[17.8485,46.232,178.4328],[17.8283,46.2288,218.6593],[17.8088,46.2297,196.881],[17.8042,46.2341,203.0545],[17.8019,46.2393,236.2948],[17.7962,46.2407,271.2471],[17.7811,46.2372,219.6758],[17.7696,46.2306,259.0185],[17.7607,46.2282,239.6215],[17.7526,46.2304,234.8061],[17.7358,46.2385,215.8456],[17.7232,46.2522,218.9187],[17.7144,46.2533,206.1993],[17.7076,46.2511,227.0771],[17.7062,46.246,193.2484],[17.7141,46.2351,266.1378],[17.7139,46.2259,255.8057],[17.6914,46.2171,201.4386],[17.6724,46.1923,185.4885],[17.6644,46.19,186.8062],[17.6612,46.1872,174.8645],[17.6613,46.182,174.0318],[17.6649,46.1705,161.3203],[17.665,46.1381,130.8081],[17.657,46.125,160.6449],[17.6569,46.1206,162.9344],[17.661,46.1107,155.1585],[17.6564,46.0994,147.1905],[17.6382,46.0868,151.8779],[17.6176,46.0824,153.8818],[17.6149,46.08,146.6222],[17.6163,46.0572,143.8155],[17.6333,46.0398,132.2775],[17.6381,46.0327,126.9116],[17.635,46.0229,133.1311],[17.6314,46.0173,125.4464],[17.6185,46.0145,129.0793],[17.6139,46.0067,130.1395],[17.6146,46.0019,127.8548],[17.6251,45.9818,114.3541],[17.6341,45.9703,112.0581],[17.6466,45.9671,110.3321],[17.6584,45.9666,111.2684],[17.6677,45.9636,107.4499],[17.6713,45.9601,112.2178],[17.6733,45.9499,102.6936],[17.6765,45.946,103.4459],[17.6875,45.9424,106.4565],[17.707,45.942,102.6143],[17.7202,45.9284,119.971],[17.7285,45.933,106.699],[17.7409,45.9364,102.4689],[17.7577,45.9281,100.4408],[17.7667,45.926,100.1641],[17.7792,45.9305,101.6017],[17.7971,45.9319,101.2461],[17.7983,45.9346,100.8138],[17.7971,45.9459,102.3805],[17.7999,45.9494,100.7887],[17.8091,45.949,101.6057],[17.8343,45.9401,120.6159],[17.843,45.9405,116.6132],[17.8482,45.9427,108.5331],[17.8588,45.9554,100.9998],[17.8582,45.9639,100.9171],[17.8543,45.9716,112.8069],[17.8559,45.9746,101.7001],[17.8601,45.9762,102.0848],[17.8687,45.9762,102.9018],[17.8804,45.9728,99.68],[17.8849,45.9734,98.5],[17.8869,45.9762,100.3952],[17.8863,45.9882,103.5081],[17.8892,45.9924,103.872],[17.9072,45.9986,105.877],[17.9172,45.9999,107.4533],[17.9231,46.0039,109.3858],[17.9311,46.0055,109.9013],[17.935,46.0081,109.5245],[17.9504,46.031,112.5265],[17.9477,46.0333,113.6607],[17.9409,46.032,115.9895],[17.934,46.0368,119.7868],[17.9223,46.0383,122.0552],[17.9173,46.0432,124.1624],[17.9177,46.0467,126.6796],[17.9213,46.0509,129.8306],[17.9324,46.0534,124.2319],[17.9367,46.0611,123.3799],[17.9359,46.0633,127.9332],[17.9307,46.0652,139.5641],[17.9294,46.0674,153.4606],[17.9328,46.0779,170.0749],[17.9284,46.0882,205.2339],[17.9321,46.1036,225.6474],[17.9314,46.1168,228.0981],[17.9282,46.1257,182.5906],[17.9423,46.1352,201.9593],[17.9439,46.144,238.6893],[17.9459,46.146,236.0127],[17.9534,46.148,270.3562],[17.9592,46.1415,266.0894],[17.9727,46.1395,189.8726],[17.9771,46.1414,224.4511],[17.9774,46.1485,223.3906],[17.9725,46.1616,244.8857],[17.9744,46.1749,322.9],[17.9682,46.1876,221.0518],[17.9569,46.1847,236.7155],[17.953,46.1853,255.0496],[17.9436,46.1948,232.2555],[17.9359,46.2077,195.2389],[17.913,46.2172,231.2301],[17.912,46.2331,269.1908],[17.9159,46.2418,177.0538]]]]}}