{"type":"Feature","properties":{"GID_2":"HUN.14.14_1","GID_0":"HUN","country":"Hungary","GID_1":"HUN.14_1","province":"Pest","NL_NAME_1":"NA","county":"Vác","VARNAME_2":"Váci","NL_NAME_2":"NA","TYPE_2":"Kistérség","ENGTYPE_2":"Subregion","CC_2":"NA","HASC_2":"NA","name":"Vác.county"},
"geometry":{"type": "MultiPolygon","coordinates": [[[[18.9196,47.7815,261.4428],[18.9374,47.7788,376.666],[18.9608,47.7881,105.858],[18.9665,47.7983,104.1599],[18.9672,47.8085,131.1085],[18.9714,47.818,194.8064],[18.9946,47.8279,140.6175],[19.0425,47.8273,132.027],[19.0656,47.8232,207.1178],[19.0877,47.8125,135.2508],[19.1167,47.7934,115.6872],[19.1279,47.7829,117.4195],[19.1326,47.777,117.5702],[19.134,47.7721,112.6324],[19.1344,47.7447,102.1361],[19.1304,47.7343,99.0],[19.1313,47.7265,99.7244],[19.1499,47.7201,111.9466],[19.167,47.699,116.3725],[19.1856,47.6905,131.2761],[19.1933,47.6854,135.1843],[19.2221,47.7207,122.0845],[19.221,47.7245,139.1564],[19.2099,47.7338,144.5657],[19.2103,47.7379,174.0446],[19.2141,47.7447,142.5394],[19.2168,47.7462,147.9235],[19.2358,47.7428,171.7311],[19.2449,47.7378,194.123],[19.2493,47.733,175.1357],[19.2496,47.7204,144.1976],[19.251,47.7171,139.5246],[19.2764,47.7033,177.8612],[19.2821,47.7039,164.2392],[19.2908,47.7119,217.9458],[19.3023,47.7161,206.9186],[19.3257,47.7177,202.0253],[19.3313,47.721,170.9867],[19.3364,47.7266,252.9481],[19.342,47.7283,239.4044],[19.3585,47.7277,190.7578],[19.3682,47.7179,166.0422],[19.3776,47.7146,137.855],[19.3826,47.7145,143.2099],[19.3949,47.7176,206.6948],[19.3993,47.7222,199.6861],[19.4015,47.728,180.8554],[19.4088,47.7379,198.7235],[19.4096,47.7676,258.3044],[19.4132,47.7706,276.6659],[19.4235,47.7735,246.0959],[19.4223,47.78,222.2185],[19.4232,47.7855,212.4316],[19.4347,47.7974,255.6641],[19.4425,47.8086,211.1376],[19.4357,47.8178,226.054],[19.4125,47.8171,254.4489],[19.396,47.8224,170.5297],[19.3668,47.8227,179.9079],[19.3249,47.8337,274.0373],[19.3123,47.8334,261.3345],[19.2882,47.8283,300.6158],[19.2261,47.8288,311.8011],[19.2219,47.8305,303.0519],[19.2123,47.8406,258.7502],[19.199,47.8482,300.4327],[19.1585,47.8497,265.2625],[19.1272,47.8558,313.0897],[19.1056,47.8558,223.7401],[19.0958,47.853,251.7023],[19.0828,47.8463,279.2758],[19.0729,47.8462,306.5525],[19.0696,47.8489,283.8518],[19.0684,47.8616,195.9835],[19.0515,47.8641,312.7189],[19.04,47.8681,319.9514],[19.0373,47.8717,330.912],[19.0358,47.8833,232.4475],[19.0238,47.8938,294.302],[18.9942,47.9042,307.6393],[18.9821,47.9118,322.5181],[18.9721,47.9225,440.7505],[18.955,47.9282,617.7761],[18.9452,47.9336,760.246],[18.9383,47.942,868.5192],[18.9134,47.9414,663.4107],[18.9053,47.9401,601.4542],[18.903,47.9368,666.189],[18.9124,47.9148,657.2155],[18.9105,47.9005,483.0746],[18.9274,47.8974,409.4858],[18.9302,47.8858,317.9389],[18.9395,47.8685,294.2342],[18.9385,47.8662,292.1062],[18.936,47.8652,281.1032],[18.9092,47.8646,300.5403],[18.9065,47.8629,269.5274],[18.9035,47.8569,228.0642],[18.9042,47.8424,236.8367],[18.9057,47.8395,247.5656],[18.9291,47.8381,224.1274],[18.9275,47.8278,176.054],[18.9359,47.8114,284.3652],[18.9341,47.8091,283.6379],[18.9239,47.8059,170.8636],[18.9063,47.8026,112.6863],[18.9095,47.7838,101.0],[18.9129,47.7818,120.5215],[18.9196,47.7815,261.4428]]]]}}