{"type":"Feature","properties":{"featurecla":"River","scalerank":7,"rivernum":602,"dissolve":"602River","name":"Sio1","name_alt":null,"note":null,"min_zoom":6.0,"strokeweig":0.25,"name_en":"Sio","min_label":7.0},
"geometry":{"type": "LineString","coordinates": [[18.561669921875023,46.754169012494117,98.7643],[18.579736328125023,46.752948309369117,96.4162],[18.596435546875,46.74738190311912,96.3386],[18.612060546875,46.735956121869116,94.5391],[18.6259765625,46.717303778119117,95.0356],[18.63232421875,46.69586823124412,95.4532],[18.629150390625,46.67706940311912,94.6797],[18.622705078125023,46.65875885624412,94.5469],[18.6162109375,46.622333074994117,94.1788],[18.602685546875023,46.585467840619117,93.5227],[18.5986328125,46.56647369999412,92.0387],[18.598876953125,46.54523346561912,91.8024],[18.604248046875,46.52313873905662,108.405],[18.6162109375,46.505877996869117,93.2841],[18.63623046875,46.49884674686912,93.94],[18.6484375,46.48883698124412,93.9165],[18.652099609375,46.46649811405662,93.4696],[18.653222656250023,46.42987702030662,90.6784],[18.646484375,46.42743561405662,90.2167],[18.639794921875023,46.42243073124412,90.7448],[18.634765625,46.415301824994117,90.7886],[18.6328125,46.406024481244117,90.0723],[18.6357421875,46.39801666874412,90.7466],[18.64306640625,46.39545319218162,92.5406],[18.663476562500023,46.39642975468162,89.8396],[18.738671875000023,46.38214752811912,91.9534],[18.743408203125,46.379266668744116,90.9803],[18.76123046875,46.36566803593162,94.1862],[18.769287109375,46.36102936405662,102.0197],[18.803466796875,46.36102936405662,96.0292],[18.803466796875,46.359247137494116,103.0281],[18.807373046875,46.35492584843162,96.7589],[18.812890625000023,46.350458074994116,101.951],[18.817626953125,46.34796784061912,95.9273],[18.817626953125,46.350458074994116,114.101],[18.822412109375023,46.35492584843162,94.8639],[18.828125,46.35919830936912,108.3195],[18.831445312500023,46.36102936405662,99.0994],[18.840478515625023,46.35895416874412,89.8813],[18.847070312500023,46.356317449994116,89.2028],[18.850976562500023,46.35114166874412,89.0215],[18.851953125000023,46.34113190311912,106.8458],[18.864501953125,46.34577057499412,88.7239],[18.8779296875,46.34772369999412,88.8126],[18.906494140625,46.34796784061912,88.5583]]}}