{"type":"Feature","properties":{"GID_2":"HUN.3.4_1","GID_0":"HUN","country":"Hungary","GID_1":"HUN.3_1","province":"Békés","NL_NAME_1":"NA","county":"Mezőkovácsház","VARNAME_2":"NA","NL_NAME_2":"NA","TYPE_2":"Kistérség","ENGTYPE_2":"Subregion","CC_2":"NA","HASC_2":"NA","name":"Mezőkovácsház.county"},
"geometry":{"type": "MultiPolygon","coordinates": [[[[20.9108,46.5763,94.6747],[20.9092,46.5702,93.0409],[20.9087,46.5488,92.3675],[20.9046,46.5398,94.2958],[20.9038,46.5241,94.0058],[20.8984,46.5158,93.7202],[20.8805,46.5106,93.1346],[20.8788,46.5084,93.7075],[20.878,46.5015,94.1529],[20.8745,46.4996,94.713],[20.8641,46.5002,94.439],[20.839,46.5068,93.4372],[20.8337,46.5064,93.9763],[20.8288,46.5007,93.9378],[20.8281,46.4872,93.3461],[20.8267,46.4839,93.0821],[20.7981,46.4706,92.5537],[20.7914,46.4659,92.6474],[20.7869,46.4597,92.5905],[20.7869,46.4571,92.6463],[20.7997,46.4339,93.3916],[20.7996,46.4295,93.9818],[20.8051,46.42,93.6919],[20.8053,46.4094,95.6327],[20.8043,46.4066,95.6963],[20.7874,46.3878,94.5149],[20.773,46.3821,95.1327],[20.7633,46.3728,95.1209],[20.7587,46.3657,94.2997],[20.7568,46.3514,94.3405],[20.748,46.3293,92.9288],[20.7466,46.3093,92.1457],[20.7472,46.3025,91.8453],[20.7551,46.288,92.9138],[20.7606,46.2831,94.3447],[20.7745,46.2778,102.9686],[20.7765,46.2757,94.6158],[20.7908,46.2734,96.1412],[20.875,46.2878,101.6448],[20.8921,46.2717,102.5297],[20.9238,46.2621,105.0283],[20.9267,46.2765,103.6588],[20.9483,46.2795,103.1384],[20.9541,46.2652,104.54],[20.9679,46.2619,105.0907],[20.9919,46.2599,104.6683],[21.0175,46.2636,102.3729],[21.0266,46.2668,100.7978],[21.0383,46.2482,102.8912],[21.0676,46.2431,101.769],[21.0728,46.2542,100.2114],[21.0814,46.2524,100.667],[21.0842,46.2567,100.3533],[21.0882,46.2554,100.3896],[21.0886,46.2595,100.4409],[21.0925,46.2585,101.3553],[21.096,46.2627,100.6418],[21.1019,46.2643,102.5946],[21.1048,46.2629,101.3104],[21.1107,46.2784,100.229],[21.1171,46.302,101.4618],[21.1242,46.3012,101.2838],[21.147,46.305,101.8981],[21.1492,46.2996,102.4677],[21.1531,46.2979,100.9808],[21.1697,46.2982,101.1843],[21.176,46.3006,101.4087],[21.1773,46.3033,102.1872],[21.1821,46.3044,102.0461],[21.1747,46.3187,102.2317],[21.1791,46.3238,101.8369],[21.1774,46.3299,100.9914],[21.1803,46.3308,100.1879],[21.1778,46.3359,99.7141],[21.192,46.3395,100.4969],[21.2011,46.3482,101.6298],[21.1981,46.3712,100.4957],[21.2079,46.4036,100.5312],[21.2179,46.4022,100.5787],[21.2208,46.4115,101.0276],[21.2195,46.4133,101.0055],[21.2156,46.4086,100.6899],[21.2052,46.4209,114.2084],[21.1982,46.4388,97.1942],[21.1833,46.449,96.9622],[21.1823,46.4611,98.2951],[21.179,46.4694,97.6345],[21.1812,46.4771,96.3176],[21.1803,46.4793,96.1236],[21.1764,46.481,96.684],[21.1552,46.4829,96.3191],[21.1521,46.495,94.3582],[21.1342,46.5079,94.375],[21.1331,46.5262,94.6335],[21.1256,46.5375,91.1354],[21.1197,46.5396,91.0746],[21.1041,46.54,93.4016],[21.0855,46.5323,95.3611],[21.0698,46.5351,95.9063],[21.0674,46.5334,94.0483],[21.0655,46.528,96.1328],[21.0609,46.527,95.2485],[21.0287,46.5285,94.1932],[21.0019,46.535,95.4756],[20.9792,46.5362,99.3009],[20.9756,46.5385,96.4501],[20.97,46.5599,93.296],[20.9452,46.5663,94.2277],[20.928,46.5681,93.0663],[20.9261,46.5704,93.4641],[20.9257,46.5771,92.6431],[20.9233,46.5791,92.0557],[20.9179,46.5791,91.8556],[20.9108,46.5763,94.6747]]]]}}