{"type": "Feature","bbox": [19.5418,46.5298,20.0346,46.8556],"geometry": {"type": "MultiPolygon","coordinates": [[[[19.5418,46.6781,114.9167],[19.5532,46.6567,135.1173],[19.5547,46.6458,115.3489],[19.5626,46.6345,113.0787],[19.5769,46.6212,114.5319],[19.5922,46.6103,116.5646],[19.6003,46.6001,117.0629],[19.6222,46.6073,113.01],[19.6266,46.6127,110.7662],[19.6285,46.6214,118.5445],[19.6317,46.6235,119.561],[19.6351,46.6233,114.6804],[19.6472,46.6106,111.5441],[19.6656,46.6006,109.549],[19.6759,46.5879,111.7886],[19.7006,46.5792,109.501],[19.7182,46.5703,105.8393],[19.7287,46.5633,115.3086],[19.7383,46.554,117.1895],[19.7542,46.5512,104.9293],[19.776,46.5298,108.6325],[19.7867,46.5378,105.0004],[19.8005,46.5448,103.9673],[19.829,46.5557,103.4073],[19.8579,46.57,92.1632],[19.8759,46.5767,90.8461],[19.8934,46.577,90.6532],[19.9298,46.5591,97.6165],[19.9394,46.5567,89.7614],[19.9425,46.5587,89.185],[19.9494,46.5687,90.5413],[19.974,46.5858,86.7152],[19.9852,46.597,88.2075],[19.9854,46.628,85.9007],[19.9771,46.6419,83.0],[19.9766,46.6598,84.6205],[19.9778,46.6639,84.7969],[19.9937,46.6847,85.5538],[19.9944,46.7078,86.3758],[19.9912,46.7119,87.0743],[19.9687,46.7213,86.8627],[19.9592,46.733,88.3864],[19.9591,46.7362,88.083],[19.9618,46.7392,88.052],[19.9927,46.7577,89.075],[20.0093,46.7704,93.4198],[20.0346,46.7962,80.9136],[20.0198,46.8086,81.3404],[20.0032,46.8148,82.6865],[20.0143,46.8333,81.6501],[20.0089,46.8427,83.2408],[20.0079,46.8518,82.7477],[19.9999,46.8552,85.1834],[19.9948,46.8548,83.2776],[19.9816,46.8484,97.7713],[19.9626,46.8552,106.9447],[19.9504,46.8556,108.615],[19.9445,46.8542,103.429],[19.9251,46.8336,99.9479],[19.9007,46.8184,98.0338],[19.8975,46.8096,99.5032],[19.8946,46.8082,97.3887],[19.8744,46.8137,99.2198],[19.8295,46.8332,104.4843],[19.8207,46.8301,102.6225],[19.791,46.811,102.7418],[19.7738,46.7868,106.3728],[19.7721,46.7787,109.1656],[19.7689,46.7756,108.4808],[19.7618,46.7761,108.124],[19.7533,46.7849,110.0668],[19.7408,46.7938,112.8264],[19.7362,46.7962,112.368],[19.7316,46.7964,113.2266],[19.7286,46.7951,111.1065],[19.7223,46.7868,110.4646],[19.7076,46.7785,121.4465],[19.6969,46.7683,115.3152],[19.6843,46.7653,121.3847],[19.6827,46.761,110.317],[19.6831,46.7504,114.4842],[19.6975,46.7178,124.3926],[19.6958,46.7147,115.2414],[19.6505,46.6996,111.8844],[19.6311,46.7088,110.1972],[19.6185,46.7169,119.1639],[19.6088,46.7203,116.6181],[19.5996,46.723,114.4506],[19.5707,46.7254,114.3532],[19.5646,46.7196,108.6322],[19.5498,46.6885,110.7942],[19.5418,46.6781,114.9167]]]]}
,"properties": {"GID_2": "HUN.1.7_1","GID_0": "HUN","country": "Hungary","GID_1": "HUN.1_1","province": "Bács-Kiskun","NL_NAME_1": "NA","county": "Kiskunfélegyház","VARNAME_2": "Kiskunfélegyházi","NL_NAME_2": "NA","TYPE_2": "Kistérség","ENGTYPE_2": "Subregion","CC_2": "NA","HASC_2": "NA","name": "Kiskunfélegyház.county","area_km2": 771.1751,"hist_schema_id": "Elevation0-9000","hist_area_km2": {"75": 51.1769,"100": 616.8326,"125": 103.0784,"150": 0.0873}}}