{"type":"Feature","properties":{"ISO3166-1-Alpha-3":"HUN","country":"Hungary","fill":"#00F","id":"4907","name":"Érd"},
"geometry":{"type": "Polygon","coordinates": [[[18.95546,47.4045,138.0025],[18.92468,47.42845,217.2669],[18.8913,47.4422,171.7318],[18.86382,47.46183,198.6008],[18.83829,47.45398,272.2964],[18.84418,47.4206,247.4969],[18.86185,47.38722,132.1993],[18.81939,47.35628,127.0815],[18.84829,47.33238,130.1012],[18.85614,47.31794,148.9761],[18.86834,47.30709,149.4626],[18.90275,47.30375,134.4363],[18.92861,47.31851,102.116],[18.94235,47.34403,159.1433],[18.94895,47.36925,100.838],[18.95546,47.4045,138.0025]]]}}