{"type":"Feature","properties":{"GID_2":"HUN.14.5_1","GID_0":"HUN","country":"Hungary","GID_1":"HUN.14_1","province":"Pest","NL_NAME_1":"NA","county":"Érd","VARNAME_2":"Érdi","NL_NAME_2":"NA","TYPE_2":"Kistérség","ENGTYPE_2":"Subregion","CC_2":"NA","HASC_2":"NA","name":"Érd.county"},
"geometry":{"type": "MultiPolygon","coordinates": [[[[18.9418,47.4935,295.7017],[18.9361,47.4873,287.6784],[18.9239,47.4786,180.8423],[18.9071,47.4735,180.1855],[18.8863,47.4806,233.7369],[18.8641,47.4808,231.0968],[18.8587,47.4841,253.0631],[18.8539,47.4899,314.3339],[18.8474,47.4914,306.6841],[18.8139,47.4892,174.4694],[18.8032,47.4809,143.8522],[18.7843,47.477,127.59],[18.7651,47.4849,131.1386],[18.7572,47.4932,136.7214],[18.7569,47.4965,153.9752],[18.7607,47.5017,136.6062],[18.7682,47.5068,145.7208],[18.7674,47.5097,152.4791],[18.7452,47.5133,165.5466],[18.7361,47.5087,161.2345],[18.7264,47.4985,154.9206],[18.7223,47.4914,168.304],[18.7524,47.4811,170.6082],[18.7607,47.4762,146.6051],[18.7722,47.4623,172.0236],[18.7776,47.4518,173.0468],[18.7777,47.4247,180.3276],[18.7699,47.4156,166.885],[18.7529,47.4094,226.0497],[18.7494,47.4057,209.5264],[18.7498,47.3988,177.9636],[18.7548,47.3904,183.1852],[18.7612,47.383,183.9776],[18.7854,47.367,173.0834],[18.7943,47.3586,171.9655],[18.825,47.3385,136.3505],[18.8367,47.3278,138.447],[18.8466,47.3152,150.2065],[18.8488,47.3032,150.6101],[18.8614,47.2983,148.4169],[18.865,47.2953,146.2558],[18.8663,47.2801,145.629],[18.8687,47.2769,142.6873],[18.8931,47.2762,147.7797],[18.905,47.2734,149.1385],[18.9116,47.2849,129.3191],[18.9205,47.3075,101.0274],[18.928,47.3187,100.3802],[18.9379,47.3277,106.1666],[18.9363,47.3561,110.2865],[18.9467,47.3708,97.9316],[18.9324,47.3809,106.1114],[18.9466,47.3967,107.6946],[18.9406,47.4074,135.6709],[18.9409,47.4196,207.5348],[18.9449,47.4237,216.234],[18.9583,47.4285,218.1177],[18.9623,47.4315,212.6085],[18.9644,47.4544,126.2074],[18.9757,47.4657,172.6093],[18.9621,47.4862,433.5894],[18.9565,47.4896,440.3324],[18.9418,47.4935,295.7017]]]]}}