{"type":"Feature","properties":{"GID_2":"HUN.18.2_1","GID_0":"HUN","country":"Hungary","GID_1":"HUN.18_1","province":"Vas","NL_NAME_1":"NA","county":"Csepreg","VARNAME_2":"Csepregi","NL_NAME_2":"NA","TYPE_2":"Kistérség","ENGTYPE_2":"Subregion","CC_2":"NA","HASC_2":"NA","name":"Csepreg.county"},
"geometry":{"type": "MultiPolygon","coordinates": [[[[16.6457,47.4229,248.2223],[16.6435,47.416,236.652],[16.6456,47.3997,272.6858],[16.6426,47.3945,271.8433],[16.6272,47.3897,299.8486],[16.6266,47.3867,303.7835],[16.6298,47.3828,292.2851],[16.6288,47.3808,293.4573],[16.6106,47.3766,302.8754],[16.608,47.374,303.1518],[16.6186,47.3688,285.8904],[16.6363,47.3532,264.643],[16.6434,47.3495,255.9331],[16.6487,47.3426,248.5655],[16.6734,47.3317,235.9815],[16.6741,47.3387,240.3565],[16.6831,47.3492,245.0684],[16.7032,47.3546,225.0486],[16.7084,47.3537,235.697],[16.7216,47.3475,230.3071],[16.7489,47.3442,216.2324],[16.7553,47.3376,223.1607],[16.7617,47.3352,219.6414],[16.7871,47.3306,203.7587],[16.8213,47.3447,187.9681],[16.829,47.3428,182.9965],[16.8364,47.3363,166.9266],[16.8406,47.3347,169.2634],[16.8627,47.3378,154.429],[16.8655,47.3363,155.5299],[16.8769,47.3226,157.828],[16.8883,47.3196,157.7791],[16.8935,47.3265,165.6117],[16.8927,47.3418,154.318],[16.9077,47.352,158.1977],[16.8983,47.3638,155.2775],[16.8986,47.3711,154.2917],[16.9096,47.3761,149.2599],[16.9212,47.378,148.1357],[16.9271,47.3822,149.2487],[16.9337,47.3841,153.6755],[16.9385,47.3913,146.358],[16.9498,47.3992,144.3185],[16.929,47.4042,149.1526],[16.9183,47.4126,153.1838],[16.9066,47.4162,155.5628],[16.8743,47.4168,176.7355],[16.851,47.4378,172.957],[16.8418,47.4428,175.4787],[16.8308,47.4457,176.6604],[16.8254,47.4442,175.353],[16.8189,47.4354,166.7432],[16.8147,47.4339,169.733],[16.8063,47.4341,176.2714],[16.7885,47.4386,172.3782],[16.7575,47.4372,191.0534],[16.7349,47.4262,186.5768],[16.7116,47.4206,183.8356],[16.6979,47.4129,182.9826],[16.6457,47.4229,248.2223]]]]}}