{"type": "Feature","bbox": [22.1014,47.7413,22.5658,48.0808],"geometry": {"type": "MultiPolygon","coordinates": [[[[22.1193,47.9218,154.3813],[22.1263,47.9145,143.7568],[22.1336,47.9127,142.2832],[22.1374,47.9142,142.3229],[22.1429,47.9229,142.2308],[22.1506,47.9259,142.5036],[22.1628,47.9286,145.5477],[22.1846,47.9269,144.3168],[22.1861,47.9245,145.653],[22.1866,47.9125,146.5735],[22.197,47.9095,143.4653],[22.1994,47.9067,144.7092],[22.1995,47.8767,147.0002],[22.1951,47.867,146.9662],[22.1965,47.8593,151.5874],[22.204,47.8561,156.765],[22.2138,47.8576,146.0201],[22.2255,47.8541,143.5824],[22.2446,47.8468,142.7699],[22.2562,47.8374,141.5951],[22.2835,47.8463,137.0694],[22.2982,47.8452,135.7747],[22.3105,47.8296,129.9221],[22.326,47.8296,125.8318],[22.3355,47.826,124.4259],[22.340699999999998,47.8208,121.6016],[22.3334,47.81,123.0303],[22.3341,47.8038,127.832],[22.3274,47.7914,128.7904],[22.3274,47.788,126.9767],[22.3303,47.7823,123.7138],[22.3305,47.776,130.0084],[22.3291,47.7706,129.7935],[22.3259,47.7671,127.6725],[22.3347,47.764,128.4346],[22.347,47.7553,124.4061],[22.3479,47.7532,125.669],[22.3584,47.7493,124.3865],[22.3883,47.7456,117.1037],[22.398,47.748,116.1544],[22.412,47.747,116.7985],[22.4131,47.7427,118.2139],[22.4318,47.7413,118.6852],[22.4315,47.7455,118.2613],[22.4288,47.7472,118.1554],[22.4296,47.7499,118.1402],[22.4274,47.7504,117.972],[22.4287,47.7548,117.1567],[22.4342,47.7623,115.0704],[22.4426,47.7921,112.0882],[22.4496,47.8034,112.9955],[22.4687,47.8054,113.7648],[22.4832,47.8112,111.9826],[22.4901,47.8062,111.8245],[22.5104,47.7968,112.3652],[22.4805,47.8186,111.4933],[22.4806,47.8222,112.1356],[22.4625,47.8347,111.6002],[22.4642,47.8839,111.9877],[22.472,47.8921,111.5434],[22.4778,47.9031,112.1239],[22.4818,47.9049,112.056],[22.4992,47.9004,112.8815],[22.5397,47.9151,114.307],[22.5513,47.9102,114.4107],[22.5581,47.9096,114.8797],[22.5631,47.9123,115.5543],[22.5658,47.9186,118.4316],[22.5569,47.9213,116.2813],[22.5509,47.9283,114.8106],[22.541,47.9336,116.6301],[22.523,47.9359,115.2782],[22.5156,47.9421,116.9532],[22.5082,47.943,112.7581],[22.4962,47.9588,114.2484],[22.483,47.9651,113.247],[22.4785,47.9649,113.7693],[22.4684,47.9594,111.7618],[22.4489,47.9537,110.2438],[22.4243,47.9611,111.3522],[22.4118,47.9618,110.7751],[22.4061,47.9704,110.0411],[22.4073,47.9917,110.3517],[22.4123,47.9935,109.7869],[22.4302,47.9928,110.3862],[22.4336,47.9946,110.522],[22.4307,48.0008,110.8829],[22.4302,48.0117,106.9673],[22.4249,48.0219,112.3704],[22.4046,48.028,110.5423],[22.3987,48.0314,110.9186],[22.3882,48.042,108.0194],[22.3856,48.0484,109.4157],[22.3802,48.0552,111.1836],[22.3745,48.0569,113.1386],[22.3644,48.056,110.5272],[22.3606,48.0574,109.6919],[22.3574,48.0601,110.4702],[22.3564,48.0636,110.2788],[22.3581,48.0701,111.1051],[22.3502,48.076,111.194],[22.3458,48.077,109.9145],[22.3377,48.0753,111.3746],[22.314,48.0664,115.1061],[22.2929,48.0794,123.889],[22.2867,48.0808,127.7299],[22.2543,48.0767,126.3953],[22.2542,48.0626,132.1948],[22.2579,48.0556,131.638],[22.2581,48.0495,129.8279],[22.2503,48.0394,132.5861],[22.248,48.0326,134.8668],[22.2378,48.0309,136.0075],[22.2323,48.0266,140.9792],[22.2159,48.0246,137.6423],[22.1914,48.0283,137.6528],[22.1801,48.0322,136.4955],[22.1677,48.0396,133.7558],[22.1624,48.0408,133.2105],[22.1538,48.0405,131.2193],[22.1418,48.0338,133.9242],[22.1401,48.0314,130.9076],[22.1399,48.0182,133.7354],[22.138,48.0149,137.108],[22.1136,48.0017,138.6746],[22.1141,47.998,138.2516],[22.1208,47.993899999999996,138.504],[22.1225,47.9899,135.1209],[22.1216,47.9852,138.09],[22.1141,47.9751,140.1954],[22.1172,47.9653,139.8172],[22.1142,47.9631,139.4009],[22.1047,47.9618,149.9408],[22.1014,47.959,146.6343],[22.1028,47.9541,148.5579],[22.1014,47.9504,145.231],[22.1018,47.9458,150.0533],[22.1069,47.9364,145.2036],[22.1193,47.9218,154.3813]]]]}
,"properties": {"GID_2": "HUN.16.6_1","GID_0": "HUN","country": "Hungary","GID_1": "HUN.16_1","province": "Szabolcs-Szatmár-Bereg","NL_NAME_1": "NA","county": "Mátészalka","VARNAME_2": "Mátészalkai","NL_NAME_2": "NA","TYPE_2": "Kistérség","ENGTYPE_2": "Subregion","CC_2": "NA","HASC_2": "NA","name": "Mátészalka.county","area_km2": 629.1216,"hist_schema_id": "Elevation0-9000","hist_area_km2": {"100": 163.4254,"125": 285.5778,"150": 180.1042,"175": 0.0142}}}