{"type": "Feature","bbox": [17.6141,45.7478,18.8516,46.4192],"geometry": {"type": "MultiPolygon","coordinates": [[[[17.9905,45.8003,99.4044],[18.0051,45.784,94.4518],[18.0345,45.7754,95.6038],[18.0807,45.7719,92.7101],[18.1106,45.787,92.5976],[18.1365,45.7961,91.9365],[18.1597,45.7869,92.2257],[18.1934,45.7907,91.8427],[18.2085,45.7904,93.3488],[18.2211,45.7821,110.7564],[18.2334,45.7649,93.7587],[18.2953,45.7607,93.8244],[18.3322,45.7539,91.8826],[18.3468,45.7593,89.895],[18.3597,45.7698,89.3438],[18.3821,45.7678,89.5669],[18.3963,45.7578,89.0682],[18.4024,45.7492,88.6893],[18.4216,45.7478,88.615],[18.4421,45.7527,88.5663],[18.463,45.7591,89.9798],[18.4855,45.7906,97.1266],[18.4962,45.7951,92.8832],[18.5218,45.7826,90.628],[18.5462,45.7916,92.2629],[18.5566,45.8002,94.3632],[18.5746,45.8022,93.8533],[18.5561,45.8071,96.0736],[18.5946,45.8248,98.1565],[18.6041,45.8378,102.3042],[18.6121,45.8523,109.2391],[18.6166,45.8678,118.4166],[18.6233,45.8773,122.7444],[18.6357,45.8733,115.6013],[18.653,45.8972,89.6507],[18.6588,45.9014,91.4716],[18.7043,45.9106,85.5458],[18.7237,45.9086,94.6881],[18.7486,45.9019,86.7276],[18.7921,45.8807,83.9707],[18.8036,45.887,88.159],[18.8042,45.9002,91.968],[18.8062,45.9032,101.2767],[18.8025,45.902,101.8298],[18.8049,45.9107,92.4232],[18.8046,45.9164,81.5],[18.8024,45.9192,81.5],[18.7888,45.9259,81.5],[18.7862,45.9299,102.5098],[18.7895,45.9324,97.0484],[18.8162,45.9391,95.1466],[18.8239,45.9429,112.8343],[18.8239,45.9495,90.5109],[18.817,45.9577,95.692],[18.8246,45.9817,83.5054],[18.8368,46.003,84.1362],[18.85,46.0164,84.5386],[18.8516,46.0203,84.5316],[18.8446,46.0295,85.4874],[18.8309,46.0377,90.2579],[18.7931,46.0261,84.1282],[18.7412,46.0249,85.074],[18.7322,46.027,84.9843],[18.7267,46.0352,85.7613],[18.7268,46.0472,92.6726],[18.7301,46.0503,92.5198],[18.7436,46.0555,85.1035],[18.7495,46.0627,84.5563],[18.7508,46.0819,138.6357],[18.7552,46.0892,133.7536],[18.759,46.0919,108.9118],[18.7853,46.1019,82.0],[18.7573,46.1124,139.7366],[18.7294,46.1133,143.2849],[18.7148,46.1201,142.4192],[18.7051,46.1289,148.3006],[18.6793,46.1365,174.8428],[18.6672,46.1474,177.3586],[18.6448,46.16,193.2711],[18.6339,46.1705,238.821],[18.6188,46.178,252.3017],[18.611,46.188,286.4567],[18.5892,46.1889,277.6725],[18.58,46.1932,258.8714],[18.5696,46.2015,258.5872],[18.5606,46.2193,167.2366],[18.5394,46.2245,193.573],[18.5306,46.2333,256.2145],[18.5295,46.2393,218.9608],[18.5364,46.2573,145.5927],[18.5359,46.2679,117.9123],[18.5258,46.2792,144.7162],[18.5111,46.2917,151.2289],[18.496,46.2951,156.662],[18.4758,46.2945,161.3945],[18.4737,46.2902,149.0425],[18.4755,46.2628,208.5899],[18.4744,46.2592,178.778],[18.4715,46.2563,171.8146],[18.4499,46.2469,226.6938],[18.4424,46.2384,318.6758],[18.4145,46.2282,376.2848],[18.398,46.2173,381.4522],[18.3823,46.2164,504.7654],[18.375,46.2192,488.6773],[18.3706,46.2256,445.212],[18.3738,46.2311,497.2607],[18.3779,46.2337,440.1079],[18.3949,46.2385,393.5344],[18.4065,46.2483,332.9304],[18.4078,46.2519,298.6309],[18.4074,46.2633,248.7637],[18.4172,46.2736,148.1378],[18.4172,46.2835,159.9129],[18.4148,46.2865,162.864],[18.4105,46.288,164.9141],[18.3846,46.2881,172.0598],[18.378,46.2917,174.4775],[18.372,46.2988,153.359],[18.3703,46.3102,184.847],[18.3764,46.3211,204.4317],[18.3771,46.3317,217.1533],[18.3834,46.3389,234.1928],[18.3831,46.3482,224.5639],[18.3749,46.3548,187.9516],[18.3476,46.363,219.2824],[18.3393,46.3704,217.4033],[18.3344,46.3763,239.5842],[18.3331,46.3827,210.5582],[18.34,46.394,240.8469],[18.3404,46.3975,236.5088],[18.3268,46.4132,253.7532],[18.3123,46.4192,266.8301],[18.2961,46.4127,272.9469],[18.2701,46.4124,242.9915],[18.253,46.4074,121.5098],[18.1893,46.4082,110.5867],[18.1758,46.4056,124.105],[18.173,46.4042,125.8168],[18.1721,46.4008,116.5274],[18.1734,46.3892,113.2925],[18.1806,46.3812,116.3476],[18.1831,46.3685,125.7404],[18.2023,46.3602,127.3771],[18.2034,46.3433,157.4101],[18.1989,46.3412,163.0278],[18.1758,46.3413,152.3981],[18.1647,46.3336,149.211],[18.1396,46.3283,118.9136],[18.1256,46.3276,135.5327],[18.1088,46.3246,167.6475],[18.1071,46.3208,169.2163],[18.1085,46.3141,137.1981],[18.1281,46.3024,133.1853],[18.1298,46.2973,120.4674],[18.1274,46.2936,122.1625],[18.1094,46.2945,160.3967],[18.1052,46.2991,172.9693],[18.1019,46.306,179.4042],[18.0907,46.3108,150.7054],[18.0453,46.3119,172.0682],[18.0327,46.3095,238.0818],[18.0147,46.3097,270.4456],[18.0097,46.3112,212.8489],[18.002,46.3177,182.1841],[17.9766,46.3216,234.2538],[17.9592,46.3165,191.1426],[17.9358,46.3158,248.877],[17.9273,46.31,229.9258],[17.9231,46.301,251.2977],[17.9237,46.255,262.6626],[17.9159,46.2418,177.0538],[17.8837,46.2419,147.3948],[17.8485,46.232,178.4328],[17.8283,46.2288,218.6593],[17.8088,46.2297,196.881],[17.8042,46.2341,203.0545],[17.8019,46.2393,236.2948],[17.7962,46.2407,271.2471],[17.7811,46.2372,219.6758],[17.7696,46.2306,259.0185],[17.7607,46.2282,239.6215],[17.7526,46.2304,234.8061],[17.7358,46.2385,215.8456],[17.7232,46.2522,218.9187],[17.7164,46.2533,197.9433],[17.7089,46.252,222.1476],[17.7063,46.2494,205.9087],[17.7062,46.246,193.2484],[17.7141,46.2351,266.1378],[17.7139,46.2259,255.8057],[17.6914,46.2171,201.4386],[17.6724,46.1923,185.4885],[17.6644,46.19,186.8062],[17.6612,46.1872,174.8645],[17.6613,46.182,174.0318],[17.6649,46.1705,161.3203],[17.665,46.1381,130.8081],[17.657,46.125,160.6449],[17.6569,46.1206,162.9344],[17.661,46.1107,155.1585],[17.6564,46.0994,147.1905],[17.6382,46.0868,151.8779],[17.6176,46.0824,153.8818],[17.6149,46.08,146.6222],[17.6163,46.0572,143.8155],[17.6333,46.0398,132.2775],[17.6383,46.0312,123.2077],[17.6314,46.0173,125.4464],[17.6185,46.0145,129.0793],[17.6141,46.0075,129.7906],[17.6146,46.0019,127.8548],[17.6251,45.9818,114.3541],[17.6347,45.9698,112.0581],[17.6466,45.9671,110.3321],[17.6584,45.9666,111.2684],[17.6691,45.9627,125.6082],[17.6713,45.9601,112.2178],[17.6741,45.9483,102.8299],[17.678,45.9452,102.7428],[17.6875,45.9424,106.4565],[17.7021,45.9428,103.0825],[17.7085,45.9411,102.7162],[17.7288,45.9177,114.5234],[17.7311,45.9102,104.5414],[17.7345,45.8866,101.9245],[17.7316,45.881,106.4065],[17.7203,45.8736,115.5319],[17.7105,45.8694,118.653],[17.6981,45.8713,120.2405],[17.685,45.8698,100.7926],[17.6644,45.8602,101.5028],[17.6471,45.8561,99.1074],[17.6493,45.8525,98.3728],[17.6664,45.8425,115.9144],[17.6874,45.8432,99.6973],[17.7288,45.8365,98.6038],[17.7398,45.8278,108.1096],[17.7526,45.8224,100.7825],[17.7603,45.8235,104.3611],[17.7733,45.8218,108.3328],[17.7889,45.8144,96.0],[17.8173,45.812,110.86279999999999],[17.8426,45.7872,109.6414],[17.8585,45.7741,98.1342],[17.8718,45.7761,94.5],[17.8756,45.7846,100.0701],[17.8944,45.795,94.9872],[17.9089,45.7921,102.5809],[17.9232,45.7929,97.3207],[17.9487,45.7965,107.6769],[17.9605,45.7954,106.0184],[17.9888,45.8019,97.1077],[17.9905,45.8003,99.4044]]]]}
,"properties": {"GID_1": "HUN.2_1","GID_0": "HUN","country": "Hungary","province": "Baranya","VARNAME_1": "NA","NL_NAME_1": "NA","TYPE_1": "Megye","ENGTYPE_1": "County","CC_1": "NA","HASC_1": "HU.BA","ISO_1": "HU-BA","name": "Baranya.province","area_km2": 4473.372,"hist_schema_id": "Elevation0-9000","hist_area_km2": {"75": 114.269,"100": 1207.118,"125": 785.132,"150": 577.184,"175": 499.145,"200": 436.557,"225": 294.556,"250": 190.725,"275": 109.23,"300": 64.755,"325": 47.436,"350": 34.174,"375": 28.419,"400": 24.422,"425": 18.135,"450": 14.889,"475": 9.912,"500": 7.049,"525": 4.436,"550": 2.673,"575": 2.1,"600": 0.602,"625": 0.279,"650": 0.103,"675": 0.059}}}