{"type": "Feature","id": "3155","bbox": [17.61704,45.74134,18.85242,46.41161],"geometry": {"type": "Polygon","coordinates": [[[18.4079,46.2272,426.2753],[18.3926,46.31281,187.1894],[18.37348,46.34833,180.802],[18.33524,46.37882,218.0245],[18.33814,46.395,214.7074],[18.3338,46.40787,268.9218],[18.30341,46.41161,256.1591],[18.18548,46.40409,110.0312],[18.16853,46.38247,116.5864],[18.1491,46.36459,112.7782],[18.12337,46.3657,113.2863],[18.09763,46.37118,114.2124],[18.07872,46.35965,117.0551],[18.0718,46.3379,137.2372],[18.05237,46.32265,149.928],[17.93816,46.31288,246.0383],[17.84597,46.22886,161.3065],[17.81507,46.21219,232.0119],[17.76629,46.21113,177.0561],[17.71988,46.19953,223.8384],[17.69094,46.17633,185.0292],[17.69353,46.11486,135.922],[17.67637,46.08349,145.3719],[17.61704,46.06225,138.911],[17.64598,46.00102,122.5369],[17.63048,45.98099,116.7377],[17.64226,45.95063,120.8488],[17.66345,45.92673,103.5198],[17.69208,45.90872,102.5678],[17.70841,45.88826,100.7234],[17.7051,45.85916,99.9073],[17.68185,45.85059,99.5911],[17.65467,45.85211,111.3945],[17.65652,45.84542,105.4812],[17.66469,45.84165,115.0935],[17.68732,45.84061,100.5819],[17.80918,45.81441,99.4187],[17.83822,45.79963,97.6547],[17.85796,45.77586,95.6156],[17.85806,45.77173,105.4655],[17.87005,45.77349,104.3465],[17.87574,45.78067,101.512],[17.88049,45.78852,102.7403],[17.88979,45.79214,95.5731],[17.90623,45.79214,100.726],[17.97537,45.79214,108.4304],[18.08048,45.77173,92.7101],[18.09205,45.77173,96.1004],[18.1029,45.77462,92.783],[18.12016,45.78341,94.0227],[18.12895,45.78537,96.8384],[18.21122,45.78537,95.8141],[18.22982,45.78124,103.1997],[18.26052,45.76511,91.4997],[18.28326,45.76491,94.3573],[18.30052,45.75183,94.2315],[18.31767,45.74729,89.5215],[18.33493,45.75199,93.2144],[18.35116,45.7584,89.2325],[18.36718,45.75819,90.1173],[18.38382,45.7432,89.2704],[18.38413,45.7431,89.2704],[18.39074,45.74181,88.4544],[18.39756,45.74134,89.0713],[18.40439,45.74181,88.519],[18.41172,45.7432,89.7598],[18.43074,45.75364,89.0098],[18.46547,45.78372,96.5015],[18.4818,45.79142,97.4667],[18.50422,45.78403,94.9064],[18.53027,45.79085,92.4768],[18.57347,45.81669,95.867],[18.58546,45.82692,99.0429],[18.60737,45.85669,108.1982],[18.62215,45.86842,117.161],[18.6236,45.86867,117.161],[18.62628,45.87482,119.0956],[18.62928,45.88686,119.2824],[18.633,45.89193,89.9641],[18.65564,45.90759,89.8606],[18.67434,45.91038,86.2789],[18.72385,45.89844,83.5418],[18.76333,45.88397,84.7733],[18.77553,45.88283,84.4495],[18.78596,45.88692,83.7563],[18.79041,45.89389,83.7963],[18.79485,45.90304,101.8422],[18.80488,45.91363,81.5],[18.8178,45.90547,81.5],[18.82245,45.90558,83.3391],[18.82224,45.90573,83.3391],[18.80147,45.91999,81.5],[18.8241,45.94019,87.1276],[18.83134,45.97073,83.7998],[18.84488,45.98991,83.998],[18.85242,46.0112,84.51],[18.8455,46.0259,84.1998],[18.84467,46.04985,107.2493],[18.82834,46.07419,86.3462],[18.82865,46.08814,85.9141],[18.82203,46.09892,86.6767],[18.80415,46.10096,100.3662],[18.78576,46.09967,82.0],[18.73274,46.11078,137.2811],[18.68303,46.1299,161.5933],[18.65088,46.1555,195.0969],[18.6205,46.18788,241.3237],[18.59487,46.22599,200.2087],[18.57843,46.23873,126.636],[18.55838,46.22989,203.2167],[18.53874,46.23005,193.6675],[18.48872,46.26343,155.9788],[18.46433,46.26033,239.1952],[18.44707,46.24663,215.9886],[18.4079,46.2272,426.2753]],
[[18.27772,46.15237,388.5892],[18.31961,46.17033,443.2886],[18.35553,46.10748,221.1317],[18.37049,46.06858,152.1923],[18.36151,46.05661,151.7695],[18.32859,46.06259,204.1688],[18.31064,46.06259,194.8409],[18.29268,46.04164,163.8139],[18.28071,46.0177,183.3464],[18.26276,45.99676,176.1517],[18.23582,45.98479,192.2961],[18.19991,45.99676,197.305],[18.16101,46.02369,142.8307],[18.12809,46.03865,131.3461],[18.14305,46.06259,138.4682],[18.1251,46.08354,248.1583],[18.13549,46.12349,361.7507],[18.15644,46.14144,186.5341],[18.19692,46.16135,320.0476],[18.23882,46.15836,251.2829],[18.27772,46.15237,388.5892]]]}
,"properties": {"ISO3166-1-Alpha-3": "HUN","country": "Hungary","fill": "#FF0","name": "Baranya","area_km2": 4308.223,"hist_schema_id": "Elevation0-9000","hist_area_km2": {"75": 166.641,"100": 1241.125,"125": 758.08,"150": 534.873,"175": 480.535,"200": 393.218,"225": 270.927,"250": 176.524,"275": 97.247,"300": 55.672,"325": 36.855,"350": 23.475,"375": 18.058,"400": 14.972,"425": 12.254,"450": 10.449,"475": 6.868,"500": 4.138,"525": 2.524,"550": 1.659,"575": 1.189,"600": 0.484,"625": 0.279,"650": 0.103,"675": 0.059}}}