{"type": "Feature","bbox": [20.436,47.6906,20.8764,48.0342],"geometry": {"type": "MultiPolygon","coordinates": [[[[20.8036,47.8776,100.4053],[20.7865,47.886,101.3753],[20.7666,47.8997,116.6553],[20.7677,47.9017,116.2959],[20.7776,47.9067,120.385],[20.7905,47.9257,130.6229],[20.7892,47.9284,131.332],[20.7675,47.9257,143.2566],[20.7531,47.9283,142.8836],[20.7257,47.9291,157.7309],[20.7145,47.9391,172.4848],[20.7098,47.9454,154.2213],[20.7051,47.9552,193.0486],[20.7047,47.9653,152.5645],[20.7022,47.9678,176.0283],[20.6831,47.9731,193.5984],[20.6641,47.9674,217.3875],[20.6509,47.9671,191.2832],[20.6479,47.97,190.6303],[20.6479,47.982,244.2959],[20.6434,47.984,256.3583],[20.6311,47.983,234.7409],[20.624,47.9765,314.551],[20.6182,47.9757,344.4347],[20.609,47.9857,349.8619],[20.5666,48.012,587.7234],[20.5381,48.0133,508.0617],[20.5138,48.0253,534.5791],[20.5052,48.0332,561.9923],[20.4995,48.0342,623.9574],[20.4876,48.0297,503.8048],[20.4856,48.0173,549.4559],[20.4778,48.006,476.5349],[20.4766,47.9915,378.1524],[20.473,47.9884,439.6289],[20.4599,47.9838,387.577],[20.4559,47.981,381.0178],[20.4543,47.9659,486.7254],[20.4478,47.9557,421.4643],[20.4561,47.9468,403.7391],[20.4664,47.9407,323.0504],[20.485,47.9353,272.8293],[20.5097,47.9316,225.3555],[20.5111,47.9293,229.7548],[20.5117,47.92,194.2857],[20.5144,47.9147,238.53],[20.5123,47.9129,253.3595],[20.4947,47.9087,245.7527],[20.4927,47.9005,222.441],[20.49,47.8987,198.4947],[20.4535,47.8973,236.9624],[20.4455,47.8898,203.8981],[20.4376,47.885,236.75],[20.436,47.88,213.0568],[20.4364,47.8766,223.9987],[20.4491,47.8666,225.2447],[20.4788,47.8614,178.4824],[20.4919,47.8563,181.0303],[20.5005,47.8452,172.8119],[20.5054,47.8356,158.7738],[20.5016,47.8262,133.1525],[20.4997,47.8082,124.013],[20.5148,47.7867,118.1615],[20.5332,47.7683,109.6707],[20.5448,47.7619,105.9073],[20.5686,47.7554,102.0774],[20.576,47.7487,101.338],[20.5913,47.7395,97.8823],[20.5911,47.7362,97.6803],[20.5828,47.7324,98.0148],[20.5766,47.7268,97.4528],[20.5766,47.7194,96.9529],[20.5824,47.7119,96.2446],[20.619,47.6934,93.7775],[20.6318,47.6906,92.7505],[20.6617,47.6934,92.6844],[20.6744,47.6971,89.6791],[20.7212,47.7004,90.8416],[20.7335,47.7094,89.7077],[20.7376,47.7151,89.2326],[20.7563,47.7171,97.9096],[20.7585,47.7237,89.9747],[20.7641,47.7266,90.0795],[20.7912,47.7264,89.3201],[20.8035,47.7235,90.4645],[20.8135,47.7237,90.2957],[20.8284,47.7286,89.083],[20.8351,47.7403,89.596],[20.8553,47.7441,89.6634],[20.8698,47.7498,89.6258],[20.8747,47.7532,89.6251],[20.8764,47.758,89.9965],[20.8753,47.7634,90.0972],[20.8712,47.7647,89.778],[20.8625,47.763,89.7287],[20.8593,47.7638,90.186],[20.8474,47.779,91.3041],[20.8451,47.7874,92.4619],[20.8354,47.8006,92.7231],[20.8399,47.8071,92.8786],[20.8365,47.8108,93.7552],[20.8298,47.8129,93.5442],[20.8079,47.8131,93.4033],[20.8037,47.8119,93.8089],[20.797,47.8055,93.1082],[20.782,47.8056,92.7956],[20.7619,47.8126,94.4313],[20.7461,47.8324,100.8091],[20.7406,47.8371,102.1654],[20.7413,47.8396,103.329],[20.7503,47.844,103.9073],[20.7472,47.8521,104.4984],[20.7495,47.8563,104.5307],[20.7692,47.8629,103.7567],[20.8055,47.8695,98.7019],[20.8068,47.8721,99.055],[20.8036,47.8776,100.4053]]]]}
,"properties": {"GID_2": "HUN.4.7_1","GID_0": "HUN","country": "Hungary","GID_1": "HUN.4_1","province": "Borsod-Abaúj-Zemplén","NL_NAME_1": "NA","county": "Mezőkövesdi","VARNAME_2": "NA","NL_NAME_2": "NA","TYPE_2": "Kistérség","ENGTYPE_2": "Subregion","CC_2": "NA","HASC_2": "NA","name": "Mezőkövesdi.county","area_km2": 670.5959,"hist_schema_id": "Elevation0-9000","hist_area_km2": {"25": 0.0142,"50": 0.6826,"75": 1.1946,"100": 291.6829,"125": 98.0483,"150": 61.8362,"175": 46.3829,"200": 34.4061,"225": 25.5468,"250": 20.4839,"275": 14.8845,"300": 9.7555,"325": 8.0503,"350": 5.2096,"375": 5.2515,"400": 5.3932,"425": 5.2793,"450": 5.3641,"475": 5.0658,"500": 5.7892,"525": 6.1721,"550": 5.3065,"575": 3.8449,"600": 2.5109,"625": 1.6173,"650": 0.752,"675": 0.0709}}}