{"type":"Feature","properties":{"GID_2":"HUN.1.1_1","GID_0":"HUN","country":"Hungary","GID_1":"HUN.1_1","province":"Bács-Kiskun","NL_NAME_1":"NA","county":"Bácsalmás","VARNAME_2":"Bácsalmási","NL_NAME_2":"NA","TYPE_2":"Kistérség","ENGTYPE_2":"Subregion","CC_2":"NA","HASC_2":"NA","name":"Bácsalmás.county"},
"geometry":{"type": "MultiPolygon","coordinates": [[[[19.1199,46.0363,100.3334],[19.1275,46.0347,105.6261],[19.134,46.0217,98.9735],[19.1359,46.0079,101.1132],[19.1487,45.998,96.3611],[19.191,45.9977,117.3621],[19.2113,46.0024,118.9012],[19.2439,46.0012,118.098],[19.2745,45.998,114.8086],[19.2964,46.0014,120.1084],[19.2829,46.0164,123.7761],[19.3665,46.0555,123.4861],[19.3788,46.0377,125.2104],[19.4119,46.0478,133.3807],[19.4182,46.0561,129.9164],[19.4259,46.0618,129.5487],[19.4485,46.0774,144.5262],[19.4635,46.0836,132.7596],[19.462,46.0971,137.4461],[19.4935,46.1106,128.5182],[19.5147,46.1174,125.2457],[19.5214,46.1223,126.6873],[19.5033,46.136,131.0619],[19.5018,46.1441,133.9708],[19.5162,46.1539,130.3897],[19.5144,46.1564,131.4415],[19.4969,46.159,132.9426],[19.4629,46.1702,132.8248],[19.4146,46.1702,135.299],[19.3951,46.1631,131.8256],[19.3643,46.1729,130.3564],[19.3421,46.1737,129.9507],[19.3372,46.1786,131.2561],[19.3352,46.1872,130.641],[19.327,46.1987,130.1686],[19.3209,46.2043,129.6779],[19.3144,46.2135,130.367],[19.3099,46.2155,131.1021],[19.2647,46.2011,127.3882],[19.2565,46.1972,125.6722],[19.2472,46.2011,125.5061],[19.2383,46.2007,125.802],[19.2153,46.1853,125.2506],[19.2088,46.169,124.6019],[19.2087,46.1424,122.4603],[19.2121,46.1394,122.6844],[19.2269,46.1343,124.2149],[19.2296,46.1292,125.2174],[19.2277,46.1225,123.0703],[19.2109,46.1213,123.0525],[19.2078,46.1184,121.3346],[19.2087,46.1153,121.6514],[19.2194,46.1042,121.4534],[19.2266,46.0937,122.3953],[19.2206,46.0836,121.231],[19.219,46.0717,120.5944],[19.2147,46.0701,120.518],[19.1925,46.0697,117.9563],[19.1777,46.0663,114.7652],[19.1584,46.0539,109.1434],[19.1477,46.0417,105.6621],[19.1199,46.0363,100.3334]]]]}}