{"type":"Feature","properties":{"GID_2":"HUN.4.14_1","GID_0":"HUN","country":"Hungary","GID_1":"HUN.4_1","province":"Borsod-Abaúj-Zemplén","NL_NAME_1":"NA","county":"Tiszaújváros","VARNAME_2":"NA","NL_NAME_2":"NA","TYPE_2":"Kistérség","ENGTYPE_2":"Subregion","CC_2":"NA","HASC_2":"NA","name":"Tiszaújváros.county"},
"geometry":{"type": "MultiPolygon","coordinates": [[[[21.0499,47.8334,91.9953],[21.0542,47.8362,92.1247],[21.0547,47.8497,92.2037],[21.0569,47.8547,96.2925],[21.0641,47.8586,94.7914],[21.0746,47.8599,91.1533],[21.0777,47.8702,94.264],[21.089,47.8799,94.2691],[21.0906,47.8939,91.1093],[21.0927,47.8978,91.6986],[21.0971,47.9015,91.2551],[21.1127,47.9045,91.2375],[21.1153,47.9072,91.2219],[21.1135,47.9147,91.8738],[21.0993,47.9206,107.4428],[21.0963,47.9243,112.5228],[21.0979,47.9275,92.9105],[21.1067,47.9325,93.4748],[21.1135,47.9393,93.4313],[21.1153,47.9587,92.5366],[21.107,47.9742,91.1986],[21.0872,47.9902,91.7116],[21.0835,47.9965,92.376],[21.0834,48.0013,92.3667],[21.0637,48.004,93.3988],[21.048,48.0029,93.4299],[21.0307,48.0088,102.1126],[21.0261,48.0169,104.5313],[21.0046,48.0057,105.4731],[20.9995,47.9943,100.8668],[20.9766,47.9733,101.773],[20.9699,47.9695,99.6297],[20.9595,47.9692,98.5284],[20.9435,47.9736,98.3912],[20.9292,47.9638,102.0498],[20.9042,47.9552,100.7207],[20.9011,47.9562,99.771],[20.8996,47.963,99.4141],[20.8916,47.9719,100.5626],[20.8835,47.9772,98.8229],[20.8787,47.977,100.9294],[20.8612,47.9712,101.2344],[20.8538,47.966,102.3087],[20.8523,47.9247,100.3901],[20.8575,47.9171,100.2694],[20.8634,47.9137,100.4417],[20.8648,47.9092,94.5],[20.8643,47.8996,99.6598],[20.8605,47.8931,95.4376],[20.886,47.8834,98.2522],[20.903199999999998,47.8817,98.4483],[20.9062,47.8792,97.0362],[20.9072,47.8729,97.9295],[20.9095,47.8712,99.7968],[20.9144,47.8718,94.6764],[20.9164,47.8752,95.4248],[20.9194,47.8765,97.2735],[20.9332,47.8756,95.2212],[20.9365,47.8732,94.3892],[20.9391,47.8682,94.2459],[20.9345,47.8627,95.5796],[20.9357,47.8601,94.7513],[20.974,47.8447,94.5891],[20.983,47.8438,90.6751],[20.995,47.8462,92.3281],[21.0103,47.8458,91.5243],[21.03,47.8419,92.7859],[21.0499,47.8334,91.9953]]]]}}