{"type": "Feature","bbox": [18.5426,47.6025,18.8686,47.736],"geometry": {"type": "MultiPolygon","coordinates": [[[[18.5426,47.6588,335.9602],[18.5462,47.6485,325.124],[18.5555,47.6339,291.1934],[18.5673,47.6274,299.9138],[18.5812,47.6165,252.3431],[18.5905,47.612,248.5757],[18.6036,47.6025,219.6781],[18.6076,47.6032,213.803],[18.642,47.6231,224.4904],[18.6544,47.6126,190.0588],[18.659,47.6127,219.683],[18.6808,47.6208,188.5702],[18.6899,47.6127,231.6189],[18.6974,47.6105,248.7478],[18.7091,47.6104,239.832],[18.7176,47.6079,248.1724],[18.7357,47.615,265.3385],[18.739,47.6242,232.5291],[18.7451,47.6321,269.9668],[18.7733,47.6465,231.2994],[18.7729,47.6516,235.81],[18.7592,47.6621,238.0762],[18.7616,47.664,219.4646],[18.7762,47.6669,216.134],[18.7768,47.6692,185.4914],[18.7733,47.674,191.5249],[18.7753,47.677,188.4684],[18.7916,47.6788,204.0814],[18.8155,47.6719,196.1892],[18.8368,47.6683,314.164],[18.8639,47.6715,284.3103],[18.8675,47.6735,295.054],[18.8686,47.6761,334.1783],[18.867,47.6848,597.6128],[18.8588,47.6931,678.5133],[18.8532,47.7016,703.5399],[18.8612,47.717,625.7844],[18.8611,47.7246,481.3925],[18.8562,47.7264,464.0186],[18.8376,47.7304,352.339],[18.8111,47.7293,457.6547],[18.7778,47.7343,236.439],[18.758,47.7323,193.3321],[18.7458,47.7252,128.4585],[18.7419,47.7243,131.3173],[18.7256,47.7329,123.3369],[18.7149,47.736,116.7617],[18.6635,47.7358,109.1421],[18.6389,47.7279,113.4619],[18.6208,47.7266,177.4523],[18.6164,47.7185,211.3268],[18.6143,47.7093,170.3597],[18.6064,47.6975,166.9689],[18.6012,47.6951,178.7109],[18.5758,47.6957,287.3217],[18.5697,47.6941,228.8513],[18.5557,47.6778,315.9053],[18.5426,47.6588,335.9602]]]]}
,"properties": {"GID_2": "HUN.12.1_1","GID_0": "HUN","country": "Hungary","GID_1": "HUN.12_1","province": "Komárom-Esztergom","NL_NAME_1": "NA","county": "Dorog","VARNAME_2": "Dorogi","NL_NAME_2": "NA","TYPE_2": "Kistérség","ENGTYPE_2": "Subregion","CC_2": "NA","HASC_2": "NA","name": "Dorog.county","area_km2": 230.7261,"hist_schema_id": "Elevation0-9000","hist_area_km2": {"100": 0.6132,"125": 14.4809,"150": 28.6743,"175": 43.6286,"200": 45.5092,"225": 36.4125,"250": 22.302,"275": 11.8642,"300": 6.0377,"325": 3.8536,"350": 3.4395,"375": 2.3118,"400": 1.4411,"425": 1.1272,"450": 1.0414,"475": 1.1126,"500": 1.2696,"525": 1.0984,"550": 1.1555,"575": 1.3552,"600": 0.3424,"625": 0.2854,"650": 0.4708,"675": 0.5137,"700": 0.3282,"725": 0.0571}}}