{"type":"Feature","properties":{"GID_2":"HUN.19.9_1","GID_0":"HUN","country":"Hungary","GID_1":"HUN.19_1","province":"Veszprém","NL_NAME_1":"NA","county":"Zirc","VARNAME_2":"Zirci","NL_NAME_2":"NA","TYPE_2":"Kistérség","ENGTYPE_2":"Subregion","CC_2":"NA","HASC_2":"NA","name":"Zirc.county"},
"geometry":{"type": "MultiPolygon","coordinates": [[[[18.0241,47.3359,247.2303],[18.0049,47.3391,258.6295],[17.9818,47.3327,270.1396],[17.9588,47.3358,286.7617],[17.9573,47.3381,291.4716],[17.9566,47.3473,275.4622],[17.9543,47.3501,264.8052],[17.9285,47.3578,310.4949],[17.9303,47.3615,335.584],[17.9457,47.3661,263.0639],[17.9478,47.368899999999996,224.3741],[17.946,47.3774,246.7221],[17.9352,47.3843,265.4217],[17.9184,47.3847,213.1907],[17.8994,47.3789,284.1528],[17.8806,47.379,229.9378],[17.8692,47.3709,216.1169],[17.8479,47.3654,319.0067],[17.8447,47.3612,397.3177],[17.840699999999998,47.3484,454.8401],[17.8403,47.3341,349.8669],[17.8286,47.3215,413.5128],[17.8213,47.3189,393.9481],[17.7929,47.3189,405.8234],[17.7877,47.3173,420.1565],[17.7893,47.279,486.3019],[17.7879,47.2743,474.3886],[17.7795,47.2731,448.1086],[17.7676,47.2739,396.9379],[17.7592,47.2643,433.5293],[17.7529,47.2618,406.1282],[17.748,47.2623,345.7028],[17.7367,47.2671,377.4329],[17.7185,47.2667,369.2213],[17.7146,47.2641,278.2202],[17.7068,47.2527,441.304],[17.7062,47.2481,376.9117],[17.7087,47.2449,361.0776],[17.7192,47.2427,298.6541],[17.727,47.2335,308.6616],[17.7287,47.229,297.8647],[17.7364,47.2189,365.3453],[17.7337,47.2099,501.145],[17.7375,47.2055,540.0209],[17.7443,47.205,510.7837],[17.749,47.207,489.4725],[17.757,47.219,424.7777],[17.7589,47.2251,405.942],[17.7631,47.2266,451.9871],[17.7735,47.2154,406.5625],[17.7835,47.2119,453.9944],[17.7953,47.2102,426.8228],[17.804,47.2015,433.9996],[17.8212,47.2058,439.6165],[17.8325,47.2055,431.386],[17.8345,47.2022,443.9588],[17.832,47.1975,493.2005],[17.8325,47.1954,540.791],[17.8384,47.1916,549.4243],[17.8454,47.1816,559.1368],[17.857,47.1786,546.5247],[17.8755,47.1756,487.6863],[17.8806,47.1764,498.3492],[17.8819,47.1789,457.1947],[17.8819,47.1911,418.2708],[17.8963,47.1937,386.4423],[17.9062,47.2102,411.9658],[17.9097,47.2142,430.5601],[17.9129,47.2154,430.6641],[17.9389,47.2151,375.1602],[17.9486,47.209,316.1487],[17.9517,47.2014,398.3793],[17.9545,47.1996,392.3067],[17.9736,47.1993,300.1698],[17.9851,47.1972,276.9169],[18.0063,47.1977,250.9666],[18.0009,47.2055,282.9623],[17.9989,47.2332,475.8775],[17.9841,47.244,506.7875],[17.9831,47.2478,504.0983],[17.9956,47.2607,368.14],[18.0144,47.2706,310.1234],[18.0274,47.2716,416.5046],[18.0385,47.2703,448.2011],[18.0417,47.2718,432.8264],[18.0501,47.2806,300.0929],[18.0496,47.2919,216.2741],[18.0458,47.2985,251.3862],[18.0457,47.3015,233.5962],[18.0481,47.3033,262.0389],[18.06,47.3049,234.8466],[18.0649,47.3147,256.5822],[18.064,47.317,262.7908],[18.0609,47.3183,243.938],[18.0432,47.3189,234.149],[18.0241,47.3359,247.2303]]]]}}