{"type":"Feature","properties":{"GID_2":"HUN.4.11_1","GID_0":"HUN","country":"Hungary","GID_1":"HUN.4_1","province":"Borsod-Abaúj-Zemplén","NL_NAME_1":"NA","county":"Sátoraljaújhely","VARNAME_2":"NA","NL_NAME_2":"NA","TYPE_2":"Kistérség","ENGTYPE_2":"Subregion","CC_2":"NA","HASC_2":"NA","name":"Sátoraljaújhely.county"},
"geometry":{"type": "MultiPolygon","coordinates": [[[[21.4454,48.4038,436.1405],[21.4602,48.4,449.2346],[21.4753,48.4044,468.9563],[21.4854,48.4042,393.6758],[21.4892,48.4008,343.4832],[21.4865,48.3954,269.5013],[21.4873,48.3933,264.1883],[21.5004,48.3857,387.246],[21.5074,48.3844,407.7076],[21.5247,48.385,432.9816],[21.5324,48.39,355.7106],[21.5421,48.393,224.5916],[21.5562,48.3886,241.2176],[21.56,48.3955,193.0418],[21.5778,48.4019,352.9309],[21.584,48.402,306.3032],[21.5994,48.3982,174.4036],[21.6022,48.3955,188.9697],[21.6016,48.3907,201.5491],[21.5935,48.385,163.1119],[21.5806,48.3788,160.4103],[21.5752,48.3695,164.0089],[21.5742,48.3605,239.9931],[21.5793,48.3539,197.8897],[21.5903,48.3527,111.964],[21.5988,48.354,113.3798],[21.6012,48.3595,98.4874],[21.604,48.3614,96.8919],[21.6175,48.3607,96.7166],[21.6184,48.3554,99.4056],[21.6102,48.3515,98.8097],[21.6086,48.3453,96.8193],[21.6121,48.3368,104.7514],[21.6127,48.3272,96.7944],[21.6159,48.323,98.9586],[21.6199,48.3214,99.4743],[21.6262,48.3218,97.6852],[21.6402,48.327,97.0658],[21.6439,48.3303,100.441],[21.6463,48.3354,102.1629],[21.6521,48.3401,96.9527],[21.6787,48.3432,104.3642],[21.6879,48.3468,98.9381],[21.6936,48.3514,97.0476],[21.6954,48.3604,98.5772],[21.7118,48.368899999999996,97.7846],[21.71,48.3695,97.6871],[21.7098,48.3758,97.6261],[21.7033,48.3868,99.142],[21.6895,48.3913,99.9202],[21.6761,48.3935,100.089],[21.6671,48.4073,103.4649],[21.6668,48.4163,105.1656],[21.6562,48.4305,109.5115],[21.6461,48.4403,112.0737],[21.6338,48.4479,112.9582],[21.6255,48.4699,117.0312],[21.6225,48.4903,120.2872],[21.6177,48.4996,123.0264],[21.6146,48.5129,125.1707],[21.6058,48.5125,127.3488],[21.5981,48.5198,137.7562],[21.5812,48.5066,269.1895],[21.5726,48.5068,270.5718],[21.5665,48.5136,241.4555],[21.5607,48.5105,331.7136],[21.5477,48.5115,308.7895],[21.5454,48.5152,333.9167],[21.5388,48.5163,353.2214],[21.5196,48.5393,504.2133],[21.5202,48.5499,377.5647],[21.5094,48.5573,311.1856],[21.5037,48.5565,358.1291],[21.5007,48.5598,387.9021],[21.4936,48.5608,478.5482],[21.483,48.5661,572.7864],[21.4696,48.57,772.0175],[21.4605,48.5759,865.4571],[21.4493,48.5765,867.1942],[21.4414,48.5853,757.5132],[21.4311,48.5856,659.846],[21.4271,48.581,592.5154],[21.4224,48.564,540.9272],[21.4186,48.5608,567.0617],[21.4113,48.5608,575.9173],[21.4043,48.5654,529.2004],[21.3871,48.5601,544.6664],[21.3908,48.5593,447.1084],[21.3847,48.5556,548.0218],[21.3829,48.5529,534.7336],[21.3832,48.5425,458.8066],[21.3949,48.5316,626.8361],[21.3947,48.5219,559.8455],[21.3913,48.514,591.7911],[21.4027,48.5061,464.3035],[21.4071,48.4961,381.0861],[21.4033,48.4882,310.8863],[21.4034,48.4848,364.3197],[21.413,48.4792,268.0373],[21.4148,48.4763,319.0634],[21.4104,48.4654,458.5889],[21.4033,48.4603,482.1312],[21.3965,48.4465,510.0111],[21.3896,48.439,469.376],[21.3908,48.4365,513.1574],[21.3943,48.4345,543.2692],[21.4131,48.4303,384.7383],[21.4197,48.422,311.5365],[21.4254,48.4178,351.6699],[21.438,48.4154,331.7784],[21.4454,48.4038,436.1405]]]]}}