{"type":"Feature","properties":{"GID_1":"HUN.4_1","GID_0":"HUN","country":"Hungary","province":"Borsod-Abaúj-Zemplén","VARNAME_1":"NA","NL_NAME_1":"NA","TYPE_1":"Megye","ENGTYPE_1":"County","CC_1":"NA","HASC_1":"HU.BZ","ISO_1":"NA","name":"Borsod-Abaúj-Zemplén.province"},
"geometry":{"type": "MultiPolygon","coordinates": [[[[21.0559,47.8301,94.798],[21.0499,47.8334,91.9953],[21.0542,47.8362,92.1247],[21.0558,47.8534,93.0196],[21.0622,47.858,100.4009],[21.0752,47.8604,91.1533],[21.0777,47.8702,94.264],[21.089,47.8799,94.2691],[21.0911,47.8954,91.5451],[21.0951,47.9003,91.5558],[21.1127,47.9045,91.2375],[21.115,47.9064,90.9687],[21.1153,47.9111,91.246],[21.1135,47.9147,91.8738],[21.0993,47.9206,107.4428],[21.0963,47.9243,112.5228],[21.0979,47.9275,92.9105],[21.1067,47.9325,93.4748],[21.1135,47.9393,93.4313],[21.1153,47.9587,92.5366],[21.107,47.9742,91.1986],[21.0883,47.9891,91.7116],[21.0832,47.9987,92.5372],[21.0834,48.0013,92.3667],[21.0982,48.0198,91.622],[21.1063,48.025,92.4025],[21.1261,48.0463,91.2532],[21.1671,48.0499,92.1155],[21.1708,48.0484,91.9119],[21.1735,48.0431,92.2948],[21.1794,48.0384,117.792],[21.1916,48.0367,91.6944],[21.2069,48.0303,97.1201],[21.2226,48.0292,107.6722],[21.234,48.0326,98.7491],[21.2341,48.0349,100.3524],[21.2289,48.044,93.6465],[21.2324,48.0484,95.6563],[21.2422,48.0529,101.3357],[21.2687,48.0574,117.6964],[21.2685,48.0495,110.8692],[21.2729,48.0408,96.508],[21.2837,48.0376,95.8038],[21.2974,48.0359,104.879],[21.3324,48.0244,94.6657],[21.3379,48.0249,98.5752],[21.3518,48.0313,108.2957],[21.3658,48.031,95.3793],[21.3757,48.0288,95.6685],[21.3828,48.0332,102.475],[21.4078,48.0337,103.0776],[21.4308,48.0485,94.9767],[21.4342,48.0643,98.0981],[21.4448,48.07,100.8519],[21.4467,48.0728,102.2418],[21.446,48.0756,98.3199],[21.4402,48.0818,95.5917],[21.4387,48.0928,96.2452],[21.422,48.105,95.6644],[21.4172,48.1122,94.4184],[21.4255,48.1233,100.0214],[21.4283,48.1438,94.8719],[21.4423,48.1628,97.5014],[21.4741,48.1682,100.7377],[21.4917,48.1755,98.4885],[21.5104,48.1751,96.6548],[21.5194,48.182,98.8128],[21.528,48.1928,96.2037],[21.5451,48.1956,95.575],[21.5675,48.2083,96.6517],[21.587,48.207,95.0832],[21.5969,48.2028,95.9803],[21.6144,48.1993,97.1572],[21.6885,48.1987,93.8389],[21.734,48.21,95.7593],[21.7454,48.2103,96.5776],[21.7553,48.208,96.4997],[21.7612,48.2088,95.2112],[21.7753,48.2171,95.3481],[21.7854,48.2256,95.4144],[21.8189,48.245,97.2231],[21.8451,48.2437,97.3221],[21.8567,48.2477,97.3848],[21.8713,48.2481,97.6166],[21.8825,48.2551,98.2786],[21.9049,48.2512,98.2577],[21.9142,48.2575,97.6553],[21.9228,48.2685,97.3525],[21.9403,48.2786,98.3606],[21.9481,48.2885,97.2892],[21.9623,48.301,96.8269],[21.9746,48.3066,98.0893],[21.9941,48.3126,98.0514],[22.0184,48.3118,104.6258],[22.0332,48.3085,102.1557],[22.042,48.3099,102.4076],[22.0518,48.315,100.4851],[22.0641,48.3251,100.1217],[22.0899,48.3353,104.4264],[22.1059,48.3498,106.8297],[22.134,48.3615,101.9798],[22.1372,48.3654,101.7107],[22.1349,48.3717,102.3294],[22.1306,48.3756,103.2974],[22.122,48.3797,97.9762],[22.1238,48.3815,103.0775],[22.1201,48.3804,104.0038],[22.112,48.3825,102.6937],[22.101,48.3795,102.9182],[22.0939,48.3844,101.6357],[22.088,48.3784,100.8319],[22.0835,48.3762,100.6598],[22.0815,48.383,101.3355],[22.0766,48.3874,101.1166],[22.0708,48.3869,101.4939],[22.0681,48.3835,101.5026],[22.0565,48.3826,99.0184],[22.0558,48.3797,98.8389],[22.0521,48.3791,99.1174],[22.0433,48.3846,99.8098],[22.0347,48.3858,98.9751],[22.0251,48.3927,99.1531],[22.0191,48.3918,99.4474],[22.0179,48.3881,99.0406],[22.0077,48.383,99.9678],[21.9975,48.3805,98.0906],[21.9784,48.3807,98.1713],[21.9734,48.3833,99.004],[21.9648,48.3798,99.7599],[21.9576,48.3829,100.138],[21.9501,48.3775,100.5972],[21.9444,48.3766,98.4553],[21.9386,48.3725,98.4842],[21.9311,48.3748,98.854],[21.9331,48.3644,98.6407],[21.922,48.3664,98.8912],[21.9161,48.3693,98.2837],[21.9095,48.3682,98.018],[21.9063,48.3708,97.8673],[21.9027,48.3658,98.537],[21.8934,48.3656,98.4601],[21.8948,48.3711,97.6594],[21.8874,48.3684,98.4068],[21.8821,48.3638,97.8851],[21.8791,48.3578,98.2766],[21.8716,48.3604,98.891],[21.8669,48.3544,97.9204],[21.8602,48.3681,97.6708],[21.8472,48.3672,95.8782],[21.84,48.3649,97.5886],[21.8391,48.3593,100.6207],[21.8404,48.3355,99.321],[21.8285,48.3342,97.3075],[21.8149,48.3397,96.1712],[21.8049,48.3419,96.7208],[21.7734,48.3408,96.5939],[21.7579,48.3478,96.6217],[21.7457,48.3504,96.8443],[21.7329,48.3499,96.4716],[21.7201,48.3579,97.4138],[21.7187,48.3668,97.0229],[21.71,48.3695,97.6871],[21.7098,48.3758,97.6261],[21.7033,48.3868,99.142],[21.6895,48.3913,99.9202],[21.6761,48.3935,100.089],[21.6671,48.4073,103.4649],[21.6668,48.4163,105.1656],[21.6562,48.4305,109.5115],[21.6461,48.4403,112.0737],[21.6338,48.4479,112.9582],[21.6255,48.4699,117.0312],[21.6225,48.4903,120.2872],[21.6177,48.4996,123.0264],[21.6146,48.5129,125.1707],[21.6058,48.5125,127.3488],[21.5981,48.5198,137.7562],[21.5812,48.5066,269.1895],[21.5726,48.5068,270.5718],[21.5665,48.5136,241.4555],[21.5607,48.5105,331.7136],[21.5477,48.5115,308.7895],[21.5454,48.5152,333.9167],[21.5388,48.5163,353.2214],[21.5196,48.5393,504.2133],[21.5202,48.5499,377.5647],[21.5094,48.5573,311.1856],[21.5037,48.5565,358.1291],[21.5007,48.5598,387.9021],[21.4936,48.5608,478.5482],[21.483,48.5661,572.7864],[21.4696,48.57,772.0175],[21.4605,48.5759,865.4571],[21.4493,48.5765,867.1942],[21.4414,48.5853,757.5132],[21.4311,48.5856,659.846],[21.4271,48.581,592.5154],[21.4224,48.564,540.9272],[21.4186,48.5608,567.0617],[21.4113,48.5608,575.9173],[21.4043,48.5654,529.2004],[21.3825,48.5587,590.7361],[21.3637,48.5611,316.1646],[21.3322,48.5581,180.1019],[21.3304,48.5652,169.7751],[21.323,48.5632,166.4339],[21.3193,48.5608,169.8723],[21.3227,48.5582,166.5454],[21.3288,48.5575,166.625],[21.3254,48.5536,165.9789],[21.3196,48.5539,165.9143],[21.3224,48.5507,166.5964],[21.3215,48.5436,179.321],[21.316,48.5409,163.8555],[21.3186,48.536,177.4003],[21.3083,48.5325,161.8365],[21.3066,48.5286,161.412],[21.2884,48.527,158.5],[21.2625,48.5304,163.6261],[21.251,48.5358,207.9509],[21.2435,48.5422,225.8056],[21.2344,48.5415,248.879],[21.231,48.5363,269.0862],[21.2226,48.5382,267.09],[21.2178,48.5323,270.5768],[21.2111,48.5327,248.5026],[21.2034,48.5279,237.3613],[21.1932,48.5281,239.7179],[21.1809,48.5219,309.2671],[21.1608,48.5231,300.4412],[21.1559,48.5193,293.465],[21.1477,48.5042,272.1106],[21.1378,48.497,321.993],[21.1264,48.4927,315.7086],[21.116,48.4925,290.6581],[21.1064,48.4943,304.0587],[21.1013,48.5006,273.2405],[21.1011,48.5126,291.1795],[21.0944,48.5201,266.3979],[21.084,48.5227,256.3708],[21.0757,48.5225,260.9974],[21.0679,48.5266,298.1315],[21.0565,48.5247,302.5687],[21.0533,48.5266,281.0787],[21.0284,48.5306,278.7373],[21.0244,48.5333,291.1134],[21.0181,48.5332,310.4695],[21.0121,48.53,308.3678],[20.9957,48.5304,259.435],[20.987,48.5205,291.8076],[20.9838,48.5262,291.9456],[20.9715,48.5229,289.6592],[20.9635,48.5233,272.752],[20.9598,48.527,237.7941],[20.9592,48.5322,279.6994],[20.9487,48.5363,219.9188],[20.9423,48.5359,226.2438],[20.9424,48.5412,254.7372],[20.9382,48.5393,279.4093],[20.9347,48.5483,229.2555],[20.9288,48.5569,211.4433],[20.9206,48.5615,212.5559],[20.9142,48.5613,199.1013],[20.8783,48.5512,258.0542],[20.8767,48.5545,228.7441],[20.8672,48.5536,210.2914],[20.8624,48.5601,231.8157],[20.8542,48.5667,210.5046],[20.8444,48.5663,167.8464],[20.8495,48.5834,195.7366],[20.8403,48.5864,225.5483],[20.83,48.5837,373.5662],[20.808,48.5742,427.2702],[20.7983,48.5768,439.921],[20.7439,48.5771,504.5152],[20.7424,48.5735,546.8593],[20.7438,48.5704,545.6099],[20.7201,48.5712,518.1505],[20.7071,48.5696,531.9775],[20.684,48.5609,495.5328],[20.6787,48.5667,549.8115],[20.6688,48.5645,496.0926],[20.6566,48.5644,457.9923],[20.6512,48.5603,429.0073],[20.6399,48.5591,277.3102],[20.6326,48.5534,379.1644],[20.6238,48.5523,396.5417],[20.6186,48.5445,466.2769],[20.6069,48.5456,460.8507],[20.5903,48.5363,444.6281],[20.5641,48.5445,490.447],[20.5469,48.5459,501.2906],[20.5364,48.5259,533.1903],[20.5188,48.5346,498.3562],[20.5075,48.5331,460.5152],[20.5019,48.518,476.9427],[20.5074,48.5143,475.8261],[20.5097,48.5089,476.4285],[20.5056,48.5049,512.197],[20.5018,48.4896,352.4824],[20.4955,48.4856,439.2813],[20.4852,48.4714,340.1136],[20.4651,48.4632,387.1515],[20.468,48.4542,385.4828],[20.4534,48.4503,375.676],[20.445,48.4448,372.8622],[20.4415,48.4366,358.254],[20.4162,48.4187,327.3038],[20.4133,48.4113,342.8595],[20.4205,48.4066,329.1146],[20.4148,48.3913,346.5107],[20.4028,48.3827,387.3879],[20.4108,48.3712,292.0115],[20.4073,48.3638,272.5023],[20.3991,48.3568,296.5981],[20.3873,48.3532,279.4109],[20.3856,48.3461,285.8483],[20.3728,48.3374,236.8654],[20.3715,48.3313,210.3665],[20.3754,48.3265,202.4995],[20.3589,48.3114,178.6486],[20.3488,48.3066,163.5399],[20.3418,48.3077,154.8232],[20.3346,48.2942,152.4827],[20.3284,48.2906,152.3362],[20.3265,48.2783,193.8103],[20.3203,48.2743,231.7481],[20.3086,48.2726,258.5361],[20.3095,48.267,294.7898],[20.2871,48.2637,266.2753],[20.2594,48.2754,252.7454],[20.2507,48.2809,243.6432],[20.24,48.2836,196.0231],[20.2332,48.2807,224.3171],[20.2359,48.2731,281.6536],[20.2321,48.2681,245.4075],[20.2245,48.2645,229.3252],[20.217,48.2636,225.4384],[20.2084,48.2659,200.1951],[20.2082,48.2571,252.3527],[20.1991,48.2535,239.4724],[20.16,48.2553,252.1487],[20.1393,48.2596,267.3994],[20.1366,48.2572,339.1999],[20.1346,48.2505,323.363],[20.1353,48.2428,301.1044],[20.1307,48.2232,338.2478],[20.0991,48.2063,317.7401],[20.0869,48.1958,317.8643],[20.0699,48.1942,287.4102],[20.0678,48.1858,264.2874],[20.0771,48.1843,337.3695],[20.0782,48.1818,299.5831],[20.0585,48.1759,322.7059],[20.0507,48.1696,343.3066],[20.0549,48.1589,289.0294],[20.0611,48.1501,266.597],[20.0827,48.1509,328.8779],[20.0869,48.149,338.2822],[20.0906,48.1437,398.3449],[20.1055,48.1393,436.3995],[20.1413,48.1348,397.0432],[20.1654,48.12,394.5352],[20.1745,48.1076,501.8154],[20.1942,48.0992,298.5267],[20.1971,48.0961,379.7069],[20.1996,48.089,379.643],[20.2184,48.0849,266.6742],[20.2606,48.0847,408.0271],[20.2742,48.0884,369.4812],[20.2771,48.0902,365.1561],[20.278,48.0932,390.6881],[20.2772,48.1071,414.6748],[20.2788,48.1119,403.5891],[20.3083,48.1155,377.8477],[20.3156,48.1143,349.9593],[20.3257,48.1026,365.6241],[20.3326,48.0983,355.3427],[20.3388,48.0966,360.2184],[20.3573,48.0959,394.3908],[20.3593,48.1033,360.8434],[20.3657,48.1105,345.4227],[20.3666,48.1203,384.0602],[20.3694,48.1217,354.9426],[20.383,48.1223,317.7262],[20.3868,48.1267,348.5528],[20.3872,48.1363,329.6242],[20.3896,48.1391,341.3903],[20.4327,48.137,324.5333],[20.455,48.1289,369.0069],[20.478,48.0971,886.6698],[20.4788,48.0855,884.018],[20.4863,48.077,801.3552],[20.4874,48.0678,925.1928],[20.4907,48.0624,860.3113],[20.4913,48.0582,692.7462],[20.4892,48.0534,596.2701],[20.4752,48.0424,566.9156],[20.479,48.0361,487.567],[20.4876,48.0297,503.8048],[20.4856,48.0173,549.4559],[20.4778,48.006,476.5349],[20.4766,47.9915,378.1524],[20.473,47.9884,439.6289],[20.4599,47.9838,387.577],[20.4559,47.981,381.0178],[20.4543,47.9659,486.7254],[20.4479,47.9551,443.1906],[20.4561,47.9468,403.7391],[20.4664,47.9407,323.0504],[20.485,47.9353,272.8293],[20.5097,47.9316,225.3555],[20.5111,47.9293,229.7548],[20.5117,47.92,194.2857],[20.5145,47.9152,238.53],[20.5123,47.9129,253.3595],[20.4947,47.9087,245.7527],[20.4927,47.9005,222.441],[20.49,47.8987,198.4947],[20.4535,47.8973,236.9624],[20.4455,47.8898,203.8981],[20.4376,47.885,236.75],[20.4361,47.8773,230.0083],[20.4428,47.8705,195.7632],[20.4491,47.8666,225.2447],[20.4788,47.8614,178.4824],[20.4919,47.8563,181.0303],[20.5005,47.8452,172.8119],[20.5052,47.8363,158.7738],[20.5051,47.8323,153.9459],[20.5016,47.8262,133.1525],[20.4997,47.8082,124.013],[20.5111,47.7911,119.4854],[20.5332,47.7683,109.6707],[20.5448,47.7619,105.9073],[20.5686,47.7554,102.0774],[20.576,47.7487,101.338],[20.5913,47.7395,97.8823],[20.5911,47.7362,97.6803],[20.5828,47.7324,98.0148],[20.577,47.7275,97.5895],[20.5769,47.7187,98.4244],[20.5824,47.7119,96.2446],[20.5875,47.7085,95.7637],[20.6014,47.7034,93.4991],[20.6208,47.6928,93.7495],[20.6352,47.6907,93.1911],[20.6617,47.6934,92.6844],[20.6744,47.6971,89.6791],[20.7212,47.7004,90.8416],[20.729,47.6897,90.1796],[20.7361,47.6851,88.9858],[20.7588,47.6763,88.5412],[20.768,47.6752,103.004],[20.7752,47.6868,89.0768],[20.7874,47.6939,88.1156],[20.7977,47.6958,88.1401],[20.8179,47.6845,89.1412],[20.8288,47.672,105.5391],[20.83,47.6684,96.8855],[20.8367,47.6671,99.7713],[20.8416,47.664,101.8395],[20.8527,47.6468,88.3276],[20.8671,47.6409,89.3473],[20.8728,47.6406,90.4818],[20.8768,47.6433,86.7173],[20.8776,47.6471,89.6212],[20.8733,47.6564,89.0363],[20.8578,47.6659,107.3382],[20.8548,47.6697,98.7082],[20.855,47.6742,112.1971],[20.8595,47.6821,89.7393],[20.8633,47.6826,91.8345],[20.8842,47.6752,103.051],[20.8893,47.6749,89.0558],[20.8916,47.6778,93.8079],[20.8917,47.6946,99.927],[20.8933,47.6975,93.0002],[20.8973,47.6974,88.8965],[20.9128,47.6908,88.0],[20.9299,47.6924,97.9154],[20.9319,47.6935,89.5999],[20.9345,47.7013,102.3665],[20.9381,47.7066,100.5918],[20.9463,47.7147,98.9297],[20.9577,47.7172,94.6395],[20.9742,47.7128,89.3551],[20.984,47.7148,89.9866],[20.9864,47.7174,99.1088],[20.987,47.7212,93.0375],[20.9881,47.7438,90.1545],[20.9851,47.7488,98.0597],[20.9869,47.7514,91.8935],[20.9929,47.7533,89.3007],[21.013,47.7551,90.4146],[21.0283,47.7487,90.51],[21.0321,47.7493,89.4996],[21.0385,47.7651,90.1751],[21.0493,47.7718,89.7125],[21.0543,47.782,90.2743],[21.0563,47.7995,90.6095],[21.0715,47.8198,89.5089],[21.0702,47.8225,89.5898],[21.0559,47.8301,94.798]]]]}}