{"type": "Feature","id": "3168","bbox": [20.0383,47.67234,22.15826,48.56923],"geometry": {"type": "Polygon","coordinates": [[[20.98149,48.51686,296.7077],[20.94583,48.51898,255.1238],[20.89137,48.5411,261.5626],[20.85995,48.54332,196.1373],[20.84548,48.54582,220.4913],[20.81581,48.56381,165.1659],[20.80031,48.56923,326.5124],[20.78408,48.56905,415.5828],[20.57252,48.53657,449.3156],[20.51051,48.53378,459.1909],[20.48167,48.52608,454.6473],[20.48054,48.51854,452.4018],[20.48023,48.51022,427.8056],[20.48219,48.49288,347.1902],[20.48281,48.48937,351.7585],[20.48291,48.48583,389.7255],[20.4825,48.48226,441.9707],[20.48167,48.47875,390.6992],[20.46824,48.46539,403.0373],[20.46597,48.46379,399.2452],[20.43558,48.44239,364.116],[20.42059,48.42924,341.6808],[20.40902,48.41371,297.7036],[20.37016,48.33434,220.1152],[20.34928,48.30548,163.5399],[20.32427,48.27995,164.8039],[20.29523,48.26041,225.5163],[20.27238,48.25246,185.2831],[20.26029,48.25589,193.5611],[20.24903,48.26419,274.8318],[20.22908,48.2709,218.547],[20.21781,48.2676,231.8511],[20.18764,48.24899,293.6452],[20.17089,48.24403,272.9632],[20.15332,48.24527,235.1026],[20.14309,48.24781,296.7408],[20.13451,48.24667,392.983],[20.12201,48.23675,258.6116],[20.11808,48.22972,252.2614],[20.1126,48.21174,302.8903],[20.10526,48.2028,291.0353],[20.097,48.19843,277.1779],[20.07808,48.19355,282.7268],[20.0383,48.17723,287.7195],[20.04863,48.16786,348.7362],[20.07664,48.15443,346.3611],[20.09586,48.14114,398.4173],[20.11818,48.14786,377.7406],[20.14206,48.13422,397.0432],[20.16107,48.11823,444.7683],[20.1772,48.1196,364.1431],[20.19146,48.11618,395.9203],[20.20448,48.10192,329.3776],[20.22092,48.09288,446.6379],[20.25606,48.09283,375.7551],[20.28468,48.11001,374.8291],[20.32075,48.11159,398.3678],[20.35476,48.09505,417.4795],[20.41842,48.1514,358.2656],[20.47281,48.1134,549.8024],[20.5055,48.1395,610.0216],[20.55862,48.14203,584.996],[20.60667,48.16985,283.7313],[20.66557,48.20002,201.8224],[20.71109,48.22279,133.5534],[20.75409,48.20255,122.6515],[20.7895,48.20255,120.1538],[20.82744,48.18738,123.0501],[20.85526,48.15956,131.0074],[20.8755,48.12162,117.0931],[20.8755,48.09126,118.4253],[20.89826,48.06344,108.5131],[20.90332,48.04068,108.5164],[20.87044,48.01538,104.1307],[20.81985,48.00527,137.3732],[20.77938,48.00274,215.1897],[20.72627,48.0255,197.4744],[20.67315,48.05079,398.2965],[20.64027,48.08115,591.2456],[20.57957,48.07862,724.8662],[20.52898,48.07103,804.218],[20.4918,48.05495,665.6228],[20.47878,48.01495,530.0911],[20.43434,47.98376,250.5762],[20.42204,47.96911,262.14],[20.42886,47.9486,385.5848],[20.44747,47.93434,324.8846],[20.4609,47.91883,272.0544],[20.46504,47.89925,221.0353],[20.45821,47.88997,227.0143],[20.4484,47.88064,187.1251],[20.45677,47.87196,206.5664],[20.46452,47.86824,185.2445],[20.52849,47.79192,116.7211],[20.5748,47.75533,102.9547],[20.58813,47.72443,95.6147],[20.6089,47.70107,93.3909],[20.71856,47.68603,92.5237],[20.7415,47.67595,97.5347],[20.77406,47.67234,98.5812],[20.79153,47.67745,108.404],[20.81923,47.67936,87.7755],[20.89209,47.68427,100.2783],[20.94222,47.71859,94.425299999999993],[20.94852,47.72835,93.6481],[20.95472,47.73362,90.7824],[20.9786,47.76546,104.3708],[20.97901,47.77303,99.5171],[21.03389,47.77982,94.1012],[21.0341,47.78592,90.7275],[21.02852,47.81628,90.5141],[21.04939,47.83134,96.1549],[21.05528,47.8392,92.417],[21.05838,47.85496,92.288],[21.05807,47.87351,94.2868],[21.0557,47.88297,94.535],[21.05642,47.89051,94.9142],[21.06521,47.90338,97.1283],[21.09807,47.92958,98.1746],[21.10624,47.93811,104.2986],[21.11161,47.95196,92.2966],[21.11368,47.96054,92.3669],[21.11998,47.98674,91.8935],[21.1267,47.99896,92.2385],[21.13776,48.00676,111.5234],[21.18127,48.02627,108.5057],[21.1882,48.02715,114.6327],[21.21269,48.02627,111.3955],[21.22261,48.02895,107.6722],[21.22664,48.0351,118.6204],[21.22964,48.04198,112.1322],[21.23656,48.04676,97.3246],[21.25289,48.04753,105.826],[21.26333,48.04167,90.0],[21.27232,48.03322,97.2767],[21.28431,48.02627,95.7963],[21.29858,48.02399,96.225],[21.34643,48.02627,93.0],[21.33899,48.02627,94.2907],[21.3733,48.02704,95.8026],[21.40689,48.03371,115.4666],[21.43242,48.05056,95.1303],[21.44265,48.08182,95.7989],[21.43903,48.09546,99.7584],[21.43169,48.10327,99.743],[21.42632,48.11239,96.1149],[21.42839,48.12993,98.1772],[21.43531,48.14352,96.9697],[21.44689,48.15789,98.0806],[21.46125,48.17008,95.0],[21.47614,48.17711,111.2657],[21.49464,48.17913,100.274],[21.55872,48.17711,99.569],[21.59582,48.18068,102.1247],[21.61277,48.18032,108.7147],[21.65215,48.16776,122.1414],[21.67116,48.16548,107.1417],[21.69018,48.16745,97.7589],[21.76625,48.19944,99.0806],[21.77844,48.20161,99.3125],[21.79446,48.20197,97.0254],[21.81307,48.2121,96.023],[21.83136,48.22465,97.3112],[21.84604,48.23235,99.5294],[21.90919,48.23504,98.6381],[21.92862,48.23979,100.4009],[21.94319,48.2478,97.4058],[21.97151,48.26977,101.346],[22.0053,48.30315,102.2814],[22.01119,48.30744,106.729],[22.02277,48.30832,102.2264],[22.0422,48.30132,100.1237],[22.0515,48.3,102.2129],[22.0792,48.31152,103.0713],[22.09997,48.33447,104.2227],[22.13718,48.38692,105.7726],[22.15826,48.40222,105.2315],[22.15651,48.40206,96.0],[22.13284,48.4048,104.3054],[22.11393,48.38865,103.4648],[22.09646,48.37943,101.2502],[22.07786,48.37581,101.2416],[22.01801,48.37974,97.9864],[21.99993,48.37896,98.1051],[21.98153,48.37472,105.0169],[21.92934,48.37291,98.6171],[21.91477,48.36909,98.3214],[21.88428,48.35746,98.231],[21.84118,48.35317,99.3009],[21.7894,48.33553,97.5484],[21.75901,48.33377,96.7125],[21.7277,48.3409,96.7933],[21.70124,48.35395,97.2013],[21.67757,48.37235,97.7457],[21.62155,48.42965,143.9106],[21.61339,48.44035,159.8187],[21.60037,48.48164,137.8609],[21.59168,48.49301,176.9055],[21.57463,48.49557,195.1102],[21.53773,48.49523,275.9708],[21.52182,48.50009,440.6608],[21.5151,48.50712,370.0858],[21.506,48.5265,349.7697],[21.499389999999998,48.53507,456.7938],[21.49081,48.54027,322.2738],[21.47273,48.545,588.6072],[21.43914,48.55833,583.71],[21.42456,48.56127,587.7767],[21.37268,48.55035,448.6628],[21.33857,48.54985,220.0252],[21.32183,48.54758,165.8161],[21.3023,48.53991,162.1219],[21.29392,48.53058,158.5],[21.28824,48.51993,160.3472],[21.27656,48.50872,163.7813],[21.26178,48.50319,156.3994],[21.25041,48.5065,155.9586],[21.23801,48.51345,156.0748],[21.21992,48.51872,196.6449],[21.18675,48.51371,270.6665],[21.10934,48.48911,306.0172],[21.08401,48.49301,258.5064],[21.06386,48.50624,262.4884],[21.03596,48.51464,248.7212],[21.0065,48.51815,277.5449],[20.98149,48.51686,296.7077]]]}
,"properties": {"ISO3166-1-Alpha-3": "HUN","country": "Hungary","fill": "#F0F","name": "Borsod-Abaúj-Zemplén","area_km2": 6723.376,"hist_schema_id": "Elevation0-9000","hist_area_km2": {"50": 0.683,"75": 3.149,"100": 2162.392,"125": 556.611,"150": 537.919,"175": 474.931,"200": 472.095,"225": 467.597,"250": 424.113,"275": 346.198,"300": 249.667,"325": 192.56,"350": 168.478,"375": 132.665,"400": 99.704,"425": 78.716,"450": 62.371,"475": 54.193,"500": 49.035,"525": 42.053,"550": 36.525,"575": 30.495,"600": 25.017,"625": 18.868,"650": 13.601,"675": 10.611,"700": 6.546,"725": 3.443,"750": 1.864,"775": 0.764,"800": 0.298,"825": 0.128,"850": 0.057}}}