{"type":"Feature","properties":{"GID_2":"HUN.4.2_1","GID_0":"HUN","country":"Hungary","GID_1":"HUN.4_1","province":"Borsod-Abaúj-Zemplén","NL_NAME_1":"NA","county":"Bodrogközi","VARNAME_2":"NA","NL_NAME_2":"NA","TYPE_2":"Kistérség","ENGTYPE_2":"Subregion","CC_2":"NA","HASC_2":"NA","name":"Bodrogközi.county"},
"geometry":{"type": "MultiPolygon","coordinates": [[[[21.6885,48.1987,93.8389],[21.734,48.21,95.7593],[21.7454,48.2103,96.5776],[21.7553,48.208,96.4997],[21.7612,48.2088,95.2112],[21.7753,48.2171,95.3481],[21.7854,48.2256,95.4144],[21.8189,48.245,97.2231],[21.8451,48.2437,97.3221],[21.8567,48.2477,97.3848],[21.8713,48.2481,97.6166],[21.8825,48.2551,98.2786],[21.9049,48.2512,98.2577],[21.9142,48.2575,97.6553],[21.9228,48.2685,97.3525],[21.9403,48.2786,98.3606],[21.9573,48.2978,96.824],[21.9686,48.3043,97.4093],[21.9941,48.3126,98.0514],[22.0184,48.3118,104.6258],[22.0332,48.3085,102.1557],[22.042,48.3099,102.4076],[22.0518,48.315,100.4851],[22.0641,48.3251,100.1217],[22.0899,48.3353,104.4264],[22.1059,48.3498,106.8297],[22.134,48.3615,101.9798],[22.1372,48.3669,101.8653],[22.1338,48.3731,102.5156],[22.122,48.3797,97.9762],[22.1238,48.3815,103.0775],[22.1201,48.3804,104.0038],[22.112,48.3825,102.6937],[22.101,48.3795,102.9182],[22.0939,48.3844,101.6357],[22.088,48.3784,100.8319],[22.0835,48.3762,100.6598],[22.0815,48.383,101.3355],[22.0766,48.3874,101.1166],[22.0708,48.3869,101.4939],[22.0681,48.3835,101.5026],[22.0565,48.3826,99.0184],[22.0558,48.3797,98.8389],[22.0521,48.3791,99.1174],[22.0433,48.3846,99.8098],[22.0347,48.3858,98.9751],[22.0251,48.3927,99.1531],[22.0191,48.3918,99.4474],[22.0179,48.3881,99.0406],[22.0077,48.383,99.9678],[21.9975,48.3805,98.0906],[21.9784,48.3807,98.1713],[21.9734,48.3833,99.004],[21.9648,48.3798,99.7599],[21.9576,48.3829,100.138],[21.9501,48.3775,100.5972],[21.9444,48.3766,98.4553],[21.9386,48.3725,98.4842],[21.9311,48.3748,98.854],[21.9331,48.3644,98.6407],[21.922,48.3664,98.8912],[21.9161,48.3693,98.2837],[21.9095,48.3682,98.018],[21.9063,48.3708,97.8673],[21.9027,48.3658,98.537],[21.8934,48.3656,98.4601],[21.8948,48.3711,97.6594],[21.8874,48.3684,98.4068],[21.8821,48.3638,97.8851],[21.8791,48.3578,98.2766],[21.8716,48.3604,98.891],[21.8669,48.3544,97.9204],[21.8602,48.3681,97.6708],[21.8472,48.3672,95.8782],[21.84,48.3649,97.5886],[21.8391,48.3593,100.6207],[21.8404,48.3355,99.321],[21.8285,48.3342,97.3075],[21.8149,48.3397,96.1712],[21.8049,48.3419,96.7208],[21.7734,48.3408,96.5939],[21.7579,48.3478,96.6217],[21.7457,48.3504,96.8443],[21.7329,48.3499,96.4716],[21.7201,48.3579,97.4138],[21.7187,48.3668,97.0229],[21.7118,48.368899999999996,97.7846],[21.6954,48.3604,98.5772],[21.6936,48.3514,97.0476],[21.6879,48.3468,98.9381],[21.6787,48.3432,104.3642],[21.6617,48.3408,105.6502],[21.6708,48.3324,100.2608],[21.6705,48.3286,97.3951],[21.6722,48.3267,97.3107],[21.6783,48.326,96.6471],[21.6899,48.3292,97.0918],[21.6954,48.3267,96.2403],[21.6979,48.3235,96.1579],[21.6938,48.3159,95.5518],[21.6967,48.3099,95.5433],[21.6963,48.3073,95.5855],[21.6851,48.3032,94.7579],[21.682,48.3005,95.259],[21.6792,48.2794,95.4172],[21.6742,48.2729,95.1494],[21.6729,48.2689,95.1926],[21.6738,48.2648,94.9618],[21.6881,48.2452,93.9535],[21.687,48.2427,94.4167],[21.6785,48.237,93.9927],[21.6769,48.2287,94.2932],[21.6829,48.2116,94.6525],[21.6832,48.2051,94.6042],[21.6885,48.1987,93.8389]]]]}}