{"type":"Feature","properties":{"GID_2":"HUN.6.1_1","GID_0":"HUN","country":"Hungary","GID_1":"HUN.6_1","province":"Csongrád","NL_NAME_1":"NA","county":"Csongrádi","VARNAME_2":"NA","NL_NAME_2":"NA","TYPE_2":"Kistérség","ENGTYPE_2":"Subregion","CC_2":"NA","HASC_2":"NA","name":"Csongrádi.county"},
"geometry":{"type": "MultiPolygon","coordinates": [[[[19.9852,46.597,88.2075],[20.0287,46.5673,85.122],[20.0379,46.5556,81.6796],[20.0423,46.5533,81.4204],[20.0493,46.5543,82.2469],[20.0546,46.5633,82.5801],[20.0576,46.5647,82.8486],[20.0654,46.5645,81.9744],[20.0852,46.5597,80.0],[20.0934,46.5643,83.9982],[20.1112,46.5655,84.2165],[20.1159,46.5699,82.3275],[20.1278,46.566,81.9387],[20.1386,46.5706,80.6305],[20.1344,46.5735,79.4507],[20.1304,46.5846,79.3003],[20.1306,46.5917,81.9765],[20.1343,46.5937,79.0882],[20.1495,46.5943,79.0435],[20.1548,46.5991,78.5597],[20.168,46.6207,79.7679],[20.1695,46.6367,81.9948],[20.1726,46.6386,81.3053],[20.1803,46.6381,82.7105],[20.1851,46.643,79.6057],[20.185,46.6484,85.3754],[20.1782,46.6581,79.1612],[20.1817,46.6651,79.5058],[20.1884,46.6687,79.7957],[20.2083,46.669,80.6832],[20.2115,46.6721,81.4788],[20.2115,46.6779,77.1557],[20.2096,46.6811,81.1543],[20.1912,46.6893,81.113],[20.1866,46.6992,80.1381],[20.1858,46.7168,77.0],[20.1746,46.7271,80.1741],[20.1763,46.731,79.34],[20.1941,46.7441,85.033],[20.1929,46.7462,83.6058],[20.1829,46.7512,80.1608],[20.1826,46.771,79.6917],[20.1655,46.7641,80.0408],[20.1565,46.7623,80.1825],[20.129,46.7776,80.358],[20.1151,46.7815,80.8688],[20.1088,46.7789,81.0626],[20.1066,46.7702,81.7828],[20.1013,46.7648,79.9245],[20.0802,46.7679,85.0324],[20.0781,46.7715,87.9898],[20.0785,46.7904,79.1544],[20.0751,46.7932,80.8741],[20.0575,46.8006,82.3527],[20.0583,46.8153,80.4482],[20.0548,46.8174,83.9625],[20.0479,46.8126,82.0949],[20.0346,46.7962,80.9136],[20.0093,46.7704,93.4198],[19.9927,46.7577,89.075],[19.9618,46.7392,88.052],[19.9591,46.7362,88.083],[19.9592,46.733,88.3864],[19.9674,46.7223,86.9694],[19.9912,46.7119,87.0743],[19.9944,46.7078,86.3758],[19.9937,46.6847,85.5538],[19.9778,46.6639,84.7969],[19.9766,46.6598,84.6205],[19.9771,46.6419,83.0],[19.9854,46.628,85.9007],[19.9852,46.597,88.2075]]]]}}