{"type": "Feature","bbox": [21.1046,47.3469,21.5567,47.5762],"geometry": {"type": "MultiPolygon","coordinates": [[[[21.1046,47.4925,87.3643],[21.1398,47.4774,86.7684],[21.1458,47.4771,87.1193],[21.1554,47.4797,87.1271],[21.1613,47.479,87.4774],[21.1807,47.4667,88.7166],[21.1906,47.4656,90.8026],[21.2111,47.47,89.9181],[21.2124,47.4821,89.6106],[21.2192,47.4926,89.2844],[21.2161,47.4988,89.1187],[21.2171,47.5024,88.7741],[21.2247,47.5036,88.3378],[21.2418,47.5025,88.6149],[21.2584,47.484,89.8142],[21.258,47.4784,89.393],[21.2509,47.4716,88.9018],[21.2509,47.4673,90.0757],[21.2695,47.4627,88.7012],[21.275,47.4574,89.2063],[21.2752,47.4526,89.0482],[21.2681,47.4387,90.4308],[21.2753,47.4277,90.7248],[21.2773,47.418,89.9255],[21.3004,47.4094,90.6257],[21.3148,47.3941,91.0184],[21.3424,47.3842,90.4355],[21.3599,47.3699,91.1017],[21.3667,47.368899999999996,92.0534],[21.3774,47.3717,92.3096],[21.3851,47.3713,92.6075],[21.3897,47.367,92.3952],[21.3924,47.3599,91.3264],[21.3967,47.3554,91.3309],[21.4122,47.354,91.4539],[21.4353,47.3469,91.7541],[21.459,47.347,92.3009],[21.4724,47.3545,93.5735],[21.4996,47.3616,92.9711],[21.5038,47.372,93.9371],[21.5263,47.3771,95.4043],[21.5281,47.3933,94.2213],[21.5325,47.3978,94.9831],[21.5482,47.4005,98.6763],[21.5556,47.4132,99.6797],[21.5549,47.4154,99.6592],[21.5458,47.4191,98.1592],[21.5441,47.4217,97.7566],[21.5461,47.4243,97.2244],[21.5549,47.4257,100.6852],[21.5567,47.4287,100.8264],[21.5559,47.4778,107.4574],[21.5497,47.484,104.2692],[21.5314,47.4941,109.162],[21.5295,47.5211,115.3908],[21.524,47.5227,115.0056],[21.4904,47.5225,115.9066],[21.4712,47.5278,117.8629],[21.4336,47.5285,112.5828],[21.4285,47.5344,101.3935],[21.4282,47.5424,110.4838],[21.4413,47.5665,118.9636],[21.4317,47.5703,118.979],[21.4134,47.5711,115.0157],[21.4018,47.5735,110.6457],[21.3762,47.5736,99.8032],[21.3647,47.5761,95.4593],[21.3488,47.5762,94.9526],[21.3428,47.5743,91.5917],[21.3345,47.5635,91.3104],[21.3309,47.5622,90.4436],[21.2723,47.5725,87.9965],[21.238,47.5721,88.2195],[21.229,47.5652,87.9079],[21.2152,47.5578,88.3427],[21.205,47.5469,87.4933],[21.1881,47.5459,87.8487],[21.178,47.5435,87.403],[21.1573,47.5428,87.0589],[21.1294,47.5331,87.1497],[21.1166,47.5168,87.2028],[21.1062,47.5109,87.1175],[21.1046,47.4925,87.3643]]]]}
,"properties": {"GID_2": "HUN.9.7_1","GID_0": "HUN","country": "Hungary","GID_1": "HUN.9_1","province": "Hajdú-Bihar","NL_NAME_1": "NA","county": "Hajdúszoboszló","VARNAME_2": "NA","NL_NAME_2": "NA","TYPE_2": "Kistérség","ENGTYPE_2": "Subregion","CC_2": "NA","HASC_2": "NA","name": "Hajdúszoboszló.county","area_km2": 502.9494,"hist_schema_id": "Elevation0-9000","hist_area_km2": {"75": 29.6448,"100": 444.4964,"125": 28.8081}}}