{"type":"Feature","properties":{"GID_2":"HUN.7.9_1","GID_0":"HUN","country":"Hungary","GID_1":"HUN.7_1","province":"Fejér","NL_NAME_1":"NA","county":"Sárbogárd","VARNAME_2":"NA","NL_NAME_2":"NA","TYPE_2":"Kistérség","ENGTYPE_2":"Subregion","CC_2":"NA","HASC_2":"NA","name":"Sárbogárd.county"},
"geometry":{"type": "MultiPolygon","coordinates": [[[[18.4622,46.9151,153.9153],[18.4765,46.8951,152.0573],[18.4835,46.8888,148.5877],[18.492,46.8778,152.9247],[18.4974,46.8681,158.6055],[18.4972,46.8643,156.7074],[18.493,46.8628,146.3544],[18.4633,46.8619,130.4936],[18.4524,46.8575,131.0293],[18.4432,46.849,126.3759],[18.4264,46.8472,132.2871],[18.4162,46.8395,138.3032],[18.3853,46.8391,141.2468],[18.3802,46.8369,146.7707],[18.3901,46.8236,150.5613],[18.405,46.8167,152.2869],[18.4109,46.8043,162.1472],[18.4182,46.7938,153.1861],[18.4152,46.7816,149.998],[18.4255,46.7697,125.7441],[18.4213,46.7598,103.8488],[18.4368,46.7493,97.6903],[18.4526,46.746,97.9815],[18.4679,46.749,99.7368],[18.5112,46.7497,97.7232],[18.5129,46.7512,97.2412],[18.5127,46.7535,97.4662],[18.5061,46.756,102.4707],[18.5048,46.7582,105.1636],[18.5099,46.7688,128.7351],[18.5287,46.7708,131.4312],[18.5388,46.7814,147.2392],[18.5438,46.7844,142.7246],[18.5575,46.7843,133.3252],[18.5626,46.7793,133.9697],[18.5689,46.7675,118.0914],[18.5796,46.76,95.8707],[18.5985,46.7536,95.777],[18.6178,46.7517,95.7982],[18.6231,46.7435,95.694],[18.6244,46.7347,95.3902],[18.6283,46.7259,95.9431],[18.628,46.7171,95.1672],[18.6243,46.7091,95.2585],[18.6247,46.6998,94.2601],[18.6331,46.6953,95.2127],[18.6476,46.6924,96.725],[18.6777,46.7015,154.2191],[18.6855,46.7109,161.4459],[18.6923,46.7154,153.5002],[18.7214,46.7223,143.1419],[18.729,46.7255,128.4721],[18.7305,46.7302,133.0238],[18.7295,46.7384,132.8781],[18.7192,46.7471,118.0223],[18.7172,46.7505,118.2238],[18.7175,46.7588,133.6207],[18.7217,46.7623,139.1632],[18.7492,46.7714,145.6818],[18.7731,46.7714,192.477],[18.7871,46.7685,189.4511],[18.7934,46.7707,187.3905],[18.7939,46.7846,177.7233],[18.7972,46.7905,174.0589],[18.7926,46.7977,168.7125],[18.7661,46.8276,152.5472],[18.7465,46.8449,143.2063],[18.742,46.8514,146.6076],[18.74,46.8626,146.763],[18.729,46.874,158.7156],[18.7154,46.8927,164.82],[18.7142,46.9229,168.6899],[18.7102,46.9311,161.2283],[18.7092,46.946,161.6166],[18.7062,46.9536,159.8875],[18.7345,46.9579,134.4153],[18.7522,46.9583,133.2517],[18.7562,46.9612,135.5905],[18.7523,46.9695,141.5498],[18.7513,46.9782,135.5532],[18.7475,46.9861,131.3797],[18.7452,46.9993,125.6159],[18.7322,47.0158,120.3748],[18.7151,47.0303,124.3572],[18.6895,47.0124,116.7987],[18.6694,47.0019,119.197],[18.654,46.9982,141.5171],[18.6359,46.9974,139.1964],[18.6227,46.9934,142.7628],[18.6223,46.9768,132.8747],[18.6191,46.9707,133.5254],[18.619,46.9673,126.5031],[18.6345,46.9513,118.5429],[18.623,46.9292,109.1037],[18.6197,46.9287,109.0939],[18.6001,46.9334,103.4616],[18.5853,46.9335,101.6605],[18.5817,46.9315,101.6737],[18.5761,46.9199,101.2767],[18.5618,46.9191,98.6866],[18.5439,46.9231,98.2419],[18.5418,46.9388,98.4975],[18.5379,46.9436,98.2459],[18.5329,46.9446,102.8243],[18.5297,46.9435,103.3314],[18.5261,46.9387,98.1215],[18.5257,46.923,98.1476],[18.5215,46.9189,100.5206],[18.4906,46.9101,143.0008],[18.4877,46.9113,144.9355],[18.4787,46.9227,149.6276],[18.4736,46.9239,145.4608],[18.4679,46.9218,148.7251],[18.4622,46.9151,153.9153]]]]}}