{"type":"Feature","properties":{"GID_2":"HUN.7.1_1","GID_0":"HUN","country":"Hungary","GID_1":"HUN.7_1","province":"Fejér","NL_NAME_1":"NA","county":"Aba","VARNAME_2":"NA","NL_NAME_2":"NA","TYPE_2":"Kistérség","ENGTYPE_2":"Subregion","CC_2":"NA","HASC_2":"NA","name":"Aba.county"},
"geometry":{"type": "MultiPolygon","coordinates": [[[[18.6529,47.1126,121.892],[18.6396,47.1338,137.0733],[18.6294,47.1433,131.7207],[18.6128,47.1542,125.0949],[18.603,47.1631,123.4985],[18.5981,47.163,116.2267],[18.5876,47.1567,114.981],[18.5637,47.1526,104.9583],[18.5498,47.1483,104.3094],[18.5416,47.151,114.4009],[18.5345,47.1598,105.1383],[18.5212,47.1474,122.7543],[18.5142,47.1374,127.2479],[18.5042,47.1306,124.5372],[18.477,47.1213,124.9368],[18.451,47.1205,116.5809],[18.4219,47.1123,121.7988],[18.4049,47.1116,115.9065],[18.4025,47.1097,113.1315],[18.4022,47.103,101.7049],[18.4005,47.1008,101.9668],[18.3768,47.0964,118.0533],[18.3674,47.093,126.476],[18.3604,47.0884,143.513],[18.3568,47.0824,145.6141],[18.3579,47.0656,146.2183],[18.3664,47.0495,148.8289],[18.3601,47.0391,153.1874],[18.3597,47.0357,152.2014],[18.3678,47.0208,149.8191],[18.3534,47.0135,145.7211],[18.3521,47.0102,146.1743],[18.3529,47.0053,146.8746],[18.3621,46.9903,146.69],[18.3653,46.9884,147.2782],[18.3741,46.9904,144.2253],[18.3913,46.9983,154.7688],[18.4077,47.0036,149.6448],[18.4178,47.0008,147.1686],[18.4319,46.9915,140.2939],[18.4331,46.9883,135.8825],[18.4303,46.9831,143.4192],[18.4301,46.9789,148.565],[18.4342,46.9714,142.1012],[18.4351,46.9624,137.9515],[18.4313,46.9476,143.547],[18.4358,46.9375,137.8661],[18.4364,46.9133,127.2869],[18.4389,46.9097,127.1442],[18.4452,46.9096,134.6992],[18.4622,46.9151,153.9153],[18.4679,46.9218,148.7251],[18.4736,46.9239,145.4608],[18.4787,46.9227,149.6276],[18.4877,46.9113,144.9355],[18.4906,46.9101,143.0008],[18.5215,46.9189,100.5206],[18.5257,46.923,98.1476],[18.5261,46.9387,98.1215],[18.5297,46.9435,103.3314],[18.5329,46.9446,102.8243],[18.5379,46.9436,98.2459],[18.5418,46.9388,98.4975],[18.5432,46.9243,98.6186],[18.5463,46.9218,98.2273],[18.5641,46.9188,97.9393],[18.5743,46.9191,101.2767],[18.5771,46.9211,101.1155],[18.5827,46.9325,102.4031],[18.5885,46.9338,101.6525],[18.6001,46.9334,103.4616],[18.6223,46.9288,109.1037],[18.6345,46.9513,118.5429],[18.619,46.9673,126.5031],[18.6191,46.9707,133.5254],[18.6223,46.9768,132.8747],[18.6227,46.9934,142.7628],[18.6359,46.9974,139.1964],[18.654,46.9982,141.5171],[18.6694,47.0019,119.197],[18.6895,47.0124,116.7987],[18.7151,47.0303,124.3572],[18.6949,47.0541,123.7391],[18.6727,47.0688,130.256],[18.6579,47.0813,122.0471],[18.6533,47.0871,132.5915],[18.6431,47.108,131.9433],[18.6449,47.1105,133.1857],[18.6529,47.1126,121.892]]]]}}