{"type": "Feature","bbox": [20.5423,47.1321,21.0343,47.4793],"geometry": {"type": "MultiPolygon","coordinates": [[[[21.0037,47.2388,84.9057],[21.0066,47.2452,84.4718],[21.0172,47.2556,84.3428],[21.0219,47.2624,84.3548],[21.0224,47.275,84.7682],[21.0263,47.2846,84.8563],[21.0261,47.3267,85.6339],[21.0343,47.3479,90.8754],[21.029,47.36,85.8211],[21.0176,47.3782,86.4314],[21.0166,47.3916,86.0961],[21.0127,47.3999,86.1513],[21.0121,47.4147,85.9131],[21.0001,47.4315,86.0659],[20.999,47.4512,86.4434],[20.994,47.4639,86.4786],[20.9903,47.4694,86.295],[20.9546,47.4704,86.4614],[20.9402,47.4679,86.1404],[20.9215,47.4681,86.211],[20.8937,47.4784,88.5461],[20.8859,47.4793,89.542],[20.8703,47.4718,89.8089],[20.8577,47.4691,89.0658],[20.8529,47.4695,89.9976],[20.840699999999998,47.4758,89.886],[20.8283,47.4696,88.9119],[20.8146,47.4665,90.072],[20.797,47.4679,89.1795],[20.781,47.4586,87.1646],[20.755,47.4545,90.5522],[20.7434,47.4502,88.9326],[20.7373,47.4408,87.7873],[20.7375,47.435,88.045],[20.741,47.429,87.1799],[20.741,47.4251,87.4294],[20.7339,47.4156,88.1256],[20.7322,47.4027,90.5729],[20.7205,47.3829,87.7082],[20.7244,47.3796,87.2857],[20.7417,47.3742,87.5972],[20.7661,47.3727,87.1548],[20.7708,47.3678,86.9183],[20.7758,47.3548,87.7488],[20.7755,47.3366,86.5564],[20.7708,47.3275,86.2432],[20.7572,47.3217,87.1439],[20.7541,47.3184,86.0584],[20.7539,47.2815,84.1629],[20.7516,47.2783,84.2413],[20.7382,47.282,84.7092],[20.7221,47.2923,84.9433],[20.7081,47.2986,85.8658],[20.6963,47.3092,85.7526],[20.6778,47.3158,84.8046],[20.6642,47.327,85.5797],[20.6521,47.3309,85.7966],[20.6451,47.3303,86.8875],[20.6269,47.3229,87.3467],[20.6059,47.3222,87.6665],[20.5969,47.3201,87.1743],[20.5784,47.3252,89.1997],[20.5573,47.3249,87.2779],[20.5469,47.3218,90.6495],[20.5465,47.316,88.4779],[20.5497,47.3099,87.5183],[20.5502,47.3055,87.3738],[20.5423,47.2934,87.3358],[20.5448,47.291,87.2666],[20.5636,47.2902,86.6508],[20.6005,47.2761,87.0596],[20.6019,47.2723,87.2148],[20.6019,47.2594,86.1579],[20.6057,47.2502,84.9898],[20.6059,47.2244,86.3354],[20.6109,47.2112,87.004],[20.621,47.2006,86.0734],[20.6224,47.1971,85.8298],[20.6218,47.1897,85.3811],[20.6159,47.1806,84.9687],[20.6079,47.1779,85.214],[20.5922,47.1795,85.1367],[20.5885,47.1775,85.1755],[20.5846,47.1724,85.4915],[20.5823,47.156,85.4386],[20.5786,47.1491,85.4175],[20.5771,47.1338,85.2157],[20.6067,47.1345,84.6754],[20.6219,47.1321,84.5692],[20.6249,47.1335,84.6329],[20.6281,47.1398,84.9694],[20.645,47.141,85.9262],[20.6466,47.1431,85.9488],[20.6434,47.1511,86.4873],[20.6445,47.1705,85.7028],[20.6659,47.176,86.498],[20.6768,47.1822,86.1734],[20.6819,47.1834,86.7238],[20.7109,47.1804,86.6917],[20.7192,47.1701,84.4993],[20.7394,47.1648,84.8172],[20.7854,47.1642,84.2581],[20.8129,47.1539,84.4078],[20.8317,47.153,84.0855],[20.8521,47.1497,83.8729],[20.8521,47.1611,83.8988],[20.8589,47.1665,83.4111],[20.8774,47.1754,83.378],[20.8948,47.1812,83.8827],[20.9347,47.1887,84.5402],[20.9469,47.1961,83.4],[20.9598,47.2082,83.9204],[20.9669,47.2279,83.5017],[20.973,47.235,83.2092],[20.9906,47.2394,84.5978],[21.0037,47.2388,84.9057]]]]}
,"properties": {"GID_2": "HUN.11.2_1","GID_0": "HUN","country": "Hungary","GID_1": "HUN.11_1","province": "Jász-Nagykun-Szolnok","NL_NAME_1": "NA","county": "Karcag","VARNAME_2": "Karcagi","NL_NAME_2": "NA","TYPE_2": "Kistérség","ENGTYPE_2": "Subregion","CC_2": "NA","HASC_2": "NA","name": "Karcag.county","area_km2": 837.4737,"hist_schema_id": "Elevation0-9000","hist_area_km2": {"75": 642.2579,"100": 195.2158}}}