{"type":"Feature","properties":{"GID_2":"HUN.14.1_1","GID_0":"HUN","country":"Hungary","GID_1":"HUN.14_1","province":"Pest","NL_NAME_1":"NA","county":"Aszód","VARNAME_2":"Aszódi","NL_NAME_2":"NA","TYPE_2":"Kistérség","ENGTYPE_2":"Subregion","CC_2":"NA","HASC_2":"NA","name":"Aszód.county"},
"geometry":{"type": "MultiPolygon","coordinates": [[[[19.5807,47.745,151.1674],[19.5623,47.7471,161.201],[19.5449,47.7463,173.3886],[19.528199999999998,47.7273,175.9575],[19.5131,47.7259,145.7693],[19.5066,47.7231,166.4567],[19.5034,47.7202,165.7431],[19.5028,47.7168,211.9201],[19.5108,47.7022,194.6236],[19.511,47.6988,203.8887],[19.5073,47.695,226.9818],[19.4985,47.6921,219.0096],[19.482,47.6917,227.0953],[19.4513,47.7024,246.6603],[19.4355,47.7017,216.8402],[19.4316,47.6979,205.3383],[19.4304,47.6853,162.5757],[19.4218,47.6746,153.6532],[19.3894,47.6629,243.5619],[19.3739,47.6425,230.6514],[19.3844,47.6341,232.9848],[19.4036,47.6244,191.0492],[19.4316,47.6134,240.5933],[19.4342,47.6107,250.4669],[19.4353,47.6049,214.9541],[19.4376,47.6031,209.3486],[19.4543,47.6002,241.0494],[19.4808,47.6085,202.0967],[19.4851,47.6072,224.3052],[19.4909,47.6006,176.6486],[19.4973,47.5974,168.5739],[19.5146,47.6001,175.9334],[19.5436,47.5998,200.3399],[19.558,47.5963,168.4229],[19.5657,47.5886,165.6193],[19.5885,47.5732,146.4279],[19.6058,47.5646,132.6868],[19.6098,47.5646,128.6427],[19.6147,47.5699,120.6148],[19.6186,47.5706,120.5549],[19.626,47.5683,118.7824],[19.6385,47.561,116.4824],[19.6471,47.5582,116.4698],[19.6553,47.5578,115.9458],[19.6512,47.5663,115.7627],[19.6496,47.5927,112.4358],[19.6544,47.6032,112.1147],[19.6589,47.6221,115.136],[19.648,47.6348,118.5453],[19.6472,47.6439,120.8314],[19.6456,47.647,120.3152],[19.627,47.6544,126.6096],[19.6111,47.6692,132.5102],[19.6068,47.6786,135.8927],[19.6063,47.6831,138.0947],[19.6071,47.7008,123.6536],[19.6111,47.7086,136.5849],[19.6111,47.7148,134.6779],[19.6024,47.7275,145.5997],[19.5897,47.7343,144.8143],[19.5807,47.745,151.1674]]]]}}