{"type":"Feature","properties":{"ISO3166-1-Alpha-3":"HUN","country":"Hungary","fill":"#000","id":"3159","name":"Zala"},
"geometry":{"type": "Polygon","coordinates": [[[17.16663,46.64925,118.4046],[17.13583,46.68103,105.5846],[17.14865,46.75053,158.612],[17.13573,46.97607,171.8668],[17.13966,46.98866,156.0096],[17.14793,46.99868,147.7906],[17.15309,47.00969,170.955],[17.14679,47.0194,167.2118],[17.12064,47.02716,166.1839],[17.10855,47.03612,170.3254],[17.09801,47.04684,165.7181],[17.0702,47.02039,161.3454],[17.05904,47.02235,160.578],[17.04778,47.02106,162.7925],[17.04085,47.02633,151.6943],[17.03775,47.03439,161.2705],[17.01398,47.03473,160.9472],[17.00034,47.02044,156.592],[17.00457,47.00819,157.3296],[16.99631,46.99739,160.6526],[16.95476,46.98041,168.9362],[16.90866,46.97336,234.0099],[16.88427,46.97589,249.3073],[16.83818,46.96897,178.1036],[16.82681,46.95042,232.3749],[16.808,46.9498,205.6863],[16.78609,46.95504,203.1275],[16.75074,46.93801,242.4986],[16.6508,46.9336,226.4447],[16.61328,46.92122,255.5952],[16.59654,46.90282,246.1402],[16.58465,46.87921,237.3751],[16.56688,46.86081,207.4675],[16.52119,46.83184,267.0694],[16.50083,46.80562,262.753],[16.45877,46.78645,219.4278],[16.41143,46.78629,207.5148],[16.42011,46.75157,222.219],[16.37185,46.70056,199.4935],[16.36627,46.6965,196.2806],[16.36622,46.69647,196.0553],[16.37143,46.69493,194.9701],[16.39004,46.69415,194.0036],[16.40502,46.68725,184.7235],[16.4105,46.66837,219.2506],[16.40261,46.66311,211.2795],[16.39665,46.65914,194.2313],[16.37764,46.65286,168.2215],[16.36844,46.64299,168.24],[16.37225,46.63634,166.5164],[16.3764,46.62909,166.4738],[16.39459,46.61902,165.636],[16.43024,46.60439,161.7919],[16.46714,46.5647,263.2713],[16.50083,46.54481,233.841],[16.5153,46.50171,172.1945],[16.52109,46.49853,177.2521],[16.56429,46.47993,150.6858],[16.57762,46.47065,155.2791],[16.58372,46.47065,148.8941],[16.58806,46.47957,149.5545],[16.59426,46.48298,149.8891],[16.60212,46.48205,159.9349],[16.61111,46.47807,151.7091],[16.63767,46.47448,149.8361],[16.65927,46.46419,150.3725],[16.67746,46.44869,151.4958],[16.69359,46.42962,142.2859],[16.7124,46.41267,141.4804],[16.74288,46.39962,152.368],[16.75508,46.38187,143.3843],[16.7619,46.38187,142.3141],[16.76934,46.39611,136.1725],[16.77647,46.39288,136.8258],[16.80345,46.38869,135.2343],[16.80789,46.38735,135.0714],[16.81234,46.38503,134.5264],[16.81658,46.38198,134.674],[16.82092,46.3781,134.4858],[16.82753,46.37402,139.3985],[16.83022,46.37735,134.7634],[16.83239,46.38192,142.4596],[16.83766,46.38187,136.9103],[16.85047,46.37306,138.4305],[16.85941,46.36476,133.5339],[16.86546,46.35914,131.5364],[16.87507,46.34286,130.1021],[16.87177,46.3272,130.8031],[16.87931,46.31206,140.9989],[16.91755,46.32219,206.1546],[16.94256,46.30177,208.231],[17.01264,46.32004,217.5173],[17.02959,46.321,212.0701],[17.04726,46.32498,218.4305],[17.06576,46.34118,178.1841],[17.07103,46.3636,195.4614],[17.05387,46.38962,179.2867],[17.01508,46.37651,162.1139],[16.96329,46.38152,137.5],[16.9232,46.40156,156.7536],[16.91986,46.44833,168.4529],[16.91819,46.48675,191.7292],[16.91812,46.51648,209.4047],[16.94652,46.51982,163.5331],[16.9532,46.55991,170.7966],[16.99496,46.56158,183.2219],[17.00505,46.51849,219.1946],[17.03178,46.50012,197.345],[17.04013,46.46337,173.0759],[17.06856,46.42321,173.9174],[17.18131,46.44223,142.1118],[17.19371,46.47486,121.5545],[17.21076,46.49706,117.2297],[17.22658,46.5329,108.0451],[17.22038,46.66459,106.0404],[17.16663,46.64925,118.4046]],
[[16.84584,46.90867,188.5098],[16.89596,46.87735,199.0894],[16.91266,46.8001,191.8722],[16.87508,46.78966,220.0245],[16.81035,46.7813,196.5101],[16.81035,46.82098,230.5332],[16.77485,46.83768,190.4746],[16.77078,46.89993,200.7374],[16.84584,46.90867,188.5098]]]}}