{"type":"Feature","properties":{"GID_1":"HUN.20_1","GID_0":"HUN","country":"Hungary","province":"Zala","VARNAME_1":"NA","NL_NAME_1":"NA","TYPE_1":"Megye","ENGTYPE_1":"County","CC_1":"NA","HASC_1":"HU.ZA","ISO_1":"HU-ZA","name":"Zala.province"},
"geometry":{"type": "MultiPolygon","coordinates": [[[[16.6216,46.4707,148.4186],[16.627,46.4649,147.1108],[16.6343,46.4675,144.5],[16.6411,46.464,143.5],[16.6568,46.4618,146.4464],[16.6656,46.4579,146.1221],[16.6662,46.4545,151.4331],[16.6593,46.4489,150.8228],[16.6594,46.4466,149.9054],[16.6634,46.4439,148.42],[16.6679,46.4471,151.625],[16.6735,46.4479,147.1006],[16.6755,46.4438,147.9132],[16.6812,46.4407,148.5946],[16.6884,46.4273,142.8757],[16.6972,46.4161,139.3617],[16.7071,46.4047,148.4458],[16.7165,46.3986,139.1817],[16.7195,46.392,145.6217],[16.7234,46.3911,138.617],[16.7257,46.3932,140.7186],[16.7257,46.3966,148.6821],[16.7286,46.4011,141.5564],[16.739,46.4009,154.9413],[16.7402,46.3981,146.4969],[16.7385,46.3945,139.4084],[16.74,46.39,144.1511],[16.7478,46.3857,149.301],[16.7545,46.3894,137.3848],[16.7574,46.3882,148.3871],[16.7594,46.3832,139.8087],[16.7626,46.3805,142.3141],[16.7679,46.3823,143.5565],[16.7689,46.385,145.239],[16.7724,46.3863,146.1795],[16.7814,46.3806,134.4535],[16.7885,46.3876,145.7763],[16.7964,46.3876,136.7151],[16.8027,46.387,135.9074],[16.8044,46.3809,135.4379],[16.8065,46.379,142.3458],[16.8134,46.3801,134.9632],[16.8148,46.3735,141.5695],[16.8176,46.3724,135.6664],[16.8217,46.3743,139.4756],[16.8256,46.3741,142.1155],[16.8303,46.3686,136.6181],[16.8339,46.3745,136.6141],[16.8366,46.3759,135.3596],[16.8398,46.3731,134.2272],[16.8394,46.3697,135.91],[16.8366,46.3669,142.5003],[16.8374,46.3647,138.57],[16.8436,46.3653,143.3415],[16.8499,46.3628,134.866],[16.8524,46.3559,140.0941],[16.8563,46.3544,138.1938],[16.8669,46.3554,128.9167],[16.8667,46.3522,127.6978],[16.8634,46.3472,134.8861],[16.8661,46.3449,132.5659],[16.8748,46.3424,130.1021],[16.8729,46.3392,128.9319],[16.8737,46.3372,135.1447],[16.8784,46.3368,137.2156],[16.881,46.3344,130.9256],[16.8752,46.3279,130.7527],[16.8765,46.3114,128.621],[16.8781,46.3083,137.0428],[16.9093,46.3181,195.4119],[16.9461,46.3188,187.2629],[16.9483,46.3176,191.811],[16.9543,46.3081,214.4058],[16.9636,46.305,215.417],[16.9683,46.3069,197.7245],[16.9767,46.3156,215.2985],[16.9886,46.32,214.5666],[17.0046,46.3204,187.3638],[17.0177,46.3152,196.4813],[17.0366,46.3162,194.7419],[17.0447,46.3194,193.2949],[17.0478,46.3227,234.1279],[17.0486,46.3387,209.7621],[17.0551,46.3462,175.4482],[17.0596,46.3559,202.5881],[17.06,46.3602,188.1601],[17.0501,46.379,187.6507],[17.0345,46.4002,172.1424],[17.0332,46.4139,214.3764],[17.0344,46.4174,212.1187],[17.0408,46.4204,205.2773],[17.0517,46.4204,182.1305],[17.0706,46.4129,179.0425],[17.0764,46.4123,203.299],[17.0834,46.4152,235.3008],[17.0905,46.4233,200.0472],[17.0949,46.4242,221.5883],[17.1223,46.4169,171.8955],[17.1329,46.4169,157.6422],[17.1392,46.419,150.5684],[17.1459,46.4268,148.476],[17.158,46.4354,154.3275],[17.1899,46.4371,123.504],[17.1979,46.4482,131.1189],[17.1985,46.4654,122.572],[17.2019,46.4736,125.1921],[17.2017,46.4783,123.7599],[17.1979,46.4868,126.0885],[17.1984,46.5003,125.1213],[17.206,46.5065,119.9172],[17.2317,46.5157,119.427],[17.2379,46.5199,131.4893],[17.2374,46.5265,127.2432],[17.2223,46.5496,107.0751],[17.2213,46.5543,106.7698],[17.2204,46.6247,105.6179],[17.2281,46.6437,105.2123],[17.2275,46.6819,106.3327],[17.2293,46.6857,105.6341],[17.2676,46.7029,104.8071],[17.2836,46.7236,103.5],[17.2839,46.7399,103.5],[17.286,46.7422,103.5],[17.3051,46.7403,103.5],[17.3337,46.746,103.5],[17.3614,46.7412,103.5],[17.3884,46.7415,103.5],[17.3938,46.744,103.5],[17.4025,46.755,103.5],[17.4195,46.7611,103.5],[17.4331,46.7637,103.5],[17.4296,46.7712,103.5],[17.417,46.7802,103.5],[17.411,46.7867,103.5],[17.3999,46.7939,103.6647],[17.3903,46.7978,110.5189],[17.3712,46.8106,171.8717],[17.369,46.8138,197.7715],[17.367,46.8266,163.4508],[17.3514,46.8348,207.0568],[17.3444,46.8428,220.3642],[17.3388,46.8547,239.2348],[17.3369,46.8982,145.9417],[17.3332,46.9024,175.2741],[17.3212,46.9085,180.2492],[17.3196,46.9195,191.7275],[17.3025,46.9302,208.7135],[17.2602,46.9307,198.9601],[17.2478,46.9332,176.2101],[17.2419,46.939,155.2363],[17.2416,46.9443,151.6966],[17.2556,46.9654,145.7552],[17.2554,46.9806,144.1714],[17.2538,46.9875,148.7132],[17.237,47.0086,138.5712],[17.2258,47.0125,142.0814],[17.1673,47.0133,143.4232],[17.1566,47.0177,147.0479],[17.141,47.0312,144.3511],[17.1286,47.0371,144.9975],[17.1031,47.0535,169.5925],[17.0989,47.0419,166.0382],[17.0909,47.0397,172.6671],[17.0776,47.0398,158.0656],[17.0661,47.0422,165.2766],[17.0639,47.0444,165.6405],[17.0626,47.0507,171.1461],[17.0587,47.0526,168.4465],[17.0375,47.0514,174.0288],[17.0288,47.0477,161.6568],[17.0275,47.0428,164.4814],[17.0292,47.0209,163.6322],[17.0337,47.01,150.541],[17.0308,47.0061,148.2271],[17.0137,46.9929,165.6454],[17.0134,46.9758,130.8259],[17.0104,46.9731,130.209],[16.961,46.9707,159.0853],[16.9429,46.9738,174.2176],[16.9356,46.9794,223.1419],[16.9303,46.9807,194.5528],[16.878,46.9784,201.6274],[16.8572,46.9829,162.0756],[16.8389,46.9824,156.4486],[16.834,46.9794,155.3102],[16.8342,46.9606,204.345],[16.8219,46.9564,199.8025],[16.8067,46.9541,200.6346],[16.8052,46.9509,202.0243],[16.8056,46.9387,223.0966],[16.7991,46.9319,194.177],[16.7832,46.9312,250.5001],[16.7661,46.9355,208.72],[16.7444,46.9352,252.3527],[16.7356,46.9374,264.2283],[16.696,46.9358,229.59],[16.6879,46.9342,211.8281],[16.6822,46.9278,207.4009],[16.6789,46.9264,203.267],[16.6382,46.9239,252.6528],[16.6339,46.9215,242.0376],[16.6213,46.9071,250.2213],[16.608,46.902,249.3041],[16.602,46.8976,258.8781],[16.5972,46.8899,243.4811],[16.5921,46.8708,227.6205],[16.5722,46.8446,187.8494],[16.5671,46.8437,188.6658],[16.5588,46.8456,205.0016],[16.551,46.8453,194.6266],[16.5365,46.8397,198.8296],[16.5196,46.836,207.4202],[16.5171,46.8299,248.5394],[16.5169,46.8087,249.9406],[16.5147,46.8042,248.5026],[16.4963,46.7989,237.7662],[16.4815,46.7886,222.4791],[16.4672,46.7842,215.8863],[16.4474,46.7828,207.5424],[16.4437,46.7838,208.0311],[16.44,46.7873,209.98],[16.4297,46.7876,210.3],[16.4228,46.7863,206.938],[16.4102,46.7796,224.4396],[16.4084,46.7753,272.6381],[16.4164,46.7682,241.1152],[16.4175,46.7626,238.3651],[16.4151,46.7522,222.0811],[16.4072,46.7389,195.5267],[16.403199999999998,46.7261,207.7763],[16.394,46.7195,207.01],[16.3761,46.7127,232.4974],[16.3684,46.7045,202.7092],[16.3718,46.7006,199.4935],[16.378,46.6973,195.0459],[16.4018,46.6964,227.86],[16.4233,46.6934,209.4886],[16.4186,46.6823,181.4785],[16.4179,46.6782,178.4461],[16.4208,46.6716,184.5648],[16.4168,46.6639,205.7424],[16.4166,46.6604,192.4866],[16.4132,46.6583,171.2261],[16.401,46.6596,184.1255],[16.3941,46.6643,208.0587],[16.3886,46.6623,211.1149],[16.3857,46.6588,182.4252],[16.3898,46.6577,171.3459],[16.3905,46.6551,181.2111],[16.3853,46.6527,178.0438],[16.3828,46.6485,175.6249],[16.3837,46.6447,183.2696],[16.3876,46.6415,172.0893],[16.3894,46.6351,166.9242],[16.4117,46.6267,162.2259],[16.4255,46.6139,165.1341],[16.4319,46.614,161.3471],[16.4442,46.6103,161.5687],[16.4519,46.6012,161.7564],[16.4596,46.5961,185.051],[16.4663,46.5877,193.0027],[16.4777,46.5821,248.75],[16.4807,46.579,266.6153],[16.4844,46.5654,283.5319],[16.49,46.5628,258.7397],[16.4984,46.5621,261.0716],[16.5055,46.5643,287.5032],[16.5126,46.563,268.266],[16.5204,46.5527,272.4399],[16.5163,46.5393,266.9876],[16.5172,46.5365,248.7099],[16.5262,46.5353,236.0071],[16.5304,46.5329,225.7553],[16.5304,46.5277,214.6051],[16.5264,46.521,155.0506],[16.527,46.5169,152.0],[16.5321,46.5153,162.491],[16.5321,46.5116,169.7296],[16.5252,46.5052,166.3205],[16.5381,46.4985,161.3488],[16.562,46.4908,150.9542],[16.5713,46.4839,152.2711],[16.578,46.4811,150.1534],[16.5918,46.478,151.7816],[16.6051,46.4781,152.7809],[16.605,46.4748,148.2298],[16.6115,46.4698,156.9179],[16.6198,46.4683,150.4639],[16.6216,46.4707,148.4186]]]]}}