{"type": "Feature","bbox": [18.0241,47.2243,18.3708,47.4764],"geometry": {"type": "MultiPolygon","coordinates": [[[[18.2862,47.4069,300.3837],[18.2781,47.4111,279.3288],[18.2653,47.423,255.4241],[18.2577,47.433,241.7923],[18.2369,47.4426,186.4449],[18.2321,47.456,213.4341],[18.2314,47.4644,213.6404],[18.2293,47.4673,220.5384],[18.2068,47.4764,257.1965],[18.1831,47.4764,233.206],[18.1825,47.454,268.5948],[18.1802,47.4502,227.5341],[18.1515,47.4434,270.793],[18.1245,47.4529,253.4334],[18.114,47.4499,243.8288],[18.1097,47.447,236.8255],[18.1081,47.4432,231.3984],[18.108,47.4277,234.7166],[18.0971,47.4131,228.8734],[18.097,47.3964,225.0559],[18.0915,47.3927,228.1254],[18.077,47.3871,245.8241],[18.0739,47.3839,221.093],[18.0743,47.3649,262.0811],[18.0727,47.3603,236.2554],[18.0689,47.3564,253.0701],[18.051,47.3517,253.3563],[18.0341,47.3451,243.4154],[18.0241,47.3359,247.2303],[18.0432,47.3189,234.149],[18.064,47.317,262.7908],[18.0647,47.3134,249.734],[18.06,47.3049,234.8466],[18.0481,47.3033,262.0389],[18.0457,47.3015,233.5962],[18.0458,47.2985,251.3862],[18.0496,47.2919,216.2741],[18.0501,47.2806,300.0929],[18.0736,47.2807,444.2376],[18.0765,47.2677,450.2979],[18.0861,47.2556,417.2506],[18.09,47.2539,423.5179],[18.0985,47.2541,428.14],[18.1165,47.2582,403.828],[18.1261,47.2631,405.4041],[18.1457,47.2634,350.2081],[18.1549,47.2605,319.192],[18.1606,47.2565,295.5878],[18.1674,47.2435,265.1099],[18.1771,47.2332,226.5031],[18.2053,47.2243,316.9553],[18.2225,47.2399,306.9844],[18.2271,47.2408,301.9682],[18.2385,47.239,293.0949],[18.2478,47.2426,271.7761],[18.2517,47.248,255.1415],[18.252,47.2565,240.4243],[18.2538,47.2588,230.9082],[18.2795,47.2608,150.3375],[18.2804,47.2687,134.1536],[18.2821,47.2709,131.6523],[18.2884,47.2717,132.3669],[18.2992,47.2692,121.2561],[18.3083,47.2694,123.9383],[18.32,47.2728,124.1757],[18.3272,47.2776,155.2819],[18.3397,47.2807,192.1327],[18.355,47.2819,196.6267],[18.3708,47.2884,208.4389],[18.3655,47.299,206.015],[18.3507,47.309,164.8952],[18.346,47.3151,163.4716],[18.3498,47.3201,173.7656],[18.3681,47.3313,167.9866],[18.3622,47.3495,260.5316],[18.357,47.3576,251.3945],[18.3335,47.3638,322.3905],[18.3161,47.3824,445.9761],[18.295,47.3966,454.3441],[18.2862,47.4069,300.3837]]]]}
,"properties": {"GID_2": "HUN.7.8_1","GID_0": "HUN","country": "Hungary","GID_1": "HUN.7_1","province": "Fejér","NL_NAME_1": "NA","county": "Mór","VARNAME_2": "NA","NL_NAME_2": "NA","TYPE_2": "Kistérség","ENGTYPE_2": "Subregion","CC_2": "NA","HASC_2": "NA","name": "Mór.county","area_km2": 421.4656,"hist_schema_id": "Elevation0-9000","hist_area_km2": {"100": 0.0432,"125": 12.0375,"150": 27.9878,"175": 57.5025,"200": 83.3631,"225": 84.3299,"250": 59.7112,"275": 26.1925,"300": 16.2183,"325": 10.8545,"350": 7.3016,"375": 7.0274,"400": 7.215,"425": 8.2643,"450": 9.7116,"475": 3.6192,"500": 0.0862}}}