{"type": "Feature","id": "4921","bbox": [19.71056,48.04009,19.90507,48.159],"geometry": {"type": "Polygon","coordinates": [[[19.78559,48.14869,476.8029],[19.77608,48.14952,418.2669],[19.76668,48.159,359.3899],[19.73332,48.13114,255.5611],[19.72574,48.09068,268.8882],[19.71056,48.05021,299.3797],[19.78897,48.04009,285.7687],[19.81679,48.07297,358.5619],[19.86485,48.09573,310.3839],[19.90507,48.1243,464.7569],[19.88429,48.12962,546.433],[19.84626,48.15267,471.5087],[19.82166,48.15791,363.4824],[19.78559,48.14869,476.8029]]]}
,"properties": {"ISO3166-1-Alpha-3": "HUN","country": "Hungary","fill": "#F0F","name": "Salgótarján","area_km2": 110.49409,"hist_schema_id": "Elevation0-9000","hist_area_km2": {"200": 0.2692,"225": 6.71363,"250": 13.29873,"275": 18.481,"300": 18.52199,"325": 16.80528,"350": 11.466,"375": 7.10576,"400": 4.96784,"425": 3.84981,"450": 2.67491,"475": 2.44836,"500": 1.92464,"525": 1.13209,"550": 0.67918,"575": 0.14151,"600": 0.01415}}}