{"type": "Feature","bbox": [19.5434,48.0331,20.0897,48.2527],"geometry": {"type": "MultiPolygon","coordinates": [[[[20.0507,48.1696,343.3066],[20.0487,48.1679,348.7362],[20.0425,48.1691,341.9594],[20.0406,48.1748,327.3569],[20.0324,48.1764,328.4508],[20.021,48.176,279.2964],[20.0107,48.1712,264.3708],[19.9979,48.1724,270.1545],[19.9871,48.1681,285.5776],[19.9826,48.1643,282.5919],[19.9735,48.1665,294.2081],[19.9676,48.1648,276.4631],[19.9609,48.1539,274.4399],[19.9517,48.1522,285.4647],[19.934,48.1339,413.3967],[19.9269,48.1296,468.3339],[19.9108,48.1307,477.7352],[19.9054,48.1273,461.3495],[19.8984,48.1293,436.8959],[19.8977,48.1336,440.3384],[19.9091,48.1429,341.8249],[19.9106,48.1488,378.2708],[19.9027,48.1529,509.7494],[19.8948,48.1654,516.807],[19.8813,48.1659,663.7245],[19.8756,48.171,545.6254],[19.8686,48.1718,520.9131],[19.8613,48.17,454.4899],[19.8537,48.1776,387.6827],[19.849,48.1761,558.3145],[19.8393,48.1645,392.6498],[19.831,48.165,363.7823],[19.8258,48.1694,375.1058],[19.8166,48.1706,314.5309],[19.8099,48.1653,332.7506],[19.8053,48.1573,407.6449],[19.7989,48.1558,524.8993],[19.7892,48.158,712.7883],[19.7836,48.1627,610.6602],[19.7847,48.1685,554.8801],[19.7881,48.1734,591.9582],[19.8015,48.1842,394.8177],[19.8034,48.1883,446.3041],[19.8008,48.1942,454.2696],[19.7877,48.1955,374.5355],[19.7796,48.2034,308.5375],[19.7706,48.207,309.8897],[19.7543,48.2171,315.5202],[19.7426,48.2184,300.2761],[19.7337,48.2166,345.2324],[19.7259,48.2092,284.8465],[19.7179,48.2043,306.3804],[19.7071,48.2034,324.7233],[19.6957,48.2058,314.2208],[19.6795,48.2159,316.5462],[19.6747,48.2223,306.1182],[19.6729,48.2382,330.0179],[19.665,48.243,307.2259],[19.6565,48.2406,286.1085],[19.6479,48.2408,221.2758],[19.6371,48.2527,167.2522],[19.6286,48.2514,164.9653],[19.6135,48.2427,164.3571],[19.5954,48.2305,162.8009],[19.579,48.2169,162.0399],[19.5434,48.2109,162.6986],[19.5639,48.1999,317.1323],[19.5828,48.1779,361.0615],[19.5867,48.1781,309.2226],[19.605,48.1861,202.3039],[19.6114,48.1849,239.7327],[19.6117,48.1827,259.4281],[19.6065,48.1747,256.2925],[19.6068,48.1715,280.5824],[19.6119,48.1656,293.4757],[19.626,48.1586,273.6827],[19.6315,48.1488,295.5231],[19.6324,48.1436,275.2938],[19.6317,48.1353,254.7394],[19.617,48.1129,218.9878],[19.6175,48.0973,287.8159],[19.6227,48.0938,311.5847],[19.6528,48.0866,224.2582],[19.6709,48.0942,196.6551],[19.6766,48.0924,221.0354],[19.6843,48.0806,221.4513],[19.6704,48.0689,249.53],[19.666,48.0588,279.6907],[19.6669,48.0511,294.4142],[19.7158,48.0526,290.6128],[19.7285,48.0553,303.55],[19.7364,48.0552,328.5946],[19.7666,48.044,259.3342],[19.7839,48.0463,224.7922],[19.8021,48.046,276.5659],[19.8067,48.0437,218.1053],[19.8147,48.0356,204.6997],[19.8352,48.0331,225.075],[19.8555,48.0415,264.7],[19.8993,48.04,286.7936],[19.9241,48.0446,247.6699],[19.9322,48.0477,265.7292],[19.9354,48.0514,266.4648],[19.9337,48.0707,348.7484],[19.9292,48.0787,370.4334],[19.9311,48.0813,369.8378],[19.9545,48.0822,343.6281],[19.9717,48.0788,425.4315],[19.9698,48.0896,369.8768],[19.9719,48.0951,350.902],[20.0114,48.0999,267.6178],[20.0392,48.0995,237.7012],[20.0412,48.1011,225.7888],[20.0412,48.1071,229.8752],[20.0456,48.1135,214.5211],[20.0697,48.1151,323.8468],[20.0755,48.1174,382.5007],[20.0825,48.1267,342.7104],[20.0897,48.1411,363.0755],[20.0895,48.1463,352.3723],[20.0855,48.1499,319.9017],[20.0784,48.1516,295.7422],[20.0611,48.1501,266.597],[20.0549,48.1589,289.0294],[20.0507,48.1696,343.3066]]]]}
,"properties": {"GID_2": "HUN.13.5_1","GID_0": "HUN","country": "Hungary","GID_1": "HUN.13_1","province": "Nógrád","NL_NAME_1": "NA","county": "Salgótarján","VARNAME_2": "Salgótarjáni","NL_NAME_2": "NA","TYPE_2": "Kistérség","ENGTYPE_2": "Subregion","CC_2": "NA","HASC_2": "NA","name": "Salgótarján.county","area_km2": 461.4528,"hist_schema_id": "Elevation0-9000","hist_area_km2": {"150": 3.461,"175": 22.0645,"200": 32.1833,"225": 55.0028,"250": 67.0533,"275": 70.294,"300": 55.4238,"325": 44.0333,"350": 30.8566,"375": 20.5681,"400": 13.957,"425": 10.0914,"450": 7.7552,"475": 7.4154,"500": 5.7875,"525": 5.1926,"550": 6.2672,"575": 2.122,"600": 0.8346,"625": 0.4809,"650": 0.297,"675": 0.198,"700": 0.099,"725": 0.0141}}}