{"type":"Feature","properties":{"ISO3166-1-Alpha-3":"HUN","country":"Hungary","fill":"#00F","id":"4906","name":"Tatabánya"},
"geometry":{"type": "Polygon","coordinates": [[[18.51601,47.55529,275.6942],[18.52405,47.57561,346.0196],[18.49067,47.60898,239.3418],[18.43962,47.61683,286.8007],[18.40036,47.62076,268.7253],[18.37287,47.60113,150.646],[18.38465,47.57561,154.1122],[18.37483,47.55597,168.5344],[18.41017,47.52652,230.3639],[18.46195,47.50537,470.8373],[18.48252,47.5388,202.741],[18.51601,47.55529,275.6942]]]}}