{"type":"Feature","properties":{"GID_2":"HUN.12.7_1","GID_0":"HUN","country":"Hungary","GID_1":"HUN.12_1","province":"Komárom-Esztergom","NL_NAME_1":"NA","county":"Tatabánya","VARNAME_2":"Tatabányai","NL_NAME_2":"NA","TYPE_2":"Kistérség","ENGTYPE_2":"Subregion","CC_2":"NA","HASC_2":"NA","name":"Tatabánya.county"},
"geometry":{"type": "MultiPolygon","coordinates": [[[[18.6749,47.5735,223.3444],[18.6909,47.5844,214.9928],[18.7174,47.592,273.4962],[18.7193,47.5968,283.5788],[18.7176,47.6079,248.1724],[18.7091,47.6104,239.832],[18.6974,47.6105,248.7478],[18.6899,47.6127,231.6189],[18.6808,47.6208,188.5702],[18.659,47.6127,219.683],[18.6544,47.6126,190.0588],[18.642,47.6231,224.4904],[18.6076,47.6032,213.803],[18.6029,47.6027,218.9044],[18.5673,47.6274,299.9138],[18.5555,47.6339,291.1934],[18.5462,47.6485,325.124],[18.5426,47.6588,335.9602],[18.5402,47.6614,327.4248],[18.5295,47.6704,266.6263],[18.5107,47.6812,382.3537],[18.497,47.6756,622.078],[18.4918,47.6719,600.6673],[18.4854,47.6604,442.9246],[18.4835,47.6481,319.9662],[18.4722,47.6412,347.1063],[18.4721,47.6379,319.2303],[18.478,47.6275,337.7644],[18.4773,47.6143,300.3015],[18.4671,47.5996,294.4937],[18.4592,47.5915,241.8839],[18.4443,47.5912,252.4309],[18.4352,47.5952,363.5581],[18.4343,47.6092,359.4528],[18.4306,47.618899999999996,458.9463],[18.4243,47.6266,515.6304],[18.4117,47.6284,480.1126],[18.3964,47.6333,312.6445],[18.3764,47.6333,156.6956],[18.3695,47.6305,149.2651],[18.3611,47.6187,134.6907],[18.345,47.6205,138.696],[18.3363,47.6171,158.1618],[18.3119,47.5999,172.2361],[18.3033,47.5848,186.8472],[18.2868,47.5823,191.6008],[18.2698,47.5748,199.2858],[18.289,47.5566,178.8592],[18.2853,47.5468,220.2554],[18.285,47.5345,200.3566],[18.289,47.5337,178.9506],[18.3058,47.539,170.7395],[18.3091,47.5387,159.5143],[18.3103,47.5365,159.701],[18.3098,47.5266,164.5808],[18.3124,47.5227,162.7005],[18.3283,47.512,175.822],[18.3487,47.506,234.042],[18.3533,47.4991,210.5472],[18.3582,47.4849,224.0763],[18.3644,47.4749,247.6621],[18.364,47.4708,243.5557],[18.3588,47.4612,255.7127],[18.3717,47.4609,283.7592],[18.3812,47.4615,425.1194],[18.3976,47.466,357.5524],[18.4017,47.4693,335.3484],[18.4171,47.4894,397.8474],[18.4232,47.4924,404.8498],[18.4323,47.492,419.9957],[18.444,47.4885,387.4661],[18.4503,47.4785,412.9457],[18.4554,47.477,364.7227],[18.4624,47.4783,364.823],[18.4774,47.4947,396.2386],[18.483,47.4971,342.8689],[18.4983,47.4961,226.1745],[18.516,47.4854,186.6649],[18.5264,47.4858,206.1461],[18.527,47.4907,274.3204],[18.5174,47.5006,291.937],[18.4989,47.5111,231.9952],[18.4912,47.5208,232.2996],[18.4908,47.5337,212.3606],[18.488,47.5411,220.3011],[18.4883,47.5508,216.6524],[18.4902,47.5558,209.9037],[18.4954,47.5581,273.2212],[18.5182,47.5594,249.1767],[18.551,47.5695,242.2255],[18.6395,47.5671,293.944],[18.6749,47.5735,223.3444]]]]}}