{"type":"Feature","properties":{"GID_2":"HUN.15.9_1","GID_0":"HUN","country":"Hungary","GID_1":"HUN.15_1","province":"Somogy","NL_NAME_1":"NA","county":"Siófok","VARNAME_2":"Siófoki","NL_NAME_2":"NA","TYPE_2":"Kistérség","ENGTYPE_2":"Subregion","CC_2":"NA","HASC_2":"NA","name":"Siófok.county"},
"geometry":{"type": "MultiPolygon","coordinates": [[[[18.177,46.9591,161.2172],[18.1635,46.9624,147.3087],[18.1472,46.9626,103.5],[18.069,46.9719,103.5],[18.061,46.9712,103.5],[18.0274,46.9517,103.5],[17.9719,46.9411,103.5],[17.9149,46.9269,103.5],[17.9117,46.9226,103.5],[17.912,46.9024,103.5],[17.9076,46.8935,103.5],[17.8835,46.884,103.5],[17.9141,46.8574,133.7831],[17.9214,46.8533,184.6091],[17.9306,46.8515,187.2008],[17.9378,46.8453,156.7877],[17.9463,46.8427,234.1045],[17.948,46.8307,218.3492],[17.9566,46.817,217.9095],[17.9716,46.8177,242.6959],[17.9802,46.808,247.66],[17.9926,46.8018,220.4692],[17.9986,46.793,202.4589],[18.008,46.7947,157.6031],[18.0089,46.7962,167.9664],[18.0071,46.8027,188.3644],[18.0134,46.8059,165.5973],[18.0129,46.8086,167.4682],[18.0069,46.8149,170.3573],[18.01,46.8201,191.8997],[18.0227,46.8244,171.4893],[18.0283,46.8246,180.8967],[18.0382,46.8169,134.6142],[18.0429,46.8105,171.9989],[18.0443,46.7951,260.6113],[18.0511,46.789,240.6503],[18.0692,46.7823,238.9068],[18.0935,46.7902,231.6623],[18.0989,46.7901,231.1294],[18.1059,46.7839,197.905],[18.1175,46.7803,183.2059],[18.125,46.7707,152.7966],[18.1314,46.7668,154.9246],[18.148,46.7507,214.9993],[18.1791,46.7507,196.1217],[18.1813,46.7537,185.8801],[18.1747,46.7668,219.7001],[18.1938,46.7751,221.4462],[18.1997,46.7858,209.2261],[18.2048,46.7914,178.8008],[18.199,46.8003,167.7706],[18.1979,46.8056,158.8418],[18.1982,46.8151,151.3589],[18.202,46.8259,148.3475],[18.2012,46.8311,148.0601],[18.1978,46.8375,145.8186],[18.1974,46.8447,135.3832],[18.2011,46.8542,108.5851],[18.2013,46.8588,106.4394],[18.1937,46.8702,100.6952],[18.1925,46.8763,100.7561],[18.1931,46.8865,110.6593],[18.2005,46.8987,135.7462],[18.2004,46.9163,160.8467],[18.1884,46.9374,160.5415],[18.1819,46.9542,161.4736],[18.177,46.9591,161.2172]]]]}}