{"type":"Feature","properties":{"GID_2":"HUN.3.7_1","GID_0":"HUN","country":"Hungary","GID_1":"HUN.3_1","province":"Békés","NL_NAME_1":"NA","county":"Szarvas","VARNAME_2":"NA","NL_NAME_2":"NA","TYPE_2":"Kistérség","ENGTYPE_2":"Subregion","CC_2":"NA","HASC_2":"NA","name":"Szarvas.county"},
"geometry":{"type": "MultiPolygon","coordinates": [[[[20.8873,46.7707,87.6253],[20.8837,46.7765,87.1954],[20.8793,46.779,87.0831],[20.8509,46.7804,88.0325],[20.8335,46.785,88.0544],[20.8239,46.7923,87.743],[20.8137,46.8097,86.0999],[20.7944,46.818,87.2951],[20.79,46.8242,85.5575],[20.7918,46.8293,85.7896],[20.8126,46.8338,86.4055],[20.8152,46.8361,86.4161],[20.8074,46.8579,84.5132],[20.8039,46.8598,85.1552],[20.7891,46.8605,85.179],[20.7702,46.8641,85.208],[20.7291,46.8791,83.9322],[20.7277,46.8823,83.6671],[20.7276,46.8975,83.8896],[20.7209,46.9073,83.2087],[20.7151,46.9211,83.3315],[20.7075,46.9316,85.0872],[20.69,46.9192,83.8249],[20.6703,46.9212,83.1597],[20.6408,46.9132,82.9311],[20.6338,46.9137,85.8537],[20.5967,46.9254,90.8972],[20.5783,46.9191,82.5159],[20.5641,46.9228,83.2762],[20.5508,46.9231,82.5085],[20.5445,46.9214,82.8561],[20.5379,46.9092,82.7494],[20.5215,46.903,82.3833],[20.4485,46.9011,84.5968],[20.4242,46.8871,84.3254],[20.4163,46.874,84.2528],[20.4061,46.8659,84.472],[20.4046,46.8625,83.5175],[20.4049,46.8583,84.4599],[20.4085,46.8507,83.406],[20.4084,46.8261,82.5398],[20.4114,46.8206,82.3438],[20.4129,46.813,82.6417],[20.4185,46.8071,83.0292],[20.4438,46.8077,83.0827],[20.4546,46.805,82.8963],[20.4775,46.7969,83.1755],[20.4861,46.7869,81.1414],[20.4908,46.7848,80.9948],[20.5623,46.787,81.5143],[20.5735,46.7783,81.3883],[20.5871,46.772,81.4176],[20.5886,46.7673,81.2006],[20.5875,46.7592,82.1304],[20.6079,46.7686,81.9797],[20.6265,46.7633,82.6612],[20.6611,46.7625,81.5691],[20.6991,46.756,82.9261],[20.7256,46.7543,83.7203],[20.7382,46.7486,85.0455],[20.7528,46.7344,85.108],[20.7613,46.7219,85.6846],[20.7668,46.7048,87.318],[20.7706,46.6999,86.6162],[20.7737,46.6986,86.4032],[20.8023,46.7009,86.481],[20.8159,46.7035,86.5909],[20.8232,46.7066,86.6035],[20.8442,46.7275,87.2489],[20.8413,46.7338,86.5671],[20.8346,46.7409,87.3012],[20.8386,46.7485,87.8376],[20.8456,46.7509,87.5923],[20.8696,46.7448,88.7344],[20.8762,46.7451,87.6552],[20.8795,46.7488,87.0693],[20.8764,46.7547,87.8478],[20.8768,46.7588,87.9484],[20.8873,46.7707,87.6253]]]]}}