{"type":"Feature","properties":{"GID_2":"HUN.3.2_1","GID_0":"HUN","country":"Hungary","GID_1":"HUN.3_1","province":"Békés","NL_NAME_1":"NA","county":"Békési","VARNAME_2":"NA","NL_NAME_2":"NA","TYPE_2":"Kistérség","ENGTYPE_2":"Subregion","CC_2":"NA","HASC_2":"NA","name":"Békési.county"},
"geometry":{"type": "MultiPolygon","coordinates": [[[[21.2964,46.7689,86.0369],[21.311,46.787,84.7541],[21.3029,46.8095,84.6095],[21.2887,46.8245,84.6182],[21.2775,46.8403,84.6432],[21.2638,46.8383,92.3098],[21.2505,46.8562,88.8323],[21.239,46.8598,90.486],[21.2329,46.8691,86.1401],[21.2151,46.8717,85.7369],[21.2089,46.8898,85.0813],[21.1942,46.8933,84.5367],[21.1936,46.9064,84.6847],[21.1915,46.9089,97.5541],[21.1546,46.91,83.7671],[21.1528,46.9085,86.943],[21.1522,46.9035,84.0068],[21.1563,46.8934,84.5536],[21.1555,46.8874,84.9675],[21.1509,46.8844,84.043],[21.1348,46.8804,83.3076],[21.1177,46.8896,84.2471],[21.1101,46.9021,84.2503],[21.0923,46.9046,95.3244],[21.091,46.9071,87.4627],[21.0911,46.9156,83.845],[21.0892,46.9178,84.8041],[21.062,46.9201,85.3356],[21.034,46.9399,84.015],[21.0176,46.9409,84.6266],[21.0147,46.9395,84.3124],[21.0128,46.9339,84.6609],[21.0101,46.9325,85.9384],[20.9992,46.9304,84.3917],[20.9884,46.9348,83.061],[20.9738,46.9288,83.7026],[20.9684,46.9286,83.098],[20.9523,46.9345,89.2799],[20.9497,46.9368,87.4337],[20.9506,46.9391,82.7745],[20.9601,46.9466,82.8808],[20.9608,46.9518,83.2658],[20.9584,46.9546,83.4559],[20.9524,46.9571,82.9331],[20.9184,46.9639,84.5415],[20.9013,46.965,83.7122],[20.8837,46.9689,84.8231],[20.8822,46.9728,83.6445],[20.8836,47.0192,83.6004],[20.8541,47.0708,82.8136],[20.8435,47.069,85.2735],[20.8134,47.0577,84.7909],[20.8097,47.0548,84.6951],[20.8041,47.0456,84.6681],[20.7999,47.0442,84.1564],[20.7637,47.0447,83.5468],[20.7592,47.047,82.3452],[20.751,47.0576,85.1363],[20.7454,47.0589,84.7198],[20.7372,47.0583,84.1232],[20.7336,47.0562,84.6154],[20.7247,47.0452,84.7579],[20.7074,47.0362,83.2763],[20.7022,47.0291,84.43],[20.7019,47.0167,83.0485],[20.713,47.0041,84.5794],[20.7138,47.0012,84.9275],[20.7137,46.9738,80.6196],[20.7254,46.9555,82.9068],[20.7252,46.9444,83.3124],[20.7237,46.9411,82.85],[20.7129,46.9361,84.5658],[20.7075,46.9316,85.0872],[20.7151,46.9211,83.3315],[20.7209,46.9073,83.2087],[20.7276,46.8975,83.8896],[20.7286,46.8797,83.5194],[20.7702,46.8641,85.208],[20.8064,46.8589,84.669],[20.8111,46.8502,85.5321],[20.8152,46.8361,86.4161],[20.8126,46.8338,86.4055],[20.7918,46.8293,85.7896],[20.79,46.8242,85.5575],[20.7944,46.818,87.2951],[20.8137,46.8097,86.0999],[20.8239,46.7923,87.743],[20.8335,46.785,88.0544],[20.8509,46.7804,88.0325],[20.8793,46.779,87.0831],[20.8837,46.7765,87.1954],[20.8873,46.7707,87.6253],[20.8961,46.7725,87.2224],[20.9012,46.7702,87.4897],[20.9042,46.7672,87.4861],[20.9097,46.7558,87.3565],[20.9165,46.7487,88.0346],[20.9184,46.7339,89.393],[20.9317,46.7237,88.9626],[20.9353,46.7236,88.6719],[20.9526,46.73,88.7803],[20.9729,46.7296,86.9616],[20.9799,46.7282,87.3941],[20.9891,46.7221,88.0738],[20.9926,46.7214,88.0174],[21.033,46.7411,85.0904],[21.0594,46.7493,84.6339],[21.0624,46.7484,85.3709],[21.0688,46.7415,84.6783],[21.0826,46.739,85.1143],[21.0828,46.7239,84.0793],[21.085,46.7203,83.96],[21.1123,46.719,84.1858],[21.1154,46.7203,84.3748],[21.1216,46.7308,84.7995],[21.1302,46.7356,85.3034],[21.174,46.7345,85.0761],[21.1868,46.7296,83.7835],[21.2008,46.7337,85.7186],[21.2035,46.7377,84.8339],[21.2043,46.7639,84.5134],[21.2148,46.7694,85.1526],[21.2194,46.7758,85.692],[21.2282,46.779,85.7149],[21.2409,46.7788,85.0255],[21.2722,46.767,83.7803],[21.2964,46.7689,86.0369]]]]}}