{"type":"Feature","properties":{"ISO3166-1-Alpha-3":"HUN","country":"Hungary","fill":"#00F","id":"3138","name":"Vas"},
"geometry":{"type": "Polygon","coordinates": [[[17.0577,47.40279,138.6395],[17.06607,47.42884,134.9973],[17.07641,47.4493,136.416],[17.05139,47.45421,133.3714],[16.94422,47.41199,146.2941],[16.86298,47.4215,165.7073],[16.83849,47.43545,173.2171],[16.76325,47.40333,178.5736],[16.73431,47.39956,180.4407],[16.70702,47.41819,183.0438],[16.65535,47.42602,233.4386],[16.6416,47.43338,235.488],[16.6294,47.44377,261.836],[16.62697,47.44555,266.9011],[16.58941,47.42563,221.7117],[16.48192,47.3923,526.0731],[16.46993,47.40553,417.1013],[16.4566,47.41184,351.4955],[16.44409,47.40951,310.0284],[16.43396,47.39685,435.1519],[16.43644,47.35851,778.1581],[16.43427,47.35556,822.6442],[16.42931,47.3538,853.0429],[16.42497,47.35112,866.9146],[16.42435,47.3452,698.6315],[16.42714,47.34138,646.2528],[16.43169,47.33972,563.1291],[16.43613,47.33856,558.56],[16.43882,47.33657,559.6558],[16.46921,47.29324,283.4823],[16.47324,47.27681,310.0712],[16.46662,47.26342,290.8322],[16.45246,47.25458,303.269],[16.42135,47.24314,253.9413],[16.42135,47.24306,253.9413],[16.42135,47.24303,253.9413],[16.42466,47.22559,300.8618],[16.40926,47.20368,334.6587],[16.41278,47.18717,267.1567],[16.41877,47.18366,273.3374],[16.42673,47.18412,254.7474],[16.4351,47.18358,233.9938],[16.44182,47.17712,229.6905],[16.44213,47.16834,228.5357],[16.43396,47.15128,283.7901],[16.43365,47.14575,289.0659],[16.44709,47.13971,219.3269],[16.48089,47.15077,255.3324],[16.49732,47.14968,266.3224],[16.50951,47.13754,246.2225],[16.50476,47.12583,254.6579],[16.48192,47.10524,220.2685],[16.46083,47.0963,211.6975],[16.45432,47.0817,209.2967],[16.46176,47.0685,206.1063],[16.48192,47.0639,206.9888],[16.4937,47.05982,207.7969],[16.49721,47.05462,207.6676],[16.49318,47.04914,207.1021],[16.48192,47.04421,203.7749],[16.43717,47.03178,209.6483],[16.42466,47.02408,206.6816],[16.45329,47.02168,210.9876],[16.46755,47.01842,207.1039],[16.48192,47.00938,196.1131],[16.48636,46.99855,203.2037],[16.46745,46.99543,201.246],[16.4414,46.99522,256.5214],[16.42476,46.9931,242.7501],[16.42476,46.993,242.7501],[16.42042,46.99026,246.601],[16.41557,46.98943,266.4117],[16.4104,46.99041,247.0989],[16.40502,46.99315,217.8859],[16.38776,47.00204,299.8176],[16.36658,47.00382,259.9839],[16.32586,47.00044,299.0398],[16.28855,47.00558,303.272],[16.2749,47.00432,286.2188],[16.26539,46.99326,253.5725],[16.26105,46.97809,221.243],[16.25299,46.97352,220.8462],[16.24307,46.97202,224.6746],[16.23294,46.96607,317.1857],[16.23036,46.95998,294.7575],[16.23118,46.95442,242.944],[16.23067,46.94835,227.5058],[16.22395,46.94106,226.2636],[16.21703,46.93739,227.8709],[16.19615,46.9313,232.49],[16.17072,46.91853,290.6399],[16.15915,46.91032,307.1356],[16.12287,46.87636,304.275],[16.11005,46.86792,354.6788],[16.09404,46.86277,322.5062],[16.13025,46.85671,355.5247],[16.13538,46.85585,327.05],[16.17949,46.85847,351.877],[16.27201,46.86396,286.3536],[16.28224,46.85993,258.3036],[16.29739,46.84703,274.4135],[16.30188,46.84321,250.6647],[16.31066,46.84001,253.3301],[16.32534,46.83944,291.038],[16.32978,46.8344,280.4868],[16.32751,46.82546,247.7115],[16.32182,46.81327,266.2664],[16.3149,46.802,280.0986],[16.3111,46.79752,286.1318],[16.30219,46.78702,263.6528],[16.29949,46.77951,242.9747],[16.29816,46.7758,289.0069],[16.30043,46.77208,278.1478],[16.31418,46.74332,232.9326],[16.32555,46.73327,225.4922],[16.33412,46.72175,221.7231],[16.34343,46.71418,209.7091],[16.35728,46.71583,231.6496],[16.35759,46.69901,199.0059],[16.36538,46.69671,196.0553],[16.36622,46.69647,196.0553],[16.36627,46.6965,196.2806],[16.37185,46.70056,199.4935],[16.42011,46.75157,222.219],[16.41143,46.78629,207.5148],[16.45877,46.78645,219.4278],[16.50083,46.80562,262.753],[16.52119,46.83184,267.0694],[16.56688,46.86081,207.4675],[16.58465,46.87921,237.3751],[16.59654,46.90282,246.1402],[16.61328,46.92122,255.5952],[16.6508,46.9336,226.4447],[16.75074,46.93801,242.4986],[16.78609,46.95504,203.1275],[16.808,46.9498,205.6863],[16.82681,46.95042,232.3749],[16.83818,46.96897,178.1036],[16.88427,46.97589,249.3073],[16.90866,46.97336,234.0099],[16.95476,46.98041,168.9362],[16.99631,46.99739,160.6526],[17.00457,47.00819,157.3296],[17.00034,47.02044,156.592],[17.01398,47.03473,160.9472],[17.03775,47.03439,161.2705],[17.04085,47.02633,151.6943],[17.04778,47.02106,162.7925],[17.05904,47.02235,160.578],[17.0702,47.02039,161.3454],[17.09801,47.04684,165.7181],[17.22038,47.0671,140.2919],[17.19981,47.17182,126.718],[17.20374,47.21996,126.1256],[17.19588,47.24828,125.1803],[17.20766,47.27303,133.0162],[17.22017,47.28161,124.8383],[17.22751,47.29303,139.5865],[17.2274,47.30797,124.5607],[17.23578,47.31386,122.0313],[17.30233,47.33422,122.3971],[17.24673,47.36068,139.0414],[17.20188,47.3984,144.7502],[17.17883,47.424079999999996,131.9782],[17.15258,47.43716,135.8959],[17.0577,47.40279,138.6395]],
[[16.56902,47.27512,241.6401],[16.63343,47.2909,228.5995],[16.65908,47.28662,220.9022],[16.67512,47.28769,218.691],[16.6965,47.23959,199.1105],[16.69009,47.21286,196.1129],[16.6826,47.19041,194.4357],[16.68047,47.15941,191.0244],[16.65267,47.16368,194.0945],[16.62915,47.16582,195.3262],[16.60136,47.14765,203.9408],[16.57142,47.16475,222.4608],[16.55004,47.20965,275.1847],[16.53828,47.24493,230.3669],[16.52733,47.26977,262.0164],[16.5316,47.28153,287.5794],[16.55726,47.28153,274.5804],[16.56902,47.27512,241.6401]]]}}