{"type":"Feature","properties":{"GID_1":"HUN.18_1","GID_0":"HUN","country":"Hungary","province":"Vas","VARNAME_1":"NA","NL_NAME_1":"NA","TYPE_1":"Megye","ENGTYPE_1":"County","CC_1":"NA","HASC_1":"HU.VA","ISO_1":"HU-VA","name":"Vas.province"},
"geometry":{"type": "MultiPolygon","coordinates": [[[[16.6095,46.9026,249.6384],[16.6213,46.9071,250.2213],[16.6362,46.9232,247.0588],[16.6789,46.9264,203.267],[16.6822,46.9278,207.4009],[16.6879,46.9342,211.8281],[16.6916,46.9354,217.7752],[16.7356,46.9374,264.2283],[16.7444,46.9352,252.3527],[16.7661,46.9355,208.72],[16.7832,46.9312,250.5001],[16.8,46.9322,201.5498],[16.8056,46.9387,223.0966],[16.8052,46.9509,202.0243],[16.8067,46.9541,200.6346],[16.8219,46.9564,199.8025],[16.8342,46.9606,204.345],[16.834,46.9794,155.3102],[16.8389,46.9824,156.4486],[16.8572,46.9829,162.0756],[16.878,46.9784,201.6274],[16.9303,46.9807,194.5528],[16.9356,46.9794,223.1419],[16.9429,46.9738,174.2176],[16.961,46.9707,159.0853],[17.0104,46.9731,130.209],[17.0134,46.9758,130.8259],[17.0137,46.9929,165.6454],[17.0308,47.0061,148.2271],[17.0337,47.01,150.541],[17.0292,47.0209,163.6322],[17.0275,47.0428,164.4814],[17.0294,47.0481,160.2782],[17.0375,47.0514,174.0288],[17.0587,47.0526,168.4465],[17.0626,47.0507,171.1461],[17.0639,47.0444,165.6405],[17.0661,47.0422,165.2766],[17.0812,47.0395,156.4257],[17.0965,47.0405,170.067],[17.0994,47.0425,162.2047],[17.103,47.0513,169.5889],[17.0992,47.0749,157.535],[17.1232,47.075,154.7565],[17.1365,47.0784,165.0787],[17.1452,47.0842,153.1399],[17.1507,47.0859,153.713],[17.1782,47.0857,147.287],[17.2007,47.0782,133.7598],[17.2156,47.076,136.428],[17.2212,47.0893,133.3338],[17.231,47.0957,135.6448],[17.2266,47.1096,131.9884],[17.2342,47.122,134.3115],[17.2255,47.1319,133.1911],[17.218,47.1511,133.8053],[17.2072,47.1594,133.3629],[17.2054,47.1634,131.6687],[17.2058,47.1681,130.7353],[17.2155,47.18,139.0565],[17.2194,47.1906,134.7479],[17.2119,47.2773,123.7879],[17.231,47.2864,136.7688],[17.2301,47.3063,134.9922],[17.2363,47.3154,122.0313],[17.2563,47.3224,124.8308],[17.295,47.3234,127.1457],[17.2999,47.3262,121.8688],[17.3022,47.3324,122.7044],[17.2922,47.3419,125.4778],[17.282,47.3479,128.3792],[17.2634,47.3536,131.4089],[17.2492,47.3564,141.0325],[17.2348,47.357,143.984],[17.2257,47.3596,151.845],[17.2042,47.3718,148.0717],[17.2012,47.3757,153.9941],[17.2003,47.3846,145.172],[17.2057,47.397,144.0813],[17.1904,47.4051,139.7089],[17.1873,47.4211,134.1073],[17.1805,47.4291,130.6822],[17.1744,47.4328,137.8339],[17.1633,47.4356,133.8435],[17.1497,47.4358,133.8721],[17.1423,47.429,132.6899],[17.1265,47.4213,133.6897],[17.0629,47.404,140.1872],[17.0541,47.4002,142.3018],[17.0457,47.4095,137.7409],[17.0451,47.4127,137.6656],[17.0554,47.4251,135.8303],[17.0566,47.4362,135.1022],[17.0663,47.4418,137.7113],[17.0681,47.4456,135.3951],[17.067,47.4505,135.7865],[17.0596,47.4556,133.1812],[17.0573,47.4614,133.2219],[17.0541,47.4628,133.7346],[17.0444,47.4617,133.1388],[17.0361,47.4509,143.9064],[17.0323,47.448,147.2995],[17.0122,47.4395,137.2626],[17.0018,47.4368,138.0604],[16.9703,47.4205,142.7308],[16.9651,47.4165,143.2422],[16.9586,47.4064,145.8667],[16.9498,47.3992,144.3185],[16.929,47.4042,149.1526],[16.9183,47.4126,153.1838],[16.9066,47.4162,155.5628],[16.8743,47.4168,176.7355],[16.851,47.4378,172.957],[16.8418,47.4428,175.4787],[16.8308,47.4457,176.6604],[16.8254,47.4442,175.353],[16.8189,47.4354,166.7432],[16.8147,47.4339,169.733],[16.8063,47.4341,176.2714],[16.7885,47.4386,172.3782],[16.7575,47.4372,191.0534],[16.7349,47.4262,186.5768],[16.7125,47.4209,183.5794],[16.6969,47.4128,182.9734],[16.6457,47.4229,248.2223],[16.6331,47.4316,242.8842],[16.626,47.4386,255.9213],[16.6236,47.4367,257.598],[16.6216,47.4312,251.3777],[16.6165,47.4328,210.9127],[16.6136,47.4305,210.7013],[16.613,47.432,212.0917],[16.6078,47.4299,215.0852],[16.6064,47.4281,215.7767],[16.6075,47.4274,211.6494],[16.6011,47.4259,213.617],[16.6008,47.4246,219.9563],[16.5977,47.4242,214.6649],[16.598,47.4231,221.6544],[16.5891,47.4232,227.5427],[16.5888,47.4218,223.2387],[16.5925,47.4218,222.6561],[16.5897,47.4212,223.2387],[16.5901,47.4198,252.5023],[16.5849,47.4204,263.614],[16.581,47.4189,269.2108],[16.5839,47.4172,274.2023],[16.5835,47.4157,282.8123],[16.5763,47.4128,299.6399],[16.5786,47.4099,276.527],[16.5756,47.4063,325.7972],[16.5607,47.4074,333.8182],[16.5475,47.406,322.883],[16.5411,47.4105,313.691],[16.5367,47.4095,337.283],[16.5314,47.4106,349.2357],[16.5281,47.409,345.0494],[16.5262,47.4108,331.7165],[16.5181,47.411,335.7845],[16.5149,47.4056,291.2603],[16.509,47.4054,345.7292],[16.5116,47.4008,432.5232],[16.5111,47.3969,489.3052],[16.4977,47.3894,437.6085],[16.4977,47.3967,366.6367],[16.4951,47.3963,386.4733],[16.4942,47.3945,403.2109],[16.49,47.3949,397.7473],[16.4888,47.398,377.1115],[16.4908,47.4001,346.1301],[16.485,47.3983,429.4481],[16.4862,47.4027,407.1784],[16.4919,47.4061,312.1871],[16.4883,47.4066,342.1035],[16.4889,47.4076,315.0575],[16.4865,47.4093,299.7276],[16.4757,47.4094,310.9193],[16.4656,47.4132,307.6421],[16.4593,47.4135,310.1497],[16.4474,47.4086,356.097],[16.4472,47.4016,354.3329],[16.4486,47.3983,399.7355],[16.4566,47.3891,381.4405],[16.4564,47.3875,375.4012],[16.4625,47.3837,409.0627],[16.4563,47.3841,385.7902],[16.4526,47.3801,434.5239],[16.4523,47.3781,452.9295],[16.458,47.3714,509.5599],[16.4578,47.3668,574.0845],[16.4523,47.3615,702.2317],[16.4535,47.3575,783.4142],[16.4476,47.3579,823.2823],[16.4385,47.3558,850.6641],[16.4349,47.3532,870.1708],[16.4457,47.3468,672.6218],[16.4494,47.34,553.8177],[16.4586,47.3396,544.1389],[16.4657,47.3343,600.6243],[16.4643,47.3314,549.1262],[16.4697,47.3256,442.0168],[16.4704,47.3191,344.7751],[16.4759,47.3125,296.2906],[16.4829,47.2981,285.8733],[16.4831,47.2918,287.665],[16.4906,47.2807,275.2126],[16.4848,47.2783,276.4772],[16.4806,47.2784,283.5118],[16.4785,47.2727,307.058],[16.4794,47.2635,282.0618],[16.4811,47.263,277.4114],[16.4683,47.2533,267.6388],[16.4622,47.2564,274.1434],[16.456,47.2541,298.0849],[16.4477,47.2538,300.1555],[16.4498,47.2509,302.5352],[16.4329,47.2533,266.9223],[16.4316,47.2507,261.928],[16.4429,47.249,297.2438],[16.4439,47.2341,278.0013],[16.4422,47.2334,272.1031],[16.4424,47.2308,264.2935],[16.4393,47.2303,302.3154],[16.4378,47.223,297.0829],[16.4405,47.2183,244.4904],[16.4362,47.216,280.759],[16.4377,47.2103,251.1561],[16.4296,47.2105,266.0269],[16.4245,47.2081,259.2081],[16.423,47.2083,254.5593],[16.4221,47.2111,300.2652],[16.4201,47.211,272.5433],[16.418,47.2057,279.4169],[16.4224,47.1977,350.2314],[16.4206,47.1953,297.637],[16.4304,47.1851,243.6445],[16.4424,47.1855,230.6693],[16.4519,47.1887,231.8857],[16.4561,47.1877,231.208],[16.4542,47.1866,231.6577],[16.4585,47.1772,229.5631],[16.4605,47.1769,227.6958],[16.4655,47.1686,230.3912],[16.4618,47.1672,226.6076],[16.4635,47.1618,230.8381],[16.4614,47.1614,227.0746],[16.4618,47.1595,224.5175],[16.4594,47.1576,224.3197],[16.4543,47.1581,224.0238],[16.4531,47.1538,223.4503],[16.4502,47.1523,222.8658],[16.451,47.1459,221.2188],[16.4537,47.1456,221.3224],[16.4554,47.1427,220.5369],[16.4703,47.1432,225.6249],[16.4916,47.1492,269.106],[16.5179,47.1497,244.5804],[16.5238,47.1404,240.4511],[16.5277,47.1373,240.3853],[16.5299,47.1377,234.2395],[16.5305,47.1276,250.7877],[16.501,47.1238,258.8091],[16.5019,47.1106,239.9074],[16.484,47.1091,227.0379],[16.4859,47.103,229.788],[16.4788,47.1018,217.7788],[16.4759,47.1056,216.9341],[16.4729,47.1024,213.2538],[16.4738,47.1009,213.4161],[16.4657,47.0993,212.0328],[16.4675,47.0961,211.1888],[16.4645,47.0953,211.896],[16.4676,47.0915,210.1148],[16.4671,47.0897,210.2486],[16.4696,47.0901,210.0683],[16.4702,47.0881,210.2013],[16.4759,47.0857,210.7714],[16.4751,47.0821,209.7831],[16.4732,47.0818,210.4072],[16.472,47.0786,207.991],[16.474,47.0739,206.9656],[16.4836,47.0754,211.0242],[16.4839,47.0724,210.4588],[16.4882,47.0693,210.0851],[16.4969,47.0709,214.0358],[16.5112,47.0666,225.3335],[16.5216,47.0619,221.0782],[16.5217,47.0566,217.3458],[16.5078,47.0499,211.2468],[16.5021,47.0511,206.9156],[16.4989,47.0488,206.2292],[16.477,47.0472,201.9519],[16.4698,47.0436,201.4185],[16.4624,47.0437,205.552],[16.4574,47.0406,231.9233],[16.4458,47.039,229.7169],[16.4413,47.0363,232.7955],[16.4452,47.0348,220.1078],[16.44,47.0301,215.992],[16.4489,47.023,209.4413],[16.4648,47.0326,218.2981],[16.4716,47.0284,212.4495],[16.4762,47.0276,198.5792],[16.4788,47.0217,197.8399],[16.4833,47.023,199.1061],[16.4848,47.0184,198.5643],[16.4937,47.0105,196.8623],[16.4977,47.0105,195.8034],[16.5098,47.004,195.3336],[16.5135,47.0039,195.1497],[16.5135,47.0019,201.4718],[16.511,47.0008,200.7084],[16.5071,47.0019,198.0406],[16.5068,47.0007,198.0406],[16.5052,47.0021,195.8098],[16.5026,46.9997,217.0856],[16.4981,46.9986,230.5746],[16.4903,47.0007,212.7057],[16.49,46.9977,237.5096],[16.4879,46.9961,234.4099],[16.4803,46.9942,209.7292],[16.475,46.9977,204.9855],[16.4672,46.9987,211.8228],[16.4648,46.9974,199.753],[16.4611,47.0021,205.6807],[16.4575,47.0014,206.1113],[16.4526,47.0046,199.8347],[16.4472,47.0029,217.0144],[16.4481,46.9997,252.4494],[16.4466,46.9936,262.5412],[16.4335,46.993,277.4177],[16.421,46.9966,267.5933],[16.4182,47.0017,282.9635],[16.4137,47.0051,282.1276],[16.3946,47.0037,275.2209],[16.3842,46.9991,301.9667],[16.3775,47.0005,285.1994],[16.374,46.9988,263.657],[16.3684,47.0066,269.4236],[16.3652,47.0077,265.6128],[16.3607,47.0059,292.4285],[16.351,47.0108,308.5686],[16.345,47.0043,279.9771],[16.3465,47.0025,258.5432],[16.3439,46.9994,255.5435],[16.3452,46.9984,237.9306],[16.3445,46.997,239.6256],[16.3429,46.9965,263.2142],[16.3236,47.0029,308.5728],[16.3045,46.9986,350.3531],[16.2997,47.0017,341.9796],[16.2997,47.0099,289.5645],[16.2937,47.0143,318.8514],[16.2912,47.0143,348.0893],[16.2838,47.0046,338.7136],[16.283,46.9997,325.9857],[16.2846,46.9979,321.2791],[16.2769,46.9845,228.4326],[16.2786,46.9692,218.6917],[16.2775,46.963,220.1919],[16.2704,46.9616,218.8263],[16.2642,46.964,218.5],[16.2564,46.9646,220.7728],[16.2505,46.9617,224.7689],[16.2439,46.9564,227.1703],[16.2481,46.9494,223.6587],[16.2461,46.9494,222.9687],[16.2467,46.9471,223.3689],[16.2387,46.9473,224.1991],[16.235,46.9453,224.776],[16.2338,46.9423,226.119],[16.2295,46.9435,226.7438],[16.2302,46.9417,226.515],[16.2252,46.9406,225.9725],[16.2231,46.936,227.2337],[16.2185,46.9365,227.1597],[16.2187,46.9412,227.1279],[16.217,46.9395,229.9237],[16.2129,46.9406,228.1779],[16.2111,46.9429,233.4923],[16.2116,46.9408,233.6493],[16.2088,46.9392,230.4737],[16.207,46.9429,229.7785],[16.201,46.9422,230.2318],[16.1945,46.9361,233.5704],[16.1888,46.9227,294.1091],[16.1815,46.9128,304.0568],[16.1803,46.907,331.6943],[16.1751,46.9063,286.226],[16.1723,46.9038,302.9453],[16.1641,46.9052,296.1714],[16.1632,46.9026,317.2062],[16.1601,46.9008,310.0094],[16.1596,46.8976,317.3694],[16.1544,46.8968,335.7122],[16.1551,46.894,337.0013],[16.1498,46.8934,306.8099],[16.1495,46.8905,311.9216],[16.1463,46.8864,350.7408],[16.1398,46.8855,378.9097],[16.1343,46.8761,367.6035],[16.1138,46.8696,383.8391],[16.1223,46.865,381.5359],[16.1261,46.8596,377.2432],[16.1489,46.858,342.9499],[16.1527,46.8561,370.5781],[16.162,46.8621,354.0073],[16.1725,46.8597,379.7357],[16.1785,46.8611,364.5505],[16.1819,46.8656,338.7977],[16.2204,46.8714,350.6193],[16.2323,46.8777,353.3666],[16.241,46.8782,337.234],[16.2696,46.8738,314.3027],[16.2872,46.8747,325.2677],[16.2939,46.8737,336.4793],[16.3018,46.8638,328.804],[16.3101,46.8575,309.8287],[16.3167,46.8573,309.0377],[16.3256,46.8491,293.6999],[16.3299,46.8473,294.4023],[16.3373,46.8492,290.7999],[16.339,46.8448,294.1408],[16.3454,46.8426,289.244],[16.3503,46.8308,260.9597],[16.3433,46.8294,269.95],[16.3423,46.8231,234.8703],[16.339,46.817,225.1896],[16.3375,46.8059,285.955],[16.3197,46.8011,285.9911],[16.312,46.7959,293.6566],[16.3099,46.7891,279.4605],[16.3102,46.781,239.5924],[16.3149,46.7782,274.803],[16.318,46.7783,266.6184],[16.3259,46.7718,233.5974],[16.3189,46.7564,294.7704],[16.3244,46.7516,285.4725],[16.3314,46.7499,293.341],[16.3332,46.7447,288.2174],[16.3395,46.7366,265.4961],[16.3447,46.7331,277.8],[16.3531,46.7144,214.137],[16.3677,46.7199,235.6432],[16.3761,46.7127,232.4974],[16.394,46.7195,207.01],[16.403199999999998,46.7261,207.7763],[16.4072,46.7389,195.5267],[16.4151,46.7522,222.0811],[16.4175,46.7626,238.3651],[16.4164,46.7682,241.1152],[16.4084,46.7753,272.6381],[16.4102,46.7796,224.4396],[16.4228,46.7863,206.938],[16.4297,46.7876,210.3],[16.44,46.7873,209.98],[16.4437,46.7838,208.0311],[16.4474,46.7828,207.5424],[16.4672,46.7842,215.8863],[16.4815,46.7886,222.4791],[16.4963,46.7989,237.7662],[16.5147,46.8042,248.5026],[16.5169,46.8087,249.9406],[16.5171,46.8299,248.5394],[16.5196,46.836,207.4202],[16.5365,46.8397,198.8296],[16.551,46.8453,194.6266],[16.5588,46.8456,205.0016],[16.5671,46.8437,188.6658],[16.5722,46.8446,187.8494],[16.5921,46.8708,227.6205],[16.5972,46.8899,243.4811],[16.6011,46.8965,254.0978],[16.6095,46.9026,249.6384]]]]}}