{"type": "Feature","bbox": [20.8448,46.8383,21.4146,47.2397],"geometry": {"type": "MultiPolygon","coordinates": [[[[21.2775,46.8403,84.6432],[21.2797,46.8489,85.064],[21.2757,46.8612,84.9236],[21.276,46.8857,86.178],[21.2771,46.8893,85.9296],[21.286,46.8985,85.0383],[21.2999,46.9111,86.9968],[21.3085,46.9167,85.4469],[21.3517,46.9308,84.8244],[21.3714,46.9318,85.9942],[21.379,46.9419,86.4977],[21.3834,46.9418,86.4121],[21.3985,46.9348,86.4428],[21.4038,46.9362,86.9719],[21.4077,46.9395,86.2838],[21.4128,46.949,88.2337],[21.4146,46.9648,88.6229],[21.4129,46.9696,88.7309],[21.4077,46.9718,87.9162],[21.3795,46.9724,86.044],[21.367,46.9753,85.4641],[21.3451,46.9765,86.4427],[21.3358,46.9799,88.0009],[21.3226,46.9879,85.9685],[21.2948,46.9952,84.1951],[21.2574,47.0091,86.3805],[21.2482,47.0111,88.5908],[21.2244,47.02,86.3009],[21.2207,47.0229,86.4375],[21.22,47.0311,87.2056],[21.2237,47.0387,87.9996],[21.2243,47.0447,87.2534],[21.2237,47.0529,86.0003],[21.2203,47.0598,86.4021],[21.2212,47.0638,86.1461],[21.2267,47.0678,85.8944],[21.2698,47.0869,87.2565],[21.2798,47.1002,108.3896],[21.2779,47.1389,86.1706],[21.2739,47.1468,85.6406],[21.2752,47.1523,92.704],[21.264,47.1521,85.4781],[21.2538,47.1499,84.9729],[21.2329,47.1506,84.0605],[21.1985,47.1676,83.7601],[21.1222,47.1829,83.6552],[21.113,47.188,83.6124],[21.0684,47.2063,84.0314],[21.0488,47.2013,85.2748],[21.0375,47.2072,84.8873],[21.0324,47.2116,84.8936],[21.032,47.225,85.116],[21.0302,47.228,84.7563],[21.0126,47.2357,83.9043],[20.9975,47.2397,84.3055],[20.9895,47.2393,84.3661],[20.9717,47.2341,83.2092],[20.9669,47.2279,83.5017],[20.9593,47.2076,83.9204],[20.9491,47.1977,83.9366],[20.9365,47.1895,83.5808],[20.8869,47.1787,83.267],[20.8774,47.1754,83.378],[20.8529,47.1624,83.8932],[20.8513,47.1562,83.5756],[20.8513,47.137,82.909],[20.8612,47.1247,84.1416],[20.859,47.1224,84.5616],[20.8498,47.1186,84.9146],[20.8462,47.115,84.9149],[20.8448,47.0831,82.7788],[20.8541,47.0708,82.8136],[20.8836,47.0192,83.6004],[20.8822,46.9728,83.6445],[20.8837,46.9689,84.8231],[20.9013,46.965,83.7122],[20.9184,46.9639,84.5415],[20.9524,46.9571,82.9331],[20.9584,46.9546,83.4559],[20.9608,46.9518,83.2658],[20.9601,46.9466,82.8808],[20.9506,46.9391,82.7745],[20.9497,46.9368,87.4337],[20.9523,46.9345,89.2799],[20.9684,46.9286,83.098],[20.9738,46.9288,83.7026],[20.9884,46.9348,83.061],[20.9992,46.9304,84.3917],[21.0101,46.9325,85.9384],[21.0128,46.9339,84.6609],[21.0147,46.9395,84.3124],[21.0176,46.9409,84.6266],[21.034,46.9399,84.015],[21.062,46.9201,85.3356],[21.0892,46.9178,84.8041],[21.0911,46.9156,83.845],[21.091,46.9071,87.4627],[21.0923,46.9046,95.3244],[21.1101,46.9021,84.2503],[21.1177,46.8896,84.2471],[21.1348,46.8804,83.3076],[21.1509,46.8844,84.043],[21.1555,46.8874,84.9675],[21.1563,46.8934,84.5536],[21.1522,46.9035,84.0068],[21.1538,46.9096,83.7671],[21.1906,46.9092,97.5541],[21.1936,46.9064,84.6847],[21.1942,46.8933,84.5367],[21.2089,46.8898,85.0813],[21.2151,46.8717,85.7369],[21.2329,46.8691,86.1401],[21.239,46.8598,90.486],[21.2505,46.8562,88.8323],[21.2638,46.8383,92.3098],[21.2775,46.8403,84.6432]]]]}
,"properties": {"GID_2": "HUN.3.8_1","GID_0": "HUN","country": "Hungary","GID_1": "HUN.3_1","province": "Békés","NL_NAME_1": "NA","county": "Szeghalmi","VARNAME_2": "NA","NL_NAME_2": "NA","TYPE_2": "Kistérség","ENGTYPE_2": "Subregion","CC_2": "NA","HASC_2": "NA","name": "Szeghalmi.county","area_km2": 984.1786,"hist_schema_id": "Elevation0-9000","hist_area_km2": {"75": 908.1261,"100": 76.0526}}}