{"type":"Feature","properties":{"GID_2":"HUN.12.2_1","GID_0":"HUN","country":"Hungary","GID_1":"HUN.12_1","province":"Komárom-Esztergom","NL_NAME_1":"NA","county":"Esztergom","VARNAME_2":"Esztergomi","NL_NAME_2":"NA","TYPE_2":"Kistérség","ENGTYPE_2":"Subregion","CC_2":"NA","HASC_2":"NA","name":"Esztergom.county"},
"geometry":{"type": "MultiPolygon","coordinates": [[[[18.8611,47.7246,481.3925],[18.886,47.7286,621.1016],[18.9004,47.7336,438.6324],[18.9039,47.7328,356.9047],[18.9119,47.7234,494.1425],[18.9149,47.7226,477.7099],[18.9281,47.7233,472.9714],[18.9339,47.729,579.58],[18.9372,47.7418,409.2798],[18.9221,47.7534,322.1044],[18.9196,47.7815,261.4428],[18.9129,47.7818,120.5215],[18.9095,47.7838,101.0],[18.9063,47.8026,112.6863],[18.8966,47.8132,130.1036],[18.8784,47.8114,101.5],[18.8703,47.8131,102.0],[18.8627,47.8171,112.7668],[18.8488,47.8195,105.2531],[18.8482,47.8171,102.0],[18.782,47.8191,102.0],[18.7544,47.8183,102.0],[18.7423,47.8155,103.8252],[18.7344,47.8105,102.0],[18.7257,47.7914,103.3398],[18.6976,47.7761,102.0],[18.663,47.7613,102.5],[18.6171,47.7592,105.7644],[18.5524,47.7689,102.5],[18.5385,47.7668,102.5],[18.5194,47.7584,102.5],[18.5054,47.7547,102.5],[18.4938,47.754,102.5],[18.4826,47.7563,103.0],[18.4606,47.7643,103.0],[18.4483,47.7658,103.0],[18.4381,47.7631,103.0],[18.4312,47.7595,103.0],[18.4295,47.7378,160.2272],[18.4316,47.7311,180.6089],[18.4471,47.7178,207.4057],[18.4487,47.7086,186.4996],[18.4529,47.6984,305.5789],[18.4751,47.6861,460.0697],[18.4901,47.67,591.2477],[18.497,47.6756,622.078],[18.5115,47.6812,382.3537],[18.5295,47.6704,266.6263],[18.5426,47.6588,335.9602],[18.5557,47.6778,315.9053],[18.5697,47.6941,228.8513],[18.5758,47.6957,287.3217],[18.6039,47.6958,173.5136],[18.6069,47.698,166.9689],[18.6143,47.7093,170.3597],[18.6164,47.7185,211.3268],[18.6208,47.7266,177.4523],[18.6389,47.7279,113.4619],[18.6604,47.7355,109.9859],[18.7149,47.736,116.7617],[18.7256,47.7329,123.3369],[18.7419,47.7243,131.3173],[18.7458,47.7252,128.4585],[18.758,47.7323,193.3321],[18.7778,47.7343,236.439],[18.8111,47.7293,457.6547],[18.8376,47.7304,352.339],[18.8611,47.7246,481.3925]]]]}}