{"type": "Feature","bbox": [16.8462,46.305,17.2383,46.7155],"geometry": {"type": "MultiPolygon","coordinates": [[[[16.8781,46.3083,137.0428],[16.9061,46.3178,187.8548],[16.9442,46.319,188.183],[16.9483,46.3176,191.811],[16.9543,46.3081,214.4058],[16.9636,46.305,215.417],[16.9683,46.3069,197.7245],[16.9767,46.3156,215.2985],[16.9886,46.32,214.5666],[17.0046,46.3204,187.3638],[17.0209,46.315,199.2156],[17.0337,46.3156,204.8056],[17.0431,46.3187,184.4527],[17.0478,46.3227,234.1279],[17.0486,46.3387,209.7621],[17.0551,46.3462,175.4482],[17.0596,46.3559,202.5881],[17.06,46.3602,188.1601],[17.0501,46.379,187.6507],[17.0345,46.4002,172.1424],[17.0332,46.4139,214.3764],[17.0355,46.4185,206.6602],[17.0408,46.4204,205.2773],[17.0517,46.4204,182.1305],[17.0706,46.4129,179.0425],[17.0764,46.4123,203.299],[17.0834,46.4152,235.3008],[17.0905,46.4233,200.0472],[17.0949,46.4242,221.5883],[17.1223,46.4169,171.8955],[17.1329,46.4169,157.6422],[17.1392,46.419,150.5684],[17.1459,46.4268,148.476],[17.158,46.4354,154.3275],[17.1899,46.4371,123.504],[17.1924,46.4395,123.0],[17.1979,46.4482,131.1189],[17.1985,46.4654,122.572],[17.2019,46.4736,125.1921],[17.2017,46.4783,123.7599],[17.1979,46.4868,126.0885],[17.1984,46.5003,125.1213],[17.206,46.5065,119.9172],[17.2358,46.5177,133.0839],[17.2383,46.5213,130.1154],[17.2374,46.5265,127.2432],[17.2223,46.5496,107.0751],[17.2213,46.5543,106.7698],[17.2204,46.6247,105.6179],[17.2281,46.6437,105.2123],[17.2282,46.6742,106.0598],[17.2166,46.6691,105.0473],[17.2146,46.6613,105.4585],[17.2098,46.6552,105.594],[17.2019,46.6519,104.5],[17.191,46.651,105.8693],[17.184,46.6525,104.59],[17.168,46.6623,118.5851],[17.1568,46.6668,120.1495],[17.1531,46.6701,117.5197],[17.1508,46.6759,121.8928],[17.1476,46.6781,106.1349],[17.1437,46.6773,105.1474],[17.1383,46.67,105.04],[17.1304,46.6684,106.7414],[17.1218,46.6692,113.534],[17.1127,46.6757,115.1681],[17.1073,46.6762,118.5393],[17.0972,46.6725,131.6825],[17.090699999999998,46.6676,177.6992],[17.0789,46.6651,144.9621],[17.0761,46.6616,190.9662],[17.0754,46.653,186.3907],[17.0678,46.6496,235.2872],[17.0643,46.651,238.3469],[17.059,46.658,216.5047],[17.0563,46.6593,181.2705],[17.0515,46.6584,181.5569],[17.048,46.6537,234.51],[17.0423,46.6546,198.1932],[17.0412,46.6703,162.3842],[17.0378,46.6777,191.1609],[17.039,46.6803,207.2439],[17.0475,46.6872,172.3699],[17.0484,46.6911,206.4424],[17.045,46.6969,216.9813],[17.042,46.6983,206.9115],[17.0314,46.6976,191.1874],[17.0248,46.6996,193.8047],[17.0237,46.702,185.716],[17.0257,46.7082,184.8902],[17.0227,46.7131,176.5424],[17.0185,46.7155,188.2123],[16.9999,46.7151,160.2709],[16.9904,46.7095,146.4761],[16.9744,46.7081,152.7795],[16.9633,46.7051,173.3566],[16.9468,46.7071,160.1163],[16.9262,46.7066,151.7637],[16.9174,46.7034,164.0674],[16.9117,46.6923,174.6468],[16.9047,46.685,187.2453],[16.9026,46.6762,208.0706],[16.8881,46.6583,248.1126],[16.8826,46.6429,250.3956],[16.8752,46.6394,298.8354],[16.8788,46.6334,236.6654],[16.8795,46.6256,268.7683],[16.8755,46.6089,250.4276],[16.884,46.5988,242.6446],[16.885,46.5811,205.813],[16.8875,46.5744,262.0572],[16.8819,46.5653,201.979],[16.8815,46.5612,270.5173],[16.8864,46.5553,195.7999],[16.8932,46.5516,222.8133],[16.8946,46.5478,188.1356],[16.8845,46.5357,331.3348],[16.8713,46.5298,251.378],[16.8693,46.5261,294.8782],[16.8706,46.5055,257.0206],[16.8833,46.4894,258.9617],[16.8844,46.4845,214.1952],[16.8831,46.4804,176.5973],[16.8768,46.4738,201.2794],[16.8647,46.4462,162.8406],[16.8665,46.4083,171.6201],[16.8637,46.4,168.4332],[16.8651,46.3979,165.3837],[16.8755,46.3936,173.1575],[16.8796,46.3855,163.9393],[16.8769,46.3802,156.1248],[16.8727,46.3777,154.0193],[16.8611,46.379,139.1949],[16.8566,46.3774,139.8268],[16.8495,46.3701,133.3925],[16.8462,46.3643,140.9949],[16.8499,46.3628,134.866],[16.8524,46.3559,140.0941],[16.8563,46.3544,138.1938],[16.8669,46.3554,128.9167],[16.8667,46.3522,127.6978],[16.8634,46.3472,134.8861],[16.8661,46.3449,132.5659],[16.8748,46.3424,130.1021],[16.8729,46.3392,128.9319],[16.8737,46.3372,135.1447],[16.8784,46.3368,137.2156],[16.881,46.3344,130.9256],[16.8752,46.3279,130.7527],[16.8765,46.3114,128.621],[16.8781,46.3083,137.0428]]]]}
,"properties": {"GID_2": "HUN.20.4_1","GID_0": "HUN","country": "Hungary","GID_1": "HUN.20_1","province": "Zala","NL_NAME_1": "NA","county": "Nagykanizsai/Zalakaros","VARNAME_2": "NA","NL_NAME_2": "NA","TYPE_2": "Kistérség","ENGTYPE_2": "Subregion","CC_2": "NA","HASC_2": "NA","name": "Nagykanizsai_Zalakaros.county","area_km2": 902.7726,"hist_schema_id": "Elevation0-9000","hist_area_km2": {"100": 67.9592,"125": 114.7162,"150": 264.945,"175": 202.8569,"200": 127.8766,"225": 68.719,"250": 33.105,"275": 15.9033,"300": 6.021,"325": 0.6705}}}