{"type":"Feature","properties":{"GID_2":"HUN.11.7_1","GID_0":"HUN","country":"Hungary","GID_1":"HUN.11_1","province":"Jász-Nagykun-Szolnok","NL_NAME_1":"NA","county":"Törökszentmiklós","VARNAME_2":"Törökszentmiklósi","NL_NAME_2":"NA","TYPE_2":"Kistérség","ENGTYPE_2":"Subregion","CC_2":"NA","HASC_2":"NA","name":"Törökszentmiklós.county"},
"geometry":{"type": "MultiPolygon","coordinates": [[[[20.5469,47.3218,90.6495],[20.5319,47.3276,86.6863],[20.5077,47.3285,88.4696],[20.502,47.3315,86.8968],[20.4957,47.3381,87.6976],[20.4838,47.3417,84.3341],[20.4668,47.3371,83.935],[20.451,47.3357,83.3178],[20.4433,47.3301,88.2614],[20.4436,47.3253,85.458],[20.4482,47.3215,85.1655],[20.455,47.3195,86.5414],[20.4709,47.3189,83.9436],[20.4765,47.3135,81.9016],[20.4763,47.3082,80.0],[20.464,47.2916,86.8975],[20.4665,47.2867,80.0],[20.479,47.2828,85.7582],[20.4775,47.2804,84.6384],[20.4711,47.2781,90.2728],[20.4708,47.2747,89.1602],[20.4811,47.2687,84.5522],[20.5001,47.2707,85.7911],[20.5192,47.2648,89.0291],[20.5232,47.2621,89.1988],[20.5242,47.2588,88.1849],[20.5236,47.2557,87.8766],[20.5208,47.2539,89.1299],[20.5057,47.2539,84.6472],[20.4907,47.2563,84.756],[20.4861,47.254,85.0406],[20.4795,47.2462,85.3586],[20.4654,47.2475,84.4078],[20.4608,47.2432,82.6898],[20.4577,47.2375,84.7875],[20.4479,47.2363,85.7222],[20.4422,47.2386,89.3864],[20.4423,47.2499,85.4076],[20.4408,47.2529,89.7484],[20.4255,47.2545,88.4088],[20.4132,47.2616,93.8987],[20.4056,47.2609,90.0212],[20.3972,47.2527,82.4818],[20.3913,47.2512,86.4661],[20.3874,47.2526,85.7327],[20.386,47.2594,82.2352],[20.3822,47.2622,85.4191],[20.3638,47.2633,97.7725],[20.352,47.2659,87.8643],[20.3467,47.2645,87.9311],[20.3382,47.254,89.8467],[20.3279,47.2494,89.7866],[20.3169,47.2412,86.6856],[20.3076,47.2412,86.9289],[20.2983,47.2468,84.5196],[20.29,47.2457,86.2915],[20.2894,47.2293,84.3925],[20.2966,47.2166,85.9356],[20.2936,47.21,80.5488],[20.2925,47.1988,92.2046],[20.2883,47.1912,90.108],[20.2758,47.1873,88.4128],[20.2606,47.1894,85.1896],[20.2552,47.1875,84.9622],[20.2476,47.181399999999996,85.3059],[20.246,47.1717,84.3699],[20.2425,47.1646,91.6384],[20.245,47.1615,84.1138],[20.256,47.1586,84.0289],[20.27,47.1575,83.6636],[20.2772,47.1548,84.782],[20.2872,47.1422,85.7262],[20.2875,47.1231,86.0937],[20.2911,47.1143,82.9309],[20.2897,47.1121,83.0323],[20.2809,47.1108,93.5559],[20.2786,47.1081,98.8002],[20.2778,47.0986,84.7205],[20.2746,47.0931,88.113],[20.2737,47.0872,89.6842],[20.279,47.0733,87.7616],[20.2905,47.0655,82.0],[20.31,47.0638,86.2371],[20.3165,47.0569,88.6844],[20.3292,47.0518,87.077],[20.338,47.0458,86.549],[20.3498,47.0278,85.8052],[20.3625,47.0231,85.2201],[20.3664,47.0296,85.7476],[20.3772,47.0382,85.2903],[20.3888,47.0534,85.9346],[20.4038,47.0648,85.7011],[20.4058,47.0999,86.595],[20.4144,47.1042,86.3405],[20.4397,47.1076,84.9898],[20.4658,47.1021,84.8568],[20.5121,47.1023,83.8186],[20.52,47.1028,84.158],[20.5375,47.1077,83.7625],[20.549,47.1014,84.4025],[20.5565,47.0916,84.7954],[20.5612,47.0886,84.2825],[20.575,47.086,85.6385],[20.5895,47.0902,85.3719],[20.5906,47.0956,84.9971],[20.59,47.1107,84.8229],[20.5872,47.1154,85.3842],[20.5856,47.1227,84.1034],[20.5771,47.1338,85.2157],[20.5786,47.1491,85.4175],[20.5823,47.156,85.4386],[20.5835,47.1705,85.8731],[20.5885,47.1775,85.1755],[20.5922,47.1795,85.1367],[20.6079,47.1779,85.214],[20.6166,47.181,84.9687],[20.6218,47.1897,85.3811],[20.6224,47.1971,85.8298],[20.621,47.2006,86.0734],[20.6109,47.2112,87.004],[20.6059,47.2244,86.3354],[20.6057,47.2502,84.9898],[20.6019,47.2594,86.1579],[20.6014,47.275,87.1083],[20.5636,47.2902,86.6508],[20.5431,47.2917,87.5888],[20.5427,47.2945,87.0115],[20.5502,47.3055,87.3738],[20.5497,47.3099,87.5183],[20.5465,47.316,88.4779],[20.5469,47.3218,90.6495]]]]}}