{"type":"Feature","properties":{"GID_2":"HUN.17.3_1","GID_0":"HUN","country":"Hungary","GID_1":"HUN.17_1","province":"Tolna","NL_NAME_1":"NA","county":"Paks","VARNAME_2":"Paksi","NL_NAME_2":"NA","TYPE_2":"Kistérség","ENGTYPE_2":"Subregion","CC_2":"NA","HASC_2":"NA","name":"Paks.county"},
"geometry":{"type": "MultiPolygon","coordinates": [[[[18.9297,46.8602,98.3156],[18.921,46.8643,97.8496],[18.9012,46.8675,119.2102],[18.8973,46.8659,117.1286],[18.8918,46.8601,119.2778],[18.8718,46.8532,120.9384],[18.8702,46.8497,115.4778],[18.8735,46.8439,114.9858],[18.873,46.8413,101.6308],[18.8464,46.8169,124.4643],[18.8212,46.7996,168.1604],[18.7972,46.7905,174.0589],[18.7939,46.7846,177.7233],[18.7938,46.772,187.3905],[18.7917,46.7692,187.57],[18.7842,46.7687,193.7116],[18.7708,46.7716,193.0143],[18.7492,46.7714,145.6818],[18.7195,46.7611,136.0211],[18.717,46.7574,131.355],[18.7172,46.7505,118.2238],[18.7192,46.7471,118.0223],[18.7295,46.7384,132.8781],[18.7295,46.7261,128.4721],[18.7214,46.7223,143.1419],[18.7009,46.7182,151.6048],[18.6906,46.7146,150.8164],[18.6855,46.7109,161.4459],[18.6789,46.7024,156.5097],[18.6716,46.6989,154.8509],[18.6446,46.6923,94.5553],[18.6257,46.6986,94.3229],[18.624,46.7067,94.928],[18.628,46.7171,95.1672],[18.6283,46.7259,95.9431],[18.6244,46.7347,95.3902],[18.6231,46.7435,95.694],[18.6178,46.7517,95.7982],[18.6029,46.7466,97.0819],[18.5868,46.739,103.7079],[18.5743,46.7248,119.6363],[18.5505,46.7161,218.9666],[18.5505,46.7128,216.3712],[18.5642,46.6999,193.0811],[18.5728,46.6883,158.9284],[18.5745,46.6807,167.2378],[18.586,46.6531,126.359],[18.5848,46.6509,117.7985],[18.5739,46.6468,128.4348],[18.5705,46.6437,136.0357],[18.5694,46.6339,148.7908],[18.5664,46.6284,155.9741],[18.566,46.6193,124.1643],[18.5674,46.6151,109.1161],[18.574,46.6065,115.5065],[18.5747,46.6002,102.2274],[18.5639,46.5872,124.757],[18.5632,46.584,113.8886],[18.5686,46.5784,157.3941],[18.5739,46.5758,176.9249],[18.5922,46.5747,97.5352],[18.596,46.5727,93.7332],[18.5974,46.5297,92.1635],[18.6029,46.5291,102.6258],[18.6299,46.5391,107.0466],[18.6419,46.5379,108.9111],[18.6512,46.5407,114.2766],[18.688,46.5603,107.9349],[18.6972,46.5689,119.1549],[18.7083,46.5726,141.5746],[18.7193,46.572,147.7447],[18.7498,46.5629,153.8084],[18.7644,46.5523,150.6974],[18.769,46.543,130.0421],[18.7704,46.5331,108.4975],[18.7738,46.5258,99.9093],[18.7701,46.5213,99.3199],[18.7542,46.5141,111.6296],[18.7536,46.5124,106.5562],[18.7552,46.5102,104.8651],[18.7679,46.5062,102.1646],[18.8127,46.506,90.8881],[18.8438,46.4999,90.4931],[18.8489,46.4951,90.3183],[18.8718,46.463,89.6385],[18.8812,46.4533,90.6925],[18.9007,46.4459,90.6629],[18.9119,46.4438,102.7052],[18.9172,46.4574,92.7717],[18.9171,46.4959,87.0584],[18.904,46.5148,98.197],[18.8885,46.5306,94.5786],[18.8876,46.5714,86.0],[18.8823,46.5822,86.3141],[18.8674,46.5974,96.6499],[18.8673,46.6217,86.5],[18.8757,46.6318,86.5],[18.8917,46.6392,92.6403],[18.9376,46.6402,88.7093],[18.9556,46.6504,90.1265],[18.9792,46.6558,94.0717],[18.9979,46.6804,104.8412],[19.0076,46.7055,89.0],[19.0069,46.7111,89.25],[19.0037,46.7165,89.75],[19.0026,46.7257,93.9692],[18.9938,46.743899999999996,94.7621],[18.9742,46.7709,109.7653],[18.9634,46.7944,97.7252],[18.9535,46.8075,108.2289],[18.9455,46.8129,110.161],[18.9349,46.8175,105.4457],[18.9306,46.8217,100.8672],[18.9303,46.8273,110.2131],[18.934,46.8341,114.9572],[18.9346,46.8432,94.8379],[18.9297,46.8602,98.3156]]]]}}