{"type": "Feature","bbox": [20.4049,46.2431,21.6906,47.2394],"geometry": {"type": "MultiPolygon","coordinates": [[[[21.2207,46.4114,101.0276],[21.227,46.4139,98.4244],[21.2412,46.4107,100.1112],[21.277,46.407,101.0344],[21.2849,46.4035,101.0974],[21.2979,46.407,103.7235],[21.2911,46.4139,101.4919],[21.2914,46.4155,101.36],[21.2951,46.4178,100.6364],[21.2986,46.4246,101.2772],[21.3132,46.4404,100.1194],[21.3149,46.4498,99.5029],[21.319,46.4513,98.3834],[21.2979,46.4764,96.4639],[21.2759,46.4768,98.2044],[21.2744,46.4837,96.1099],[21.262,46.5023,95.335],[21.2777,46.5353,93.6888],[21.2758,46.5411,92.9309],[21.282,46.5453,92.4761],[21.2913,46.5446,91.8988],[21.2952,46.5526,90.9683],[21.2991,46.5537,91.6844],[21.3066,46.5609,90.6271],[21.3051,46.5646,90.4647],[21.3223,46.5831,89.6035],[21.3177,46.5859,89.8458],[21.3157,46.5844,89.4561],[21.31,46.5878,90.3598],[21.3086,46.5867,90.6718],[21.3028,46.5911,89.3639],[21.3085,46.5993,89.7434],[21.3085,46.6021,88.7463],[21.3157,46.6179,87.7546],[21.3315,46.6319,89.8476],[21.3364,46.6293,89.3879],[21.3494,46.6317,88.9927],[21.3547,46.6306,88.8179],[21.3672,46.6382,93.2697],[21.38,46.6335,88.1991],[21.3832,46.6286,89.119],[21.4116,46.6222,90.3624],[21.418,46.6428,89.4489],[21.4233,46.6468,88.9202],[21.4341,46.6484,88.3042],[21.4432,46.6518,87.9912],[21.4566,46.6615,88.8263],[21.4573,46.6674,90.4333],[21.4441,46.6668,90.4609],[21.433,46.6781,89.1707],[21.4318,46.6803,89.1146],[21.4333,46.6824,88.672],[21.4293,46.6894,89.6059],[21.4315,46.6941,90.2958],[21.436,46.6959,88.0864],[21.4528,46.6889,89.0365],[21.4746,46.696,91.2803],[21.4803,46.6927,88.8544],[21.4858,46.6917,89.347],[21.4913,46.6863,89.5544],[21.4938,46.6863,89.3641],[21.4971,46.688,88.561],[21.5018,46.6958,89.4111],[21.5091,46.6984,90.5558],[21.5089,46.7006,90.3925],[21.5109,46.7015,90.668],[21.5091,46.7052,90.578],[21.514,46.7081,90.2936],[21.5127,46.712,90.9932],[21.5211,46.7141,90.9297],[21.5309,46.7211,90.8254],[21.532,46.7276,90.9492],[21.5283,46.7395,90.456],[21.5133,46.7454,90.8314],[21.4949,46.7578,88.6289],[21.4866,46.7587,89.1663],[21.4851,46.765,88.9388],[21.4918,46.7761,88.2764],[21.4951,46.7753,87.9307],[21.511,46.7836,88.0465],[21.5133,46.7903,88.2856],[21.5169,46.7942,88.4287],[21.5155,46.7958,88.3397],[21.5203,46.8002,88.4714],[21.521,46.8058,88.2534],[21.5238,46.8088,87.9654],[21.5226,46.8122,88.169],[21.5241,46.8142,88.0417],[21.5228,46.8202,88.3809],[21.5206,46.8213,87.7454],[21.5221,46.8277,88.0945],[21.5208,46.8363,87.6066],[21.522,46.8377,87.7417],[21.5259,46.8397,87.5878],[21.5362,46.8399,88.4175],[21.5395,46.8444,87.8534],[21.5396,46.8478,88.063],[21.5498,46.8491,88.365],[21.5587,46.854,89.7429],[21.5707,46.8542,89.5947],[21.5716,46.8558,94.0811],[21.5825,46.8578,90.1639],[21.586,46.8602,90.784],[21.5968,46.8608,92.5752],[21.5994,46.865,92.2694],[21.6036,46.867,92.8657],[21.6049,46.869,91.6958],[21.6027,46.8792,92.5628],[21.6051,46.8853,92.2542],[21.6159,46.8868,91.2217],[21.6088,46.9047,91.849],[21.6043,46.9043,94.0084],[21.6018,46.9069,93.5427],[21.6019,46.9095,92.8383],[21.6006,46.9095,92.2438],[21.601,46.9164,92.8562],[21.5989,46.9183,93.2259],[21.6003,46.9278,91.499],[21.6076,46.9328,92.2936],[21.6399,46.9333,94.7018],[21.6424,46.9392,94.4272],[21.6506,46.9433,92.933],[21.6528,46.948,95.0297],[21.6575,46.9502,93.4612],[21.6571,46.9523,94.2596],[21.6596,46.9563,94.0594],[21.6747,46.954,95.06],[21.6774,46.9594,94.6769],[21.6804,46.9607,95.081],[21.6835,46.9672,95.544],[21.6782,46.9695,95.6656],[21.6696,46.9705,95.697],[21.6699,46.9721,95.906],[21.672,46.9804,94.5394],[21.6792,46.9894,95.0903],[21.6776,46.9929,94.953],[21.6809,46.9983,94.8846],[21.6891,46.9998,96.1237],[21.6906,47.0021,95.9621],[21.6827,47.0065,96.0323],[21.6799,47.013,97.0352],[21.6795,47.0187,96.0025],[21.6625,47.0209,96.7355],[21.6514,47.0355,97.3257],[21.6475,47.0335,95.6544],[21.6363,47.0349,96.0836],[21.6277,47.0209,94.2875],[21.6232,47.009,93.7554],[21.6123,47.0006,92.679],[21.5916,46.9946,92.1971],[21.5752,47.0006,91.7174],[21.562,46.9933,91.3379],[21.5497,46.9785,89.8671],[21.5489,46.9725,90.3382],[21.5516,46.9626,90.2374],[21.5508,46.958,91.2525],[21.5484,46.9558,91.2767],[21.5179,46.9566,89.5282],[21.5056,46.952,89.631],[21.4887,46.9512,87.9093],[21.4708,46.945,88.661],[21.4423,46.9531,88.2507],[21.4142,46.9538,88.0525],[21.4144,46.967,89.4835],[21.4098,46.9713,88.0674],[21.3795,46.9724,86.044],[21.367,46.9753,85.4641],[21.3451,46.9765,86.4427],[21.3358,46.9799,88.0009],[21.3226,46.9879,85.9685],[21.2948,46.9952,84.1951],[21.2574,47.0091,86.3805],[21.2482,47.0111,88.5908],[21.2244,47.02,86.3009],[21.2207,47.0229,86.4375],[21.22,47.0311,87.2056],[21.2237,47.0387,87.9996],[21.2243,47.0447,87.2534],[21.2237,47.0529,86.0003],[21.2203,47.0598,86.4021],[21.2212,47.0638,86.1461],[21.2267,47.0678,85.8944],[21.2698,47.0869,87.2565],[21.2798,47.1002,108.3896],[21.2779,47.1389,86.1706],[21.2739,47.1468,85.6406],[21.2752,47.1523,92.704],[21.264,47.1521,85.4781],[21.2538,47.1499,84.9729],[21.2329,47.1506,84.0605],[21.1985,47.1676,83.7601],[21.1222,47.1829,83.6552],[21.113,47.188,83.6124],[21.0684,47.2063,84.0314],[21.0488,47.2013,85.2748],[21.0375,47.2072,84.8873],[21.0324,47.2116,84.8936],[21.032,47.225,85.116],[21.0289,47.2289,84.2934],[21.0037,47.2388,84.9057],[20.9906,47.2394,84.5978],[20.9717,47.2341,83.2092],[20.9669,47.2279,83.5017],[20.9598,47.2082,83.9204],[20.9491,47.1977,83.9366],[20.939,47.1909,85.6052],[20.9337,47.1884,84.6098],[20.9096,47.1845,84.2076],[20.8869,47.1787,83.267],[20.8774,47.1754,83.378],[20.8529,47.1624,83.8932],[20.8513,47.1562,83.5756],[20.8513,47.137,82.909],[20.8612,47.1247,84.1416],[20.859,47.1224,84.5616],[20.8498,47.1186,84.9146],[20.8462,47.115,84.9149],[20.8446,47.0853,84.3525],[20.8456,47.081,83.0283],[20.8541,47.0708,82.8136],[20.8435,47.069,85.2735],[20.8134,47.0577,84.7909],[20.8097,47.0548,84.6951],[20.8041,47.0456,84.6681],[20.7999,47.0442,84.1564],[20.7637,47.0447,83.5468],[20.7592,47.047,82.3452],[20.751,47.0576,85.1363],[20.7382,47.0585,84.1232],[20.7336,47.0562,84.6154],[20.7247,47.0452,84.7579],[20.7074,47.0362,83.2763],[20.7019,47.0284,84.6383],[20.7017,47.0174,83.1802],[20.7133,47.0034,84.8113],[20.7135,46.9745,80.6196],[20.7246,46.9583,83.3787],[20.7252,46.9444,83.3124],[20.7226,46.9401,83.3171],[20.7108,46.9347,82.8746],[20.6951,46.9217,84.439],[20.687,46.9188,83.9646],[20.6703,46.9212,83.1597],[20.6387,46.9131,83.2358],[20.5967,46.9254,90.8972],[20.5783,46.9191,82.5159],[20.5619,46.923,84.7068],[20.5468,46.9226,82.4579],[20.5438,46.9203,83.226],[20.5379,46.9092,82.7494],[20.5215,46.903,82.3833],[20.4485,46.9011,84.5968],[20.4242,46.8871,84.3254],[20.4163,46.874,84.2528],[20.4056,46.8652,84.1962],[20.4049,46.8583,84.4599],[20.4085,46.8507,83.406],[20.4084,46.8261,82.5398],[20.4114,46.8206,82.3438],[20.4129,46.813,82.6417],[20.4185,46.8071,83.0292],[20.4438,46.8077,83.0827],[20.4546,46.805,82.8963],[20.4775,46.7969,83.1755],[20.4861,46.7869,81.1414],[20.4908,46.7848,80.9948],[20.5623,46.787,81.5143],[20.5735,46.7783,81.3883],[20.586,46.773,82.1435],[20.5882,46.7702,81.4619],[20.5868,46.7574,82.307],[20.577,46.7435,82.9387],[20.5758,46.7391,83.5268],[20.5764,46.7114,82.8867],[20.584,46.6997,83.1644],[20.5705,46.6929,84.0187],[20.5679,46.6875,85.6519],[20.5686,46.6712,86.2661],[20.5727,46.6623,87.2],[20.5732,46.6412,85.8103],[20.5775,46.6301,85.8044],[20.5768,46.5832,85.9443],[20.5917,46.5618,87.0243],[20.6105,46.5529,87.779],[20.6168,46.5456,87.19],[20.6194,46.5397,88.1478],[20.6084,46.5295,86.469],[20.606,46.5079,86.0655],[20.5972,46.4952,86.0989],[20.603,46.474,86.0421],[20.5783,46.4647,85.3067],[20.5778,46.4608,85.5664],[20.5811,46.453,84.9435],[20.5793,46.4308,85.6831],[20.5688,46.4224,85.0286],[20.5507,46.415,86.2407],[20.5487,46.4118,85.6858],[20.5482,46.4038,84.8165],[20.5576,46.3892,85.5538],[20.5634,46.3852,85.5183],[20.58,46.3786,86.1581],[20.5916,46.364,86.4528],[20.6,46.3629,87.1543],[20.6503,46.3632,90.5127],[20.6749,46.3666,91.2246],[20.6777,46.3685,90.9843],[20.6847,46.3878,91.8305],[20.6913,46.395,91.1195],[20.6983,46.3963,91.806],[20.7329,46.3947,93.3437],[20.7377,46.3915,92.8723],[20.7433,46.3824,93.6944],[20.7587,46.3657,94.2997],[20.7568,46.3514,94.3405],[20.748,46.3293,92.9288],[20.7466,46.3059,92.2923],[20.7551,46.288,92.9138],[20.7642,46.2811,94.3953],[20.7745,46.2778,102.9686],[20.7765,46.2757,94.6158],[20.7908,46.2734,96.1412],[20.875,46.2878,101.6448],[20.8921,46.2717,102.5297],[20.9238,46.2621,105.0283],[20.9267,46.2765,103.6588],[20.9483,46.2795,103.1384],[20.9541,46.2652,104.54],[20.9679,46.2619,105.0907],[20.9919,46.2599,104.6683],[21.0175,46.2636,102.3729],[21.0266,46.2668,100.7978],[21.0383,46.2482,102.8912],[21.0676,46.2431,101.769],[21.0728,46.2542,100.2114],[21.0814,46.2524,100.667],[21.0842,46.2567,100.3533],[21.0882,46.2554,100.3896],[21.0886,46.2595,100.4409],[21.0925,46.2585,101.3553],[21.096,46.2627,100.6418],[21.1019,46.2643,102.5946],[21.1048,46.2629,101.3104],[21.1107,46.2784,100.229],[21.1171,46.302,101.4618],[21.1242,46.3012,101.2838],[21.147,46.305,101.8981],[21.1492,46.2996,102.4677],[21.1531,46.2979,100.9808],[21.1697,46.2982,101.1843],[21.176,46.3006,101.4087],[21.1773,46.3033,102.1872],[21.1821,46.3044,102.0461],[21.1747,46.3187,102.2317],[21.1791,46.3238,101.8369],[21.1774,46.3299,100.9914],[21.1803,46.3308,100.1879],[21.1778,46.3359,99.7141],[21.192,46.3395,100.4969],[21.2011,46.3482,101.6298],[21.1981,46.3712,100.4957],[21.2079,46.4036,100.5312],[21.2179,46.4022,100.5787],[21.2207,46.4114,101.0276]]]]}
,"properties": {"GID_1": "HUN.3_1","GID_0": "HUN","country": "Hungary","province": "Békés","VARNAME_1": "NA","NL_NAME_1": "NA","TYPE_1": "Megye","ENGTYPE_1": "County","CC_1": "NA","HASC_1": "HU.BE","ISO_1": "NA","name": "Békés.province","area_km2": 5640.283,"hist_schema_id": "Elevation0-9000","hist_area_km2": {"75": 2917.487,"100": 2719.514,"125": 3.282}}}