{"type": "Feature","id": "3171","bbox": [20.40788,46.23134,21.67137,47.23598],"geometry": {"type": "Polygon","coordinates": [[[21.38684,46.94075,86.6806],[21.35366,46.94564,85.2392],[21.33496,46.95827,88.584],[21.34395,46.98266,86.2031],[21.32493,46.99522,85.9632],[21.30126,46.99977,85.6023],[21.28834,47.01584,86.4619],[21.29051,47.04423,87.6593],[21.29144,47.11638,87.7901],[21.27108,47.14539,85.6912],[21.20587,47.1673,83.6507],[21.16081,47.17064,86.2327],[21.11812,47.181,83.4688],[20.99451,47.23598,84.9461],[20.97519,47.22929,84.2947],[20.96051,47.21567,83.7211],[20.95296,47.20208,84.0041],[20.94191,47.19175,85.9677],[20.91741,47.18539,84.1372],[20.90945,47.17219,85.9447],[20.89839,47.15976,88.8542],[20.88392,47.15624,84.6045],[20.87504,47.14348,84.5275],[20.86139,47.13754,84.8613],[20.84103,47.14167,85.3107],[20.8214,47.13676,84.5007],[20.76093,47.08583,85.0777],[20.74471,47.07801,83.1646],[20.73427,47.06483,86.0415],[20.73799,47.05894,84.2342],[20.73882,47.0456,85.4042],[20.70047,47.01434,82.9547],[20.70151,46.99884,84.652],[20.71112,46.98628,83.7342],[20.71629,46.95352,84.1919],[20.70574,46.92367,82.7156],[20.69014,46.91667,84.3461],[20.67401,46.9146,82.6044],[20.65479,46.90535,82.5778],[20.63526,46.90215,82.8087],[20.62265,46.91404,83.468],[20.60735,46.92122,103.547],[20.5842,46.90737,84.2564],[20.55526,46.9129,84.2698],[20.52694,46.88556,83.8675],[20.49325,46.89135,80.7374],[20.4579,46.889,83.1978],[20.41873,46.86538,82.7327],[20.40788,46.83642,82.7798],[20.42318,46.80335,84.1835],[20.50462,46.78319,82.1342],[20.55454,46.77402,81.7168],[20.58648,46.75368,82.1451],[20.58937,46.68989,83.7415],[20.57573,46.6423,85.373],[20.57924,46.56786,87.5595],[20.59495,46.54775,87.7048],[20.6242,46.53881,87.1811],[20.61097,46.50649,86.1902],[20.58916,46.48104,85.7145],[20.59578,46.46096,85.2656],[20.58565,46.44807,85.4137],[20.58492,46.40621,86.5168],[20.61696,46.41205,87.0242],[20.59929,46.38451,86.4995],[20.64942,46.38428,89.0315],[20.70202,46.39376,92.2035],[20.71112,46.38216,90.6695],[20.73076,46.38358,92.6935],[20.7474,46.36885,93.8461],[20.75907,46.34952,93.7868],[20.75742,46.32583,92.5072],[20.74915,46.30154,92.2206],[20.75659,46.28604,93.5062],[20.7753,46.27594,96.619],[20.78708,46.26369,95.0042],[20.78737,46.26339,95.0042],[20.79866,46.26762,97.5191],[20.81964,46.2717,98.9248],[20.83969,46.27108,100.6533],[20.84899,46.26777,99.3676],[20.86697,46.25713,103.4231],[20.87514,46.25439,104.1375],[20.88506,46.25501,104.979],[20.89974,46.26069,105.2724],[20.90656,46.26219,105.58],[20.92444,46.25955,105.0056],[20.96175,46.24834,107.0441],[20.98149,46.24886,105.9421],[20.99058,46.2516,104.9525],[20.99916,46.2516,104.2469],[21.00702,46.24886,104.4212],[21.01394,46.24307,104.1403],[21.03348,46.23134,105.0882],[21.05146,46.23609,103.0606],[21.09921,46.27635,100.6976],[21.10562,46.27868,100.5647],[21.13486,46.27852,99.9143],[21.14448,46.28374,100.3932],[21.15595,46.29893,101.7629],[21.16453,46.31826,101.079],[21.16866,46.36275,102.193],[21.17879,46.38446,101.5723],[21.19564,46.3981,101.5558],[21.21517,46.40291,100.481],[21.25754,46.40417,100.9099],[21.2807,46.41639,100.5603],[21.27439,46.43836,99.429],[21.24514,46.47688,97.6852],[21.24762,46.49747,96.2602],[21.26168,46.51334,95.3485],[21.27894,46.5284,93.6563],[21.29134,46.54672,92.5613],[21.29527,46.58504,88.6836],[21.30095,46.60393,88.5007],[21.31625,46.61664,87.7424],[21.33764,46.62041,88.4116],[21.37444,46.61845,90.5033],[21.39604,46.62635,90.1411],[21.41681,46.64522,103.398],[21.42354,46.65823,89.0735],[21.42549,46.66201,89.4999],[21.43624,46.67374,89.9934],[21.46353,46.67705,88.5032],[21.48358,46.68485,88.3503],[21.50177,46.70351,90.4242],[21.50518,46.72325,91.1034],[21.4782,46.73593,91.3107],[21.47521,46.73785,90.4153],[21.47262,46.7402,89.9089],[21.47045,46.74301,88.6643],[21.47138,46.74903,89.5271],[21.47366,46.75487,88.7477],[21.47707,46.76022,88.9579],[21.48151,46.76498,91.723],[21.5029,46.80531,87.7714],[21.51572,46.82159,88.2059],[21.5366,46.83502,88.263],[21.57308,46.84177,89.4774],[21.58342,46.84794,89.9427],[21.59179,46.86071,92.9277],[21.59148,46.87153,93.0447],[21.58807,46.8822,93.7557],[21.58714,46.8944,91.9043],[21.58869,46.90618,92.4911],[21.58993,46.90887,95.5402],[21.59437,46.91001,96.9609],[21.64005,46.93569,94.3024],[21.64853,46.94298,93.322],[21.66755,46.99238,96.1443],[21.67137,46.99336,96.3737],[21.67075,46.99439,98.9167],[21.66176,47.00607,95.8306],[21.65483,47.00995,98.3185],[21.64522,47.01124,96.7107],[21.63664,47.01408,95.2113],[21.63427,47.01942,94.0806],[21.63385,47.01935,94.2818],[21.60967,47.01532,92.7511],[21.56678,47.00121,90.8895],[21.49867,46.95367,89.2585],[21.4564,46.95419,88.4125],[21.38684,46.94075,86.6806]],
[[21.00279,46.66567,94.8096],[20.99101,46.71868,87.4013],[20.9753,46.76973,87.9498],[21.0185,46.80114,85.0765],[21.05972,46.85219,83.8692],[21.15594,46.82129,84.1997],[21.20109,46.77614,84.9757],[21.18931,46.73687,84.5346],[21.20698,46.7035,96.2271],[21.16772,46.67012,86.9534],[21.10489,46.67208,87.6441],[21.05777,46.66619,89.4926],[21.00279,46.66567,94.8096]]]}
,"properties": {"ISO3166-1-Alpha-3": "HUN","country": "Hungary","fill": "#F0F","name": "Békés","area_km2": 5358.003,"hist_schema_id": "Elevation0-9000","hist_area_km2": {"75": 2719.622,"100": 2635.186,"125": 3.195}}}