{"type":"Feature","properties":{"featurecla":"River","scalerank":6,"rivernum":330,"dissolve":"330River","name":"Tisa3","name_alt":"Tisza","note":null,"min_zoom":5.0,"strokeweig":0.2,"name_en":"Tisza","min_label":6.0},
"geometry":{"type": "LineString","coordinates": [[24.562255859375,47.76874420780662,741.5598],[24.539208984375023,47.75458405155662,1083.2546],[24.506103515625,47.747821356244117,611.7046],[24.471582031250023,47.73163483280662,819.1755],[24.447998046875,47.72516510624412,618.1564],[24.425927734375023,47.723504949994116,580.3615],[24.389306640625023,47.732196356244117,526.0439],[24.351464843750023,47.738397528119116,584.2246],[24.314208984375,47.748163153119116,674.4756],[24.294189453125,47.762811590619116,532.4853],[24.28271484375,47.778680731244116,421.0035],[24.2509765625,47.802508856244117,395.0278],[24.235498046875023,47.82611725468162,389.1361],[24.209619140625023,47.84894440311912,424.4359],[24.19775390625,47.874872137494116,551.3944],[24.183349609375,47.891620184369117,596.56],[24.148193359375,47.912372137494117,336.5101],[24.130615234375,47.914813543744117,343.9935],[24.094140625000023,47.93817780155662,333.3391],[24.074462890625,47.94440338749412,328.2903],[24.024658203125,47.953485418744116,360.4603],[24.00830078125,47.96149323124412,310.7699],[23.976806640625,47.962518621869116,295.7288],[23.876123046875023,47.934686590619116,267.0754],[23.854638671875023,47.934442449994116,261.0572],[23.847802734375023,47.94989655155662,258.74],[23.796044921875023,47.98224518436912,247.5331],[23.779541015625,47.98773834843162,245.5047],[23.7099609375,47.985370184369117,232.5515],[23.686767578125,47.98749420780662,234.072],[23.6455078125,47.99689362186912,235.2621],[23.581201171875023,48.001825262494116,250.4974],[23.562646484375023,48.005975653119116,212.6172],[23.257568359375,48.17096588749412,289.7272],[23.221337890625023,48.17890045780662,154.6761],[23.177148437500023,48.177606512494116,270.2808],[23.1337890625,48.16779205936912,148.0982],[23.069580078125,48.129022528119116,139.4648],[22.934716796875023,48.08441803593162,125.3356],[22.920312500000023,48.08136627811912,120.4523],[22.90185546875,48.081561590619117,122.6591],[22.887353515625023,48.085809637494116,123.3873],[22.874658203125023,48.09174225468162,125.2895],[22.860107421875,48.09442780155662,121.3617],[22.84033203125,48.088983465619116,118.7345],[22.801416015625023,48.115741278119117,120.7939],[22.77978515625,48.12152741093162,111.7327],[22.764794921875023,48.10822174686912,115.9986],[22.7451171875,48.11652252811912,122.1646],[22.72802734375,48.11334869999412,115.8303],[22.711181640625,48.106073309369116,116.6487],[22.692626953125,48.10199616093162,108.9158],[22.62060546875,48.10199616093162,115.219],[22.607568359375023,48.097040106244116,116.5235],[22.589599609375,48.098749090619116,112.513],[22.5791015625,48.095233465619117,108.188],[22.568115234375,48.08563873905662,112.0179],[22.5615234375,48.076678778119117,112.6092],[22.552734375,48.069940496869116,114.6287],[22.488525390625,48.06207916874412,111.2249],[22.466699218750023,48.06354401249412,111.917],[22.449462890625,48.07477448124412,111.0373],[22.434960937500023,48.07062409061912,110.8154],[22.420068359375023,48.07440827030662,112.6961],[22.394775390625,48.088983465619116,110.3512],[22.387353515625023,48.095331121869116,112.395],[22.383203125000023,48.101581121869117,110.7605],[22.378662109375,48.10639069218162,108.5366],[22.36376953125,48.10993073124412,110.4511],[22.339599609375,48.12250397343162,111.9759],[22.325341796875023,48.133319403119117,111.5222],[22.32373046875,48.144549871869117,107.9924],[22.32666015625,48.155047918744117,110.0753],[22.325927734375,48.163446356244116,110.3681],[22.3154296875,48.171502996869116,109.4386],[22.2890625,48.18183014530662,108.9204],[22.278076171875,48.190790106244116,107.2618],[22.27685546875,48.19989655155662,108.3528],[22.283837890625023,48.22467682499412,103.5615],[22.284912109375,48.23236725468162,109.1537],[22.27783203125,48.24494049686912,108.9568],[22.267480468750023,48.254657293744117,107.7243],[22.25537109375,48.26178619999412,108.115],[22.243310546875023,48.26654694218162,106.6755],[22.255859375,48.28876373905662,102.6012],[22.256494140625023,48.37348053593162,97.5],[22.271240234375,48.403680731244116,105.2402],[22.235742187500023,48.41547272343162,104.4452],[22.201416015625,48.41840241093162,105.2867],[22.168701171875,48.409784246869116,106.0875],[22.13720703125,48.38690827030662,105.7726],[22.1,48.33454010624412,104.2227],[22.079248046875023,48.31159088749412,103.0713],[22.051513671875,48.300067449994117,102.2129],[22.042236328125,48.30133698124412,100.1237],[22.022705078125,48.308368231244117,102.2264],[22.01123046875,48.307489324994116,106.729],[22.005273437500023,48.303241278119117,102.2814],[21.971435546875,48.26984284061912,101.346],[21.943115234375,48.24787018436912,97.4058],[21.928613281250023,48.23981354374412,100.4009],[21.9091796875,48.235126043744117,98.6381],[21.846093750000023,48.23236725468162,99.5294],[21.831298828125,48.22467682499412,97.3112],[21.81298828125,48.212176824994117,96.023],[21.79443359375,48.202020574994116,97.0254],[21.778466796875023,48.201678778119117,99.3125],[21.766259765625023,48.199481512494117,99.0806],[21.690185546875,48.16754791874412,97.7589],[21.671142578125,48.165545965619117,107.1417],[21.652099609375,48.16779205936912,122.1414],[21.61279296875,48.18036530155662,108.7147],[21.595849609375023,48.18073151249412,102.1247],[21.558740234375023,48.17719147343162,99.569],[21.49462890625,48.17914459843162,100.274],[21.47607421875,48.17719147343162,111.2657],[21.461181640625,48.17011139530662,95.0],[21.446923828125023,48.15790436405662,98.0806],[21.435302734375,48.143573309369117,96.9697],[21.428369140625023,48.12995026249412,98.1772],[21.42626953125,48.112420965619116,96.1149],[21.431640625,48.10333893436912,99.743],[21.43896484375,48.09552643436912,99.7584],[21.442626953125,48.08185455936912,95.7989],[21.432373046875,48.05060455936912,95.1303],[21.406884765625023,48.03375885624412,97.9653],[21.373291015625,48.027118231244117,94.0796],[21.339013671875023,48.02631256718162,94.2907]]}}