{"type":"Feature","properties":{"featurecla":"River","scalerank":6,"rivernum":330,"dissolve":"330River","name":"Tisa2","name_alt":null,"note":null,"min_zoom":5.0,"strokeweig":0.25,"name_en":"Tisza","min_label":6.0},
"geometry":{"type": "LineString","coordinates": [[21.346435546875,48.02631256718162,93.0],[21.298583984375,48.024042059369116,96.225],[21.284326171875023,48.02631256718162,95.7963],[21.272363281250023,48.03327057499412,97.2767],[21.263330078125023,48.04169342655662,90.0],[21.2529296875,48.04755280155662,105.826],[21.236572265625,48.04682037968162,97.3246],[21.229638671875023,48.04205963749412,112.1322],[21.226708984375023,48.035174871869117,109.0426],[21.22265625,48.02899811405662,107.6722],[21.212646484375,48.02631256718162,111.3955],[21.188232421875,48.02716705936912,114.6327],[21.181298828125023,48.02631256718162,108.5057],[21.1376953125,48.00678131718162,111.5234],[21.126708984375,47.99896881718162,92.2385],[21.120019531250023,47.98676178593162,91.8935],[21.111572265625,47.95197174686912,92.2966],[21.106201171875,47.93817780155662,104.2986],[21.098046875000023,47.92963287968162,98.1746],[21.065185546875,47.903436590619116,97.1283],[21.056396484375,47.89057037968162,94.9142],[21.0556640625,47.88300202030662,94.535],[21.05810546875,47.873553778119117,94.2868],[21.058349609375,47.85504791874412,92.288],[21.055322265625023,47.839227606244116,92.417],[21.04931640625,47.831415106244116,96.1549],[21.024316406250023,47.82086823124412,104.6272],[21.030517578125,47.82831452030662,107.8282],[21.028564453125,47.81635162968162,90.5141],[21.034082031250023,47.786004949994116,90.7275],[21.033935546875,47.779901434369116,94.1012],[20.97900390625,47.773065496869116,99.5171],[20.978662109375023,47.765497137494116,104.3708],[20.954736328125023,47.73371002811912,90.7824],[20.948486328125,47.728387762494116,93.6481],[20.942138671875,47.718622137494116,94.425299999999993],[20.89208984375,47.684344793744117,100.2783],[20.79150390625,47.677508856244117,108.404],[20.774072265625023,47.672381903119117,98.5812],[20.76806640625,47.66510651249412,112.9059],[20.763330078125023,47.655389715619116,101.1644],[20.75,47.642694403119116,105.5247],[20.719970703125,47.634393621869116,103.7902],[20.709716796875,47.627948309369117,91.4658],[20.7158203125,47.61603424686912,103.1172],[20.71240234375,47.60968659061912,110.5949],[20.709228515625,47.605487371869117,93.0469],[20.704345703125,47.60297272343162,91.6877],[20.6953125,47.60175202030662,105.1606],[20.6953125,47.59552643436912,88.4232],[20.689355468750023,47.57794830936912,88.3781],[20.512353515625023,47.49689362186912,91.4409],[20.50341796875,47.488788153119117,85.7194],[20.498046875,47.46784088749412,92.5314],[20.484619140625,47.459247137494117,84.6298],[20.4482421875,47.450946356244117,89.9621],[20.44287109375,47.44708893436912,99.0999],[20.430419921875,47.435663153119116,108.2535],[20.421044921875023,47.43048737186912,91.0242],[20.390625,47.42401764530662,95.0259],[20.383056640625,47.42023346561912,98.9001],[20.375,47.40228912968162,80.5],[20.390283203125023,47.396356512494116,77.7098],[20.414941406250023,47.39313385624412,86.4348],[20.434716796875023,47.38324616093162,85.7123],[20.44140625,47.347919012494117,92.8547],[20.44189453125,47.343280340619117,88.5044],[20.4404296875,47.33234284061912,89.0355],[20.44140625,47.32807037968162,88.5585],[20.445703125000023,47.32562897343162,89.3944],[20.459716796875,47.32086823124412,82.8185],[20.462548828125023,47.317499090619116,88.2497],[20.463037109375023,47.29828522343162,84.5609],[20.4609375,47.28156159061912,85.3536],[20.450927734375,47.268329168744117,88.5579],[20.427880859375023,47.25910065311912,85.415],[20.406982421875,47.25556061405662,86.2495],[20.387451171875,47.255389715619117,89.4014],[20.369042968750023,47.260614324994116,91.9747],[20.35205078125,47.27338287968162,85.9991],[20.345361328125023,47.26569244999412,85.2406],[20.337158203125,47.25116608280662,89.7894],[20.332275390625,47.245477606244116,86.2025],[20.323974609375,47.241229559369117,81.7698],[20.303955078125,47.23468659061912,84.3062],[20.29443359375,47.22846100468162,94.8163],[20.287353515625,47.219012762494117,84.2649],[20.284570312500023,47.211444403119117,83.8079],[20.279687500000023,47.20636627811912,84.4299],[20.254785156250023,47.20246002811912,86.9002],[20.250634765625023,47.19721100468162,82.7372],[20.248681640625023,47.190545965619116,83.0761],[20.242822265625023,47.18402741093162,83.1452],[20.177148437500023,47.15973541874412,89.3214],[20.167724609375,47.14581940311912,85.0972],[20.162353515625,47.126239324994117,88.1473],[20.164453125000023,47.11835358280662,84.5195],[20.177978515625,47.11517975468162,88.7998],[20.191650390625,47.11359284061912,78.5],[20.193505859375023,47.10932037968162,78.5],[20.190087890625023,47.10272858280662,83.557],[20.188232421875,47.09467194218162,84.8387],[20.18896484375,47.05792877811912,82.2979],[20.19580078125,47.038934637494116,83.5142],[20.212158203125,47.04340241093162,82.9752],[20.231103515625023,47.051385809369116,86.5367],[20.256494140625023,47.05170319218162,88.1025],[20.27783203125,47.04535553593162,78.2471],[20.284423828125,47.033221746869117,82.4145],[20.271630859375023,47.02692291874412,82.986],[20.2255859375,47.023944403119117,88.4046],[20.206689453125023,47.010028387494117,83.2705],[20.11181640625,46.96173737186912,90.0906],[20.105712890625,46.95380280155662,82.7107],[20.111962890625023,46.94562409061912,82.9116],[20.12646484375,46.94232819218162,82.9959],[20.142724609375023,46.94049713749412,82.1654],[20.154052734375,46.937030340619117,85.3367],[20.154052734375,46.930780340619116,84.0977],[20.109277343750023,46.88910553593162,84.8034],[20.095458984375,46.88239166874412,90.681],[20.0771484375,46.88239166874412,87.5689],[20.059228515625023,46.879999090619116,79.3201],[20.044580078125023,46.87189362186912,81.5144],[20.036767578125023,46.85443756718162,84.2213],[20.0380859375,46.83576080936912,82.2136],[20.053955078125,46.81049225468162,82.4791],[20.057861328125,46.789911199994116,82.7407],[20.062255859375,46.785760809369116,81.3551],[20.071923828125023,46.78327057499412,81.8949],[20.08154296875,46.778827215619117,83.7977],[20.085839843750023,46.76911041874412,82.0],[20.088769531250023,46.757342840619117,88.6632],[20.095849609375023,46.751971746869117,85.0642],[20.1044921875,46.74921295780662,87.305],[20.11669921875,46.74323151249412,83.5562],[20.12890625,46.74066803593162,86.3367],[20.133544921875,46.739032293744117,88.8331],[20.134423828125023,46.73505280155662,78.2133],[20.1328125,46.72101471561912,84.2913],[20.133544921875,46.717303778119117,84.9365],[20.14306640625,46.71527741093162,85.2583],[20.177978515625,46.717303778119117,80.0803],[20.188720703125,46.712030340619116,83.0871],[20.193359375,46.70050690311912,79.9476],[20.1953125,46.68903229374412,76.0],[20.198486328125,46.68378327030662,77.7582],[20.208642578125023,46.680438543744117,81.1543],[20.206201171875023,46.672967840619116,80.1491],[20.198876953125023,46.66571686405662,80.3115],[20.195068359375,46.66266510624412,78.6033],[20.159326171875023,46.61542389530662,84.1606],[20.15185546875,46.58954498905662,87.1361],[20.147216796875,46.58612702030662,83.0061],[20.142578125,46.581659246869116,80.3592],[20.140380859375,46.570184637494116,79.5521],[20.142480468750023,46.56146881718162,76.4189],[20.1474609375,46.55451080936912,75.8306],[20.154052734375,46.547870184369117,81.8795],[20.160302734375023,46.53974030155662,80.4922],[20.17431640625,46.498797918744117,85.5401],[20.177978515625,46.49201080936912,81.3727],[20.19677734375,46.48456452030662,77.428],[20.1982421875,46.467303778119117,78.4251],[20.188232421875,46.43366119999412,78.0931],[20.18896484375,46.410028387494116,81.0602],[20.195068359375,46.38898346561912,81.0532],[20.198486328125,46.365985418744117,74.0],[20.203515625000023,46.35553619999412,82.8781],[20.215576171875,46.34796784061912,79.902],[20.2109375,46.331659246869116,81.4757],[20.216699218750023,46.31683991093162,78.5728],[20.225244140625023,46.30304596561912,77.6528],[20.229736328125,46.289911199994116,78.0055],[20.221826171875023,46.275653387494117,78.7072],[20.20263671875,46.266131903119117,78.9201],[20.178857421875023,46.26080963749412,79.9637]]}}