{"type":"Feature","properties":{"GID_2":"HUN.11.4_1","GID_0":"HUN","country":"Hungary","GID_1":"HUN.11_1","province":"Jász-Nagykun-Szolnok","NL_NAME_1":"NA","county":"Mezőtúri","VARNAME_2":"Mezőtúr","NL_NAME_2":"NA","TYPE_2":"Kistérség","ENGTYPE_2":"Subregion","CC_2":"NA","HASC_2":"NA","name":"Mezőtúri.county"},
"geometry":{"type": "MultiPolygon","coordinates": [[[[20.8541,47.0708,82.8136],[20.8456,47.081,83.0283],[20.8446,47.0853,84.3525],[20.8462,47.115,84.9149],[20.8498,47.1186,84.9146],[20.859,47.1224,84.5616],[20.8612,47.1247,84.1416],[20.8513,47.137,82.909],[20.8521,47.1497,83.8729],[20.8317,47.153,84.0855],[20.8129,47.1539,84.4078],[20.7854,47.1642,84.2581],[20.7394,47.1648,84.8172],[20.7192,47.1701,84.4993],[20.7109,47.1804,86.6917],[20.6798,47.1832,86.5008],[20.6659,47.176,86.498],[20.6445,47.1705,85.7028],[20.6434,47.1511,86.4873],[20.6466,47.1431,85.9488],[20.645,47.141,85.9262],[20.6281,47.1398,84.9694],[20.6249,47.1335,84.6329],[20.6219,47.1321,84.5692],[20.6067,47.1345,84.6754],[20.5771,47.1338,85.2157],[20.5856,47.1227,84.1034],[20.5904,47.1093,85.4674],[20.5905,47.0927,85.3423],[20.5874,47.0889,84.7127],[20.5729,47.0859,85.3505],[20.5612,47.0886,84.2825],[20.5565,47.0916,84.7954],[20.549,47.1014,84.4025],[20.5375,47.1077,83.7625],[20.5178,47.1025,84.087],[20.4715,47.102,84.5721],[20.4356,47.1076,85.0388],[20.4144,47.1042,86.3405],[20.4074,47.1016,87.2381],[20.4053,47.0979,86.4624],[20.4038,47.0648,85.7011],[20.3888,47.0534,85.9346],[20.3772,47.0382,85.2903],[20.3664,47.0296,85.7476],[20.356,47.0141,89.8796],[20.3439,47.0136,85.4626],[20.3184,46.9767,86.1261],[20.3253,46.9728,85.3276],[20.3433,46.9683,85.8316],[20.3492,46.9619,85.9789],[20.3545,46.9588,85.075],[20.3577,46.9594,84.7874],[20.3633,46.9659,85.6217],[20.3685,46.9682,85.843],[20.3846,46.9591,84.5217],[20.4074,46.9637,84.8672],[20.4208,46.9601,83.5819],[20.4223,46.9581,81.9641],[20.4209,46.956,83.9706],[20.3963,46.9398,85.0739],[20.394,46.9376,83.7774],[20.3937,46.9338,83.8699],[20.3974,46.9319,81.3893],[20.4177,46.931399999999996,84.5093],[20.4189,46.9285,81.7047],[20.415,46.9221,82.6853],[20.4157,46.9175,82.8842],[20.4362,46.9114,81.6647],[20.4485,46.9011,84.5968],[20.5215,46.903,82.3833],[20.5379,46.9092,82.7494],[20.5445,46.9214,82.8561],[20.5508,46.9231,82.5085],[20.5641,46.9228,83.2762],[20.5783,46.9191,82.5159],[20.5967,46.9254,90.8972],[20.6387,46.9131,83.2358],[20.6703,46.9212,83.1597],[20.689,46.919,84.211],[20.6951,46.9217,84.439],[20.701,46.9279,83.4714],[20.7129,46.9361,84.5658],[20.7226,46.9401,83.3171],[20.7252,46.9444,83.3124],[20.7246,46.9583,83.3787],[20.7135,46.9745,80.6196],[20.7133,47.0034,84.8113],[20.7017,47.0174,83.1802],[20.7019,47.0284,84.6383],[20.7074,47.0362,83.2763],[20.7247,47.0452,84.7579],[20.7336,47.0562,84.6154],[20.7382,47.0585,84.1232],[20.751,47.0576,85.1363],[20.7592,47.047,82.3452],[20.7637,47.0447,83.5468],[20.7999,47.0442,84.1564],[20.8041,47.0456,84.6681],[20.8097,47.0548,84.6951],[20.8134,47.0577,84.7909],[20.8435,47.069,85.2735],[20.8541,47.0708,82.8136]]]]}}