{"type": "Feature","bbox": [18.9342,46.804,19.4397,47.1187],"geometry": {"type": "MultiPolygon","coordinates": [[[[19.1664,46.804,94.2764],[19.1809,46.8133,93.907],[19.189,46.8206,93.2499],[19.2195,46.8268,93.9182],[19.2325,46.8365,94.5224],[19.2792,46.8367,96.9975],[19.3073,46.8478,98.3632],[19.3112,46.8526,95.7981],[19.3079,46.8591,95.1688],[19.3079,46.863,95.6482],[19.3165,46.868899999999996,95.936],[19.3286,46.8718,95.8017],[19.379,46.8713,101.1781],[19.3995,46.8743,115.6427],[19.4341,46.8855,105.9559],[19.4396,46.8937,106.4423],[19.4397,46.8963,105.6464],[19.4371,46.899,104.9858],[19.4174,46.9127,104.0204],[19.4035,46.9356,103.5508],[19.387,46.9444,108.1474],[19.377,46.9548,105.6956],[19.356,46.9878,104.2485],[19.3184,47.0146,97.596],[19.3168,47.0276,96.2863],[19.3245,47.0438,101.0952],[19.3305,47.0522,105.5618],[19.3498,47.0675,100.0517],[19.3575,47.0777,101.7646],[19.3473,47.0912,100.0536],[19.3331,47.0979,98.6451],[19.3111,47.112,98.3022],[19.2907,47.117,110.206],[19.2415,47.1187,96.9333],[19.2424,47.1041,98.8367],[19.2244,47.0825,95.056],[19.2177,47.0817,94.800299999999993],[19.206,47.0849,95.1208],[19.1826,47.0866,94.8164],[19.1693,47.0763,94.8239],[19.1547,47.0751,94.9761],[19.1531,47.0659,94.8859],[19.1472,47.063,95.4763],[19.1115,47.0628,94.3081],[19.1101,47.0595,94.7793],[19.1107,47.0449,94.3048],[19.097,47.0416,95.3033],[19.0743,47.0399,96.8159],[19.0286,47.0511,96.5385],[19.0049,47.0603,96.7493],[18.9742,47.0619,96.4857],[18.9694,47.0598,101.0949],[18.9708,47.0171,94.0],[18.9636,47.0024,94.0],[18.9588,46.9873,96.4828],[18.9595,46.9807,96.6094],[18.9668,46.9674,104.831],[18.9679,46.9626,99.5598],[18.9681,46.936,93.1631],[18.9641,46.926,90.5],[18.9638,46.9072,94.4059],[18.9543,46.8935,102.0109],[18.9441,46.8856,90.5],[18.9342,46.8736,98.5808],[18.9556,46.8646,95.0932],[18.9624,46.8595,94.6262],[18.9671,46.8526,94.1856],[18.985,46.8466,93.9494],[19.0221,46.8519,102.1202],[19.0346,46.8651,95.5342],[19.0522,46.8655,95.6246],[19.0545,46.8642,96.8206],[19.0551,46.8617,96.0101],[19.0516,46.856,99.0784],[19.0513,46.8518,94.3287],[19.0573,46.844,95.3939],[19.0613,46.8434,95.1953],[19.0775,46.8473,95.1761],[19.0813,46.8456,94.6684],[19.0858,46.8376,95.1345],[19.0883,46.8359,94.8034],[19.1021,46.838,94.0625],[19.1095,46.8374,93.7835],[19.1143,46.8329,97.7376],[19.117,46.8258,101.3208],[19.1212,46.8211,94.9754],[19.1435,46.8195,95.9412],[19.1534,46.8164,94.6725],[19.1577,46.8138,93.6209],[19.1664,46.804,94.2764]]]]}
,"properties": {"GID_2": "HUN.1.10_1","GID_0": "HUN","country": "Hungary","GID_1": "HUN.1_1","province": "Bács-Kiskun","NL_NAME_1": "NA","county": "Kunszentmiklós","VARNAME_2": "Kunszentmiklósi","NL_NAME_2": "NA","TYPE_2": "Kistérség","ENGTYPE_2": "Subregion","CC_2": "NA","HASC_2": "NA","name": "Kunszentmiklós.county","area_km2": 808.5293,"hist_schema_id": "Elevation0-9000","hist_area_km2": {"100": 797.8323,"125": 10.6971}}}