{"type":"Feature","properties":{"GID_2":"HUN.14.2_1","GID_0":"HUN","country":"Hungary","GID_1":"HUN.14_1","province":"Pest","NL_NAME_1":"NA","county":"Ceglédi","VARNAME_2":"NA","NL_NAME_2":"NA","TYPE_2":"Kistérség","ENGTYPE_2":"Subregion","CC_2":"NA","HASC_2":"NA","name":"Ceglédi.county"},
"geometry":{"type": "MultiPolygon","coordinates": [[[[20.0816,47.0138,86.4901],[20.0979,47.0241,86.1825],[20.0988,47.0428,88.4233],[20.0611,47.1012,87.709],[20.057,47.1109,87.2702],[20.0561,47.1202,86.4503],[20.0529,47.1272,88.1924],[20.053,47.147,93.4921],[20.0539,47.1513,88.9705],[20.0597,47.159,88.4891],[20.0855,47.1747,87.8682],[20.0942,47.1876,88.0578],[20.0941,47.2027,88.9168],[20.0842,47.2173,88.3645],[20.0564,47.2386,88.4033],[20.0306,47.2523,89.0913],[20.0033,47.2575,93.0523],[19.9988,47.2597,88.0923],[19.994,47.2671,88.1476],[20.0009,47.2789,94.4263],[20.0007,47.2845,89.6265],[19.9988,47.2885,89.5589],[19.9401,47.2966,91.3085],[19.9334,47.2994,91.5756],[19.9278,47.3094,93.5152],[19.9239,47.3119,92.6126],[19.9191,47.3114,92.3752],[19.9064,47.3035,93.8621],[19.8911,47.3059,97.8369],[19.8683,47.3145,98.6093],[19.8574,47.3236,98.839],[19.8418,47.3241,97.8126],[19.8364,47.3218,101.6284],[19.8308,47.3055,103.4212],[19.8136,47.2836,98.1576],[19.8042,47.2767,97.7106],[19.7889,47.2694,97.2107],[19.7313,47.2678,111.1043],[19.6912,47.2792,118.5963],[19.6853,47.2833,124.7468],[19.679,47.2922,143.7674],[19.6734,47.2965,165.4947],[19.6632,47.3001,178.6096],[19.6553,47.3003,177.2968],[19.6329,47.2942,182.6924],[19.6262,47.2865,200.188],[19.6134,47.2762,190.1105],[19.6122,47.2672,154.9788],[19.6103,47.2644,140.0752],[19.5762,47.2521,135.8053],[19.5752,47.2489,133.97],[19.5824,47.2396,136.367],[19.5812,47.2367,135.1917],[19.5682,47.2338,136.8087],[19.5637,47.238,137.0141],[19.561,47.2445,137.5858],[19.558,47.247,137.9175],[19.5476,47.2502,138.8825],[19.533,47.2503,137.9992],[19.5251,47.2478,138.5793],[19.5112,47.2318,139.3577],[19.5241,47.2132,139.2782],[19.5266,47.1971,136.5873],[19.5889,47.1758,140.0475],[19.5892,47.1719,148.4358],[19.5858,47.165,147.8507],[19.5867,47.1593,148.3547],[19.6093,47.1435,149.4513],[19.6143,47.1367,145.5082],[19.5995,47.1125,141.638],[19.6164,47.0972,140.7406],[19.6265,47.0802,138.7088],[19.6414,47.0631,143.365],[19.6462,47.0532,136.4427],[19.6475,47.0433,139.298],[19.6519,47.034,143.294],[19.6605,47.022,133.3502],[19.6854,46.9959,128.4554],[19.7103,46.9785,127.7853],[19.7246,46.9726,123.4117],[19.7361,46.9719,122.5033],[19.7452,46.9691,122.0803],[19.7638,46.9537,123.1609],[19.7796,46.9461,128.8914],[19.787,46.9454,117.6585],[19.8149,46.9517,113.8804],[19.8315,46.947,110.5026],[19.8487,46.945,109.7474],[19.8504,46.9464,110.1589],[19.8517,46.955,110.3708],[19.857,46.9679,109.5019],[19.8794,46.9899,109.2005],[19.8867,46.9941,106.4898],[19.8914,46.9936,105.4621],[19.9075,46.9862,103.4861],[19.9586,46.9685,101.19],[19.9835,46.9648,97.2516],[19.992,46.9768,96.2267],[19.9931,46.9946,92.69],[20.0027,47.0028,91.6453],[20.0172,47.0071,91.1691],[20.0334,47.0083,91.033],[20.0499,47.0119,90.4137],[20.0621,47.0176,87.4871],[20.0696,47.0175,87.1997],[20.0816,47.0138,86.4901]]]]}}