{"type": "Feature","bbox": [16.9057,47.4002,17.1678,47.7086],"geometry": {"type": "MultiPolygon","coordinates": [[[[17.151,47.6004,117.0165],[17.1432,47.6082,118.3137],[17.1318,47.6245,116.1627],[17.1241,47.6314,117.5156],[17.1164,47.6482,127.5306],[17.1088,47.654,114.0707],[17.1063,47.6804,115.2297],[17.1013,47.6911,117.3761],[17.1014,47.7025,119.719],[17.093,47.7086,117.0137],[17.0417,47.7048,113.809],[17.0053,47.6992,115.3965],[17.0093,47.6953,122.3547],[17.0086,47.691,121.4579],[16.9811,47.6855,123.0095],[16.9795,47.6749,114.1089],[16.9726,47.6657,128.6182],[16.9578,47.655,117.8748],[16.942,47.6487,115.5924],[16.9196,47.6356,118.1164],[16.9142,47.6283,117.8938],[16.9136,47.625,118.7957],[16.9151,47.6216,119.2668],[16.9221,47.6163,118.2854],[16.9228,47.6126,118.4687],[16.9203,47.6108,118.615],[16.909,47.6089,121.7477],[16.9062,47.6062,123.489],[16.9057,47.6027,122.5494],[16.9086,47.5988,123.016],[16.9283,47.5985,125.2309],[16.94,47.592,129.0126],[16.9396,47.5858,133.6553],[16.9477,47.5725,136.673],[16.9498,47.5563,140.3598],[16.9538,47.5507,146.782],[16.9515,47.5444,143.0078],[16.9521,47.5421,137.4904],[16.9599,47.5393,140.9987],[16.9736,47.5382,148.8512],[16.985,47.5326,146.0097],[16.9941,47.5337,138.1622],[16.9993,47.5312,127.8818],[16.9994,47.5285,128.2995],[16.9973,47.5265,128.7148],[16.9717,47.5149,136.5104],[16.9698,47.5042,139.2833],[16.963,47.4962,147.0113],[16.9641,47.4915,146.1425],[16.9744,47.4797,146.1997],[16.9982,47.4649,134.3857],[16.9985,47.4629,135.1087],[16.9939,47.4554,137.8449],[16.9952,47.453,142.7506],[17.0122,47.4395,137.2626],[17.0345,47.4493,140.8443],[17.0418,47.4598,133.9181],[17.0462,47.4624,132.7446],[17.0567,47.4619,133.2219],[17.0596,47.4556,133.1812],[17.067,47.4505,135.7865],[17.0673,47.4429,136.5918],[17.0566,47.4362,135.1022],[17.0554,47.4251,135.8303],[17.0451,47.4127,137.6656],[17.0457,47.4095,137.7409],[17.0541,47.4002,142.3018],[17.0629,47.404,140.1872],[17.1265,47.4213,133.6897],[17.1471,47.4326,132.93],[17.1585,47.4477,133.8352],[17.159,47.4526,139.4996],[17.1574,47.4588,129.4205],[17.1463,47.4664,128.5855],[17.1449,47.4696,128.5011],[17.1471,47.4723,128.9884],[17.1547,47.4757,127.164],[17.1671,47.4871,135.899],[17.1678,47.4893,133.4519],[17.1642,47.4913,128.8825],[17.1476,47.4906,126.4159],[17.1434,47.4921,125.8556],[17.1435,47.4944,125.6603],[17.1496,47.5005,125.3332],[17.1529,47.5094,124.2349],[17.1416,47.5126,125.4097],[17.1392,47.5218,124.4905],[17.1345,47.5296,123.8946],[17.1275,47.5324,124.6188],[17.1233,47.5363,125.3897],[17.1126,47.5519,131.7002],[17.1117,47.5554,134.8418],[17.1156,47.5633,120.5587],[17.1206,47.5661,120.6087],[17.1255,47.5653,121.05],[17.136,47.5589,120.4858],[17.1412,47.5596,120.3052],[17.1407,47.5648,120.2547],[17.133,47.5699,119.8636],[17.132,47.5746,119.1315],[17.1367,47.5793,119.7355],[17.1516,47.5859,118.1581],[17.151,47.6004,117.0165]]]]}
,"properties": {"GID_2": "HUN.8.3_1","GID_0": "HUN","country": "Hungary","GID_1": "HUN.8_1","province": "Gyor-Moson-Sopron","NL_NAME_1": "NA","county": "Kapuvár-Beled","VARNAME_2": "NA","NL_NAME_2": "NA","TYPE_2": "Kistérség","ENGTYPE_2": "Subregion","CC_2": "NA","HASC_2": "NA","name": "Kapuvár-Beled.county","area_km2": 390.7711,"hist_schema_id": "Elevation0-9000","hist_area_km2": {"100": 2.7693,"125": 360.5903,"150": 27.4116}}}