{"type": "Feature","bbox": [18.3511,46.0342,18.5696,46.2951],"geometry": {"type": "MultiPolygon","coordinates": [[[[18.3511,46.1209,231.2433],[18.3565,46.1156,203.9701],[18.359,46.107,213.1678],[18.368,46.1019,167.6625],[18.3629,46.0955,188.6169],[18.3635,46.0895,169.1996],[18.3592,46.0843,188.5312],[18.3645,46.0754,170.2981],[18.3661,46.0684,175.9866],[18.3709,46.0672,163.1886],[18.382,46.0699,189.8924],[18.3885,46.0679,184.5617],[18.3902,46.0643,180.7593],[18.3934,46.0623,181.4088],[18.3941,46.0581,177.6848],[18.4006,46.0506,181.7036],[18.3959,46.0438,167.0841],[18.4142,46.0438,218.899],[18.4196,46.0406,216.6993],[18.4241,46.0352,209.5917],[18.4277,46.0342,206.6046],[18.4331,46.0362,199.2873],[18.4362,46.0407,196.9457],[18.4403,46.0428,146.6967],[18.4558,46.0457,168.4144],[18.4649,46.0523,165.3709],[18.4757,46.0552,146.5583],[18.4832,46.0653,165.2099],[18.4843,46.0704,187.9817],[18.4836,46.0775,192.2837],[18.4776,46.0801,194.7777],[18.4771,46.0823,197.3318],[18.4916,46.0923,205.1801],[18.4961,46.1,219.6252],[18.4933,46.1101,238.3024],[18.5038,46.117,243.8911],[18.5037,46.1279,270.917],[18.5008,46.1352,199.1037],[18.5047,46.1396,222.5947],[18.5129,46.1425,254.8049],[18.5173,46.1488,177.41],[18.5326,46.1542,178.0621],[18.5332,46.1569,179.2927],[18.528,46.1659,221.0625],[18.541,46.172,201.5182],[18.5449,46.1757,222.8876],[18.5414,46.1934,270.2996],[18.5271,46.2072,228.1393],[18.5267,46.2096,271.4673],[18.5319,46.211,191.5625],[18.5466,46.2074,243.1662],[18.5586,46.1976,278.0738],[18.5631,46.1978,257.1058],[18.5696,46.2015,258.5872],[18.5606,46.2193,167.2366],[18.5394,46.2245,193.573],[18.5345,46.2281,234.7112],[18.5299,46.2345,269.8775],[18.5295,46.2393,218.9608],[18.5364,46.2573,145.5927],[18.5364,46.2656,121.8342],[18.5348,46.2699,116.6542],[18.5111,46.2917,151.2289],[18.496,46.2951,156.662],[18.475,46.2941,155.973],[18.4737,46.2902,149.0425],[18.4755,46.2628,208.5899],[18.4734,46.258,170.2931],[18.4676,46.2541,169.4593],[18.4499,46.2469,226.6938],[18.4424,46.2384,318.6758],[18.4145,46.2282,376.2848],[18.4022,46.221,315.3499],[18.398,46.2173,381.4522],[18.3958,46.2107,506.8103],[18.3888,46.2009,486.1788],[18.3877,46.1871,443.5344],[18.3843,46.1808,596.2785],[18.3835,46.1749,499.6491],[18.3874,46.165,340.6643],[18.3876,46.1477,253.1386],[18.3912,46.14,232.8314],[18.3905,46.1345,236.1456],[18.373,46.1301,209.6418],[18.3624,46.1226,176.6278],[18.3511,46.1209,231.2433]]]]}
,"properties": {"GID_2": "HUN.2.4_1","GID_0": "HUN","country": "Hungary","GID_1": "HUN.2_1","province": "Baranya","NL_NAME_1": "NA","county": "Pécsváradi","VARNAME_2": "NA","NL_NAME_2": "NA","TYPE_2": "Kistérség","ENGTYPE_2": "Subregion","CC_2": "NA","HASC_2": "NA","name": "Pécsváradi.county","area_km2": 246.6101,"hist_schema_id": "Elevation0-9000","hist_area_km2": {"125": 8.8754,"150": 22.0412,"175": 41.4409,"200": 50.1016,"225": 38.3443,"250": 30.215,"275": 17.6709,"300": 10.8738,"325": 6.2954,"350": 4.6079,"375": 4.5788,"400": 3.7424,"425": 2.9059,"450": 2.3041,"475": 1.3942,"500": 0.6458,"525": 0.2349,"550": 0.1174,"575": 0.0881,"600": 0.0881,"625": 0.044}}}