{"type": "Feature","bbox": [19.5502,46.3568,19.8894,46.6235],"geometry": {"type": "MultiPolygon","coordinates": [[[[19.568,46.5302,125.285],[19.574,46.5271,128.9204],[19.585,46.517,128.9321],[19.6064,46.5078,123.3777],[19.6143,46.5026,124.5223],[19.6404,46.4784,115.996],[19.6556,46.4599,115.0973],[19.6556,46.4566,115.8007],[19.6499,46.4503,119.2848],[19.6409,46.4471,121.2598],[19.6292,46.4458,121.7195],[19.6217,46.4427,126.6789],[19.6208,46.4383,123.7844],[19.6255,46.4326,123.5095],[19.6488,46.4261,128.286],[19.6573,46.4179,120.8094],[19.662,46.4166,120.4341],[19.6877,46.4426,121.6473],[19.6933,46.4445,120.3234],[19.7042,46.4407,127.018],[19.7134,46.4294,118.287],[19.7262,46.4279,118.6353],[19.7302,46.4255,113.9431],[19.7346,46.4172,114.9699],[19.7306,46.4068,123.0765],[19.7305,46.3625,115.6115],[19.7378,46.3576,117.5765],[19.7475,46.3568,123.7904],[19.756,46.3583,113.5734],[19.7698,46.3708,119.4645],[19.7961,46.3791,106.8578],[19.8152,46.3919,107.0497],[19.8457,46.3798,110.034],[19.863,46.3833,100.0072],[19.8718,46.3943,95.1931],[19.8749,46.4043,97.1718],[19.8893,46.4153,95.267],[19.8887,46.4296,94.8226],[19.878,46.4413,96.9063],[19.8748,46.4468,97.1294],[19.8784,46.4531,96.7654],[19.889,46.4626,91.6434],[19.8894,46.4796,97.1875],[19.8858,46.4846,97.796],[19.8674,46.4969,101.3338],[19.8456,46.5059,110.1529],[19.8088,46.5056,111.0256],[19.8008,46.5079,100.0384],[19.7828,46.5206,103.8851],[19.7667,46.5398,105.2482],[19.7542,46.5512,104.9293],[19.7383,46.554,117.1895],[19.7287,46.5633,115.3086],[19.7182,46.5703,105.8393],[19.7006,46.5792,109.501],[19.6779,46.5867,108.878],[19.6725,46.5909,109.3212],[19.6656,46.6006,109.549],[19.6472,46.6106,111.5441],[19.6351,46.6233,114.6804],[19.6317,46.6235,119.561],[19.6285,46.6214,118.5445],[19.6266,46.6127,110.7662],[19.6208,46.6066,114.2679],[19.6003,46.6001,117.0629],[19.5781,46.5997,121.2022],[19.5742,46.597,116.7859],[19.5668,46.5874,118.9564],[19.5502,46.5804,122.962],[19.5529,46.5744,120.7045],[19.5638,46.5627,119.9594],[19.5758,46.5457,117.3329],[19.5758,46.5431,118.6652],[19.5692,46.5341,129.4515],[19.568,46.5302,125.285]]]]}
,"properties": {"GID_2": "HUN.1.9_1","GID_0": "HUN","country": "Hungary","GID_1": "HUN.1_1","province": "Bács-Kiskun","NL_NAME_1": "NA","county": "Kiskunmajsa","VARNAME_2": "Kiskunmajsai","NL_NAME_2": "NA","TYPE_2": "Kistérség","ENGTYPE_2": "Subregion","CC_2": "NA","HASC_2": "NA","name": "Kiskunmajsa.county","area_km2": 364.5277,"hist_schema_id": "Elevation0-9000","hist_area_km2": {"100": 233.2383,"125": 131.041,"150": 0.2483}}}