{"type":"Feature","properties":{"GID_2":"HUN.11.6_1","GID_0":"HUN","country":"Hungary","GID_1":"HUN.11_1","province":"Jász-Nagykun-Szolnok","NL_NAME_1":"NA","county":"Tiszafüred","VARNAME_2":"Tiszafüredi","NL_NAME_2":"NA","TYPE_2":"Kistérség","ENGTYPE_2":"Subregion","CC_2":"NA","HASC_2":"NA","name":"Tiszafüred.county"},
"geometry":{"type": "MultiPolygon","coordinates": [[[[20.768,47.6752,103.004],[20.7693,47.67,90.483],[20.7678,47.6605,106.1047],[20.7614,47.6517,107.2393],[20.7365,47.6495,88.4627],[20.7252,47.6446,89.8042],[20.7182,47.6382,98.7583],[20.7167,47.6311,96.3332],[20.7189,47.6232,87.5],[20.7184,47.6197,100.9724],[20.701,47.6005,97.3327],[20.6963,47.593,91.3677],[20.6978,47.5902,93.1539],[20.7109,47.5803,92.0272],[20.7061,47.5695,85.9022],[20.7007,47.5654,86.5945],[20.692,47.5617,85.3071],[20.6579,47.5614,88.6862],[20.6565,47.5587,87.0],[20.6625,47.5499,88.6538],[20.656,47.5429,86.3151],[20.6336,47.5385,88.1461],[20.5904,47.5248,87.0],[20.5737,47.5144,88.7191],[20.5645,47.5066,88.3315],[20.5495,47.5035,87.0],[20.5287,47.5032,87.1091],[20.5237,47.5017,87.0],[20.5186,47.4982,87.0],[20.5144,47.4925,89.331],[20.5095,47.4828,103.4198],[20.5078,47.4756,97.1099],[20.4947,47.4593,84.7012],[20.4902,47.4587,85.1044],[20.4723,47.4613,87.6323],[20.4599,47.4575,87.4708],[20.4533,47.45,90.3712],[20.4511,47.4415,89.7461],[20.4427,47.4302,84.3574],[20.4367,47.4252,84.2192],[20.4229,47.4224,87.4716],[20.3751,47.4234,86.8039],[20.3703,47.412,86.4498],[20.3704,47.4032,86.1736],[20.3721,47.3995,87.6393],[20.3789,47.3948,81.1658],[20.4238,47.3935,84.4654],[20.4377,47.3899,89.6198],[20.4394,47.3858,86.2681],[20.4396,47.3625,93.7458],[20.4425,47.3603,80.5],[20.4465,47.3599,89.4717],[20.45,47.3614,98.2084],[20.4541,47.3661,87.3884],[20.4594,47.3652,87.2819],[20.461,47.3529,88.7254],[20.4685,47.3481,90.7998],[20.4689,47.3377,85.7863],[20.4858,47.3415,84.2685],[20.4957,47.3381,87.6976],[20.502,47.3315,86.8968],[20.5077,47.3285,88.4696],[20.5319,47.3276,86.6863],[20.5469,47.3218,90.6495],[20.5573,47.3249,87.2779],[20.5784,47.3252,89.1997],[20.5969,47.3201,87.1743],[20.6059,47.3222,87.6665],[20.6269,47.3229,87.3467],[20.6451,47.3303,86.8875],[20.6542,47.3306,85.8537],[20.6642,47.327,85.5797],[20.6778,47.3158,84.8046],[20.6963,47.3092,85.7526],[20.7081,47.2986,85.8658],[20.7221,47.2923,84.9433],[20.7382,47.282,84.7092],[20.7481,47.2783,85.332],[20.7524,47.2786,84.2413],[20.7539,47.2815,84.1629],[20.7541,47.3184,86.0584],[20.7572,47.3217,87.1439],[20.7708,47.3275,86.2432],[20.7755,47.3366,86.5564],[20.7758,47.3548,87.7488],[20.7708,47.3678,86.9183],[20.7661,47.3727,87.1548],[20.7417,47.3742,87.5972],[20.7244,47.3796,87.2857],[20.7205,47.3829,87.7082],[20.7322,47.4027,90.5729],[20.7339,47.4156,88.1256],[20.741,47.4251,87.4294],[20.741,47.429,87.1799],[20.7375,47.435,88.045],[20.7373,47.4408,87.7873],[20.7434,47.4502,88.9326],[20.755,47.4545,90.5522],[20.781,47.4586,87.1646],[20.797,47.4679,89.1795],[20.8146,47.4665,90.072],[20.8283,47.4696,88.9119],[20.840699999999998,47.4758,89.886],[20.8529,47.4695,89.9976],[20.8577,47.4691,89.0658],[20.8703,47.4718,89.8089],[20.8859,47.4793,89.542],[20.8937,47.4784,88.5461],[20.9215,47.4681,86.211],[20.9402,47.4679,86.1404],[20.9546,47.4704,86.4614],[20.9903,47.4694,86.295],[20.991,47.4821,86.3169],[20.9972,47.4922,87.3344],[20.9919,47.4975,87.8512],[20.9827,47.5128,87.4442],[20.9943,47.5315,87.9581],[20.9904,47.5402,89.1198],[20.9897,47.561,89.4262],[20.9839,47.5693,89.6925],[20.9607,47.5818,91.2524],[20.9492,47.5854,90.647],[20.9114,47.5856,88.9681],[20.8916,47.5781,89.5084],[20.883,47.5774,88.5932],[20.8666,47.5782,89.4146],[20.8468,47.585,91.2738],[20.8303,47.5959,87.4387],[20.8256,47.6049,87.1526],[20.8255,47.6183,88.1031],[20.8204,47.6491,88.1299],[20.8218,47.656,88.1502],[20.8267,47.6652,89.6054],[20.83,47.6684,96.8855],[20.8288,47.672,105.5391],[20.8209,47.6817,86.0],[20.8108,47.6895,91.1259],[20.7961,47.6959,88.2142],[20.7874,47.6939,88.1156],[20.7752,47.6868,89.0768],[20.768,47.6752,103.004]]]]}}